{
"type": "FeatureCollection",
"name": "EG_Muenster",
"crs": { "type": "name", "properties": { "name": "urn:ogc:def:crs:OGC:1.3:CRS84" } },
"features": [
{ "type": "Feature", "properties": { "USE": 4, "RS": "03454", "RS_ALT": "034540000000", "GEN": "Emsland", "SHAPE_LENG": 271600.40650876501, "SHAPE_AREA": 2876640593.8053799 }, "geometry": { "type": "MultiPolygon", "coordinates": [ [ [ [ 7.146458236577146, 52.584306008798954 ], [ 7.146344728905114, 52.584391603071758 ], [ 7.146425753247496, 52.584368492527162 ], [ 7.146458236577146, 52.584306008798954 ] ] ], [ [ [ 6.911259538616751, 51.746200690612689 ], [ 6.915670505140655, 51.742137286489836 ], [ 6.925769555084448, 51.732490493573103 ], [ 6.938947708495426, 51.718639549802489 ], [ 6.941026957390418, 51.714847336809697 ], [ 6.937085861902239, 51.704227042772274 ], [ 6.929277300628097, 51.699163976484421 ], [ 6.911856161315445, 51.677020334864551 ], [ 6.89885121819122, 51.653071668009105 ], [ 6.902034980717743, 51.635253881087067 ], [ 6.867284085553345, 51.631037221812548 ], [ 6.866173586527998, 51.629895174126304 ], [ 6.862425843475283, 51.615332135839566 ], [ 6.862776263570236, 51.600372809651788 ], [ 6.865263625405456, 51.596918619641968 ], [ 6.864667219997186, 51.596233701207396 ], [ 6.859352556311759, 51.590323110123379 ], [ 6.85793614493565, 51.589405660341505 ], [ 6.848519454861735, 51.58545748702435 ], [ 6.84795973017101, 51.58522399328703 ], [ 6.842150013636787, 51.582837110555047 ], [ 6.831627149060917, 51.579735909362206 ], [ 6.822254270800697, 51.576732650136151 ], [ 6.815223605047227, 51.573738803815225 ], [ 6.789011374839529, 51.551495976737471 ], [ 6.783787423681765, 51.546250894487471 ], [ 6.784237256150856, 51.531978461783559 ], [ 6.772384023648456, 51.534765776687664 ], [ 6.73479192193239, 51.545947516337392 ], [ 6.720944277028492, 51.55110736180346 ], [ 6.692492885717125, 51.559452194776021 ], [ 6.685667046142873, 51.560024243608716 ], [ 6.680156149684843, 51.550548928715024 ], [ 6.678112492040092, 51.546987340871034 ], [ 6.677660133321676, 51.545828564165568 ], [ 6.677360321211165, 51.544746819131092 ], [ 6.676922509857294, 51.542894839354723 ], [ 6.676736161873097, 51.541492494891166 ], [ 6.676633615590256, 51.540471167939231 ], [ 6.676704526295823, 51.539275312013174 ], [ 6.676847054574821, 51.538433134390715 ], [ 6.677124464671545, 51.537532275288115 ], [ 6.677907818001523, 51.536107290173661 ], [ 6.679038401787776, 51.534675580916229 ], [ 6.679872321860461, 51.533855811702445 ], [ 6.680957841539116, 51.532963124916947 ], [ 6.683421516400342, 51.531304317470287 ], [ 6.686864851736455, 51.529325862053504 ], [ 6.690090218678622, 51.527880757799856 ], [ 6.691973041999777, 51.527121878590947 ], [ 6.693362574998178, 51.526563217866354 ], [ 6.689909984178948, 51.51875825550956 ], [ 6.671450951161557, 51.511213814366762 ], [ 6.657064843489786, 51.509051431850786 ], [ 6.652604147967524, 51.511284068270129 ], [ 6.63938743749498, 51.509301878430534 ], [ 6.633513312837983, 51.504487471343175 ], [ 6.633370878335504, 51.5041224468142 ], [ 6.638869941643917, 51.490420136414777 ], [ 6.645005183029547, 51.481125835129085 ], [ 6.645258868555823, 51.481026044071292 ], [ 6.647735719970119, 51.482800854842189 ], [ 6.650510945695799, 51.486008776223223 ], [ 6.650808563041194, 51.485901405687422 ], [ 6.655522921056817, 51.483884390405692 ], [ 6.663666284490361, 51.480024124949779 ], [ 6.675649022962633, 51.459856179586971 ], [ 6.677982317927786, 51.449328657464584 ], [ 6.663111359358237, 51.4119705942271 ], [ 6.643594619354801, 51.416214455306182 ], [ 6.637329647406298, 51.40093629699107 ], [ 6.635876988776467, 51.392518959717343 ], [ 6.609313576942943, 51.393641889817971 ], [ 6.563586928228241, 51.389297796789009 ], [ 6.559091683805129, 51.390165106918872 ], [ 6.548654011231955, 51.393147914421846 ], [ 6.534433813457658, 51.406399547647069 ], [ 6.516547201119621, 51.424444893713741 ], [ 6.508944050627189, 51.418402457877313 ], [ 6.461354217444244, 51.405540162165273 ], [ 6.434587592887887, 51.40650888518433 ], [ 6.426660062579183, 51.41142429475871 ], [ 6.398136991034351, 51.413774678205634 ], [ 6.393088221952126, 51.401424658932832 ], [ 6.387439579557875, 51.39436068815499 ], [ 6.357269084361388, 51.376404221027123 ], [ 6.310894973518115, 51.361033651923321 ], [ 6.307223610312566, 51.360253674119328 ], [ 6.304217719338079, 51.359911915127363 ], [ 6.274027526123237, 51.356530288645679 ], [ 6.271406088584842, 51.356237566442886 ], [ 6.268300565490927, 51.356044482090311 ], [ 6.266131080332243, 51.356002246635882 ], [ 6.258583840885351, 51.361677429378929 ], [ 6.224269931176723, 51.36565885866414 ], [ 6.214999850493729, 51.387733792290021 ], [ 6.206025596179374, 51.40053654423096 ], [ 6.220014527626065, 51.454208900842687 ], [ 6.223555182303867, 51.469459663434868 ], [ 6.223470386916163, 51.470988610518361 ], [ 6.213138609350644, 51.511751641897597 ], [ 6.212424196319838, 51.513212564342304 ], [ 6.206593392805205, 51.520876396355099 ], [ 6.20078273389823, 51.526918593952125 ], [ 6.157444650700961, 51.566342423565047 ], [ 6.125369448084187, 51.586785563371357 ], [ 6.091790858994684, 51.606002186389908 ], [ 6.093853006199647, 51.622454806406594 ], [ 6.096040980527113, 51.621986749658724 ], [ 6.098229746987592, 51.621509645030677 ], [ 6.116168250446644, 51.652764961840944 ], [ 6.117942202081153, 51.656021076203693 ], [ 6.101460459811309, 51.659860305714439 ], [ 6.078961993019455, 51.662796307459807 ], [ 6.04012158208676, 51.672015809601177 ], [ 6.031322410274557, 51.676613198513472 ], [ 6.030238266765473, 51.677617654102633 ], [ 6.026584466851001, 51.707807095038056 ], [ 6.026774916561319, 51.708823727055304 ], [ 6.027340459124307, 51.70956613067429 ], [ 6.030426369440743, 51.711088818826298 ], [ 6.032310855433118, 51.711845016531001 ], [ 6.034022044977914, 51.712297200768639 ], [ 6.035541942108244, 51.712480797353351 ], [ 6.041878811678347, 51.712810046668686 ], [ 6.044000149392472, 51.712926072057577 ], [ 6.044583599815083, 51.713191410727902 ], [ 6.046218197434536, 51.71547007779008 ], [ 6.046477469677347, 51.71608367768652 ], [ 6.046288190734155, 51.716536175515841 ], [ 6.032483786927464, 51.724153717962444 ], [ 5.994959161499836, 51.737781462673986 ], [ 5.992849878220642, 51.738413109498289 ], [ 5.989752158200607, 51.738763708887014 ], [ 5.965749634239968, 51.738675235143937 ], [ 5.955316529358903, 51.738626341326849 ], [ 5.952755920087829, 51.742466665487441 ], [ 5.952832455988087, 51.748977067710463 ], [ 5.983464239461671, 51.763110843497664 ], [ 5.989979700152529, 51.766108204927576 ], [ 5.99088793654495, 51.769847055602483 ], [ 5.977023554693136, 51.797122563285235 ], [ 5.963005855682196, 51.806365341510592 ], [ 5.955597012483804, 51.810092105356624 ], [ 5.946134886411471, 51.824591062414775 ], [ 5.955474189859807, 51.831420782003157 ], [ 5.962958694871436, 51.836889835986234 ], [ 5.963567064740414, 51.836624715265657 ], [ 5.968959872680058, 51.834334448730438 ], [ 5.971137265398159, 51.833651585434502 ], [ 5.97332945955903, 51.833257647865146 ], [ 5.986364714870295, 51.831195155009702 ], [ 5.989430031549547, 51.830942329398425 ], [ 5.991764111690533, 51.831022132940475 ], [ 5.994801376186298, 51.831344893059168 ], [ 5.996892326939619, 51.831676701146066 ], [ 6.000005389205667, 51.832263585952653 ], [ 6.00272017704767, 51.832907349178186 ], [ 6.005253118609844, 51.833625290844246 ], [ 6.01084257253581, 51.835360186086447 ], [ 6.05511375315145, 51.852592171421868 ], [ 6.102786877974788, 51.848376634909854 ], [ 6.166268707541063, 51.84090037002936 ], [ 6.164722202617483, 51.860335031722421 ], [ 6.137446959423986, 51.885684088236189 ], [ 6.136153739857988, 51.886564702962843 ], [ 6.120462129755872, 51.891330469575898 ], [ 6.119998420606187, 51.891457559326014 ], [ 6.118566260830363, 51.891810187496333 ], [ 6.118462075478429, 51.891833386688681 ], [ 6.117912106023239, 51.891948246966543 ], [ 6.125550069537603, 51.898691104708099 ], [ 6.153869385383162, 51.903993467643588 ], [ 6.169677437103088, 51.901831717206193 ], [ 6.188234607765709, 51.892171618586566 ], [ 6.185958605779969, 51.886538206843674 ], [ 6.186648924378964, 51.884788119178815 ], [ 6.18759689331151, 51.882470752353903 ], [ 6.188471600739475, 51.881538359407635 ], [ 6.19400388522762, 51.877855540383287 ], [ 6.196485224601285, 51.87640469574707 ], [ 6.199747219232465, 51.874855945307125 ], [ 6.203671193329558, 51.873231943848843 ], [ 6.207058378332151, 51.872047994280607 ], [ 6.211633067218698, 51.870618503780932 ], [ 6.214290642854552, 51.869912578208179 ], [ 6.219580082240252, 51.868616733845094 ], [ 6.219682464341202, 51.868611425837358 ], [ 6.24640046059945, 51.869608359438963 ], [ 6.269871055102971, 51.874069623142333 ], [ 6.271197276340454, 51.874522373485597 ], [ 6.272142326615921, 51.874691200439038 ], [ 6.273553863641984, 51.874696430676337 ], [ 6.273656259202872, 51.874691057454463 ], [ 6.277320216178055, 51.87442505635228 ], [ 6.278973213478316, 51.874024351960479 ], [ 6.279926789157646, 51.873787941240799 ], [ 6.291057666260035, 51.870696322436217 ], [ 6.298082666176511, 51.868548623934274 ], [ 6.334014093249485, 51.851750689510077 ], [ 6.380151299599342, 51.835009488109051 ], [ 6.397501501590428, 51.829520620928818 ], [ 6.407802101157707, 51.828489124548994 ], [ 6.403989044762221, 51.835312845412027 ], [ 6.389522550897405, 51.86473309544018 ], [ 6.389425129099885, 51.865810868157325 ], [ 6.390280677996024, 51.874057230447249 ], [ 6.392313796125066, 51.873947417780371 ], [ 6.451605688402513, 51.865182987789964 ], [ 6.458219339352179, 51.858390376256345 ], [ 6.458606728365021, 51.858124289824211 ], [ 6.459923493985638, 51.857223194976882 ], [ 6.461973303328469, 51.856094767729061 ], [ 6.464044166871215, 51.855219298672239 ], [ 6.46637797052029, 51.854659036848815 ], [ 6.47089138296012, 51.854127718997248 ], [ 6.496368387009166, 51.860701974834043 ], [ 6.497813330475046, 51.861147104955968 ], [ 6.498535793272734, 51.86136967039478 ], [ 6.500052025329123, 51.861997384962663 ], [ 6.528979145532461, 51.876148674207734 ], [ 6.579623481961803, 51.891903161280631 ], [ 6.614086166178565, 51.899206576278509 ], [ 6.636842706358934, 51.904029589590237 ], [ 6.640785306224879, 51.905103597861157 ], [ 6.67332949803924, 51.915515435217706 ], [ 6.683181254496758, 51.917012359719799 ], [ 6.694588121901684, 51.915774984691673 ], [ 6.697006957055645, 51.910195789498438 ], [ 6.702858757751992, 51.906744039168046 ], [ 6.713632618796805, 51.900656807276874 ], [ 6.721329660579573, 51.896344274602697 ], [ 6.731827035038635, 51.898974687245662 ], [ 6.749594980193971, 51.907382300923075 ], [ 6.769803593961846, 51.917007588545886 ], [ 6.777859273862439, 51.922682329531298 ], [ 6.788024310126721, 51.929845460512212 ], [ 6.794080764444761, 51.936861539935514 ], [ 6.795756596774237, 51.944362268571226 ], [ 6.798753237563212, 51.958911188780533 ], [ 6.803046794476947, 51.960071492185499 ], [ 6.807242443543462, 51.961183566985746 ], [ 6.810725790396922, 51.962093254841704 ], [ 6.813210198479801, 51.962737688992824 ], [ 6.828289872149142, 51.964483104953686 ], [ 6.830436109363648, 51.968593192325734 ], [ 6.831887269844677, 51.971384881140253 ], [ 6.832193634523401, 51.972826338287803 ], [ 6.829535477076782, 51.986217769711466 ], [ 6.825945770009289, 51.993257972527623 ], [ 6.752581841777483, 52.028492134482022 ], [ 6.71544687660314, 52.039900388919875 ], [ 6.687569700300138, 52.040020263817063 ], [ 6.68664685587249, 52.05393346225182 ], [ 6.687024646254524, 52.054999347629874 ], [ 6.695327087609196, 52.070954570520477 ], [ 6.73487733385564, 52.075155378114069 ], [ 6.748373230484685, 52.083560513580558 ], [ 6.749342370126183, 52.084743819095422 ], [ 6.757635681910521, 52.100252037224557 ], [ 6.758360515360947, 52.102274158961855 ], [ 6.760107923777436, 52.11881932734542 ], [ 6.822285492967099, 52.118635178585848 ], [ 6.85510428222492, 52.120569552502836 ], [ 6.870325238870508, 52.129426513660675 ], [ 6.871829129854215, 52.130561888321864 ], [ 6.872771850904896, 52.131761253133654 ], [ 6.880864554060515, 52.156069103082991 ], [ 6.906591311151053, 52.175369279383084 ], [ 6.907840341205233, 52.176055176314442 ], [ 6.910167541972199, 52.176629394419685 ], [ 6.951167299412359, 52.181077605139691 ], [ 6.955818228514959, 52.18602415167107 ], [ 6.974213415453399, 52.205792868113875 ], [ 6.9757002457569, 52.209276421480347 ], [ 6.979976950053018, 52.219091146033222 ], [ 6.980817741534548, 52.220529567166061 ], [ 6.982088262870321, 52.222097693225969 ], [ 6.985106911656271, 52.224941758313854 ], [ 6.987864935210199, 52.226994703523744 ], [ 6.99166579669076, 52.227520421457839 ], [ 7.003928518661368, 52.228599688654803 ], [ 7.005353226024718, 52.228569276866196 ], [ 7.005955859311483, 52.228550856620728 ], [ 7.009154948038728, 52.228139997236021 ], [ 7.013109824824292, 52.227625013164271 ], [ 7.01323239688465, 52.227556562399876 ], [ 7.018824159565153, 52.224829041857362 ], [ 7.039028743252122, 52.227882322157001 ], [ 7.050030219000491, 52.231468474381785 ], [ 7.056504147978974, 52.234257071056241 ], [ 7.061459233427079, 52.237163758559198 ], [ 7.063378417203996, 52.239307771618414 ], [ 7.063840920307569, 52.240167400994338 ], [ 7.06374074765326, 52.241290007290743 ], [ 7.053225814278449, 52.248758026263573 ], [ 7.042700499072698, 52.256314932205278 ], [ 7.02928537984406, 52.273151314236785 ], [ 7.028549534465735, 52.274129431063351 ], [ 7.028273365456083, 52.27523790877143 ], [ 7.026322778044437, 52.289119361354643 ], [ 7.026572776318099, 52.290828313953469 ], [ 7.027260264191584, 52.292576977756269 ], [ 7.056085143754729, 52.337904405632521 ], [ 7.056633550360402, 52.338613429542193 ], [ 7.072303110784601, 52.352306079522513 ], [ 7.072575571127265, 52.373048305392786 ], [ 7.063791863777446, 52.389822220187881 ], [ 7.058989607877575, 52.398345762907439 ], [ 7.054118873932704, 52.400636986057478 ], [ 7.051135813867369, 52.400956508948696 ], [ 7.035110749642988, 52.402620122334952 ], [ 7.031993410722834, 52.407346883695887 ], [ 7.021887212174653, 52.422846498265663 ], [ 6.993052878269343, 52.465467436668199 ], [ 6.991677742849093, 52.467029906149158 ], [ 6.987854427509819, 52.469169158329798 ], [ 6.977868769503808, 52.464915785393636 ], [ 6.973437456789113, 52.459591055482697 ], [ 6.968206864532684, 52.452450942798237 ], [ 6.964040301164752, 52.447349629300632 ], [ 6.96229517128864, 52.445560614617762 ], [ 6.959912419910359, 52.443824840365771 ], [ 6.95237396775945, 52.439280948516959 ], [ 6.949757042685095, 52.437907188344134 ], [ 6.946663561004245, 52.436600307416334 ], [ 6.941893137841133, 52.435450798351255 ], [ 6.862824967612858, 52.451299645056551 ], [ 6.854129236388889, 52.459653225606225 ], [ 6.775371865009542, 52.45962615485022 ], [ 6.769880973405111, 52.460599560226605 ], [ 6.758784314877344, 52.462677128100481 ], [ 6.754170719728842, 52.463551088099926 ], [ 6.754080228222775, 52.463575264023788 ], [ 6.744467011773642, 52.467462673878025 ], [ 6.697738778154089, 52.486471866588928 ], [ 6.701059286535314, 52.501776871306156 ], [ 6.702705901289606, 52.509338780212396 ], [ 6.705122792840255, 52.52053576035474 ], [ 6.681455730951503, 52.551934529954274 ], [ 6.683128379415759, 52.552761899784841 ], [ 6.693885957937362, 52.551508319854314 ], [ 6.715564487318489, 52.548967401043384 ], [ 6.766222337118473, 52.56197368704175 ], [ 6.765208528498485, 52.564031215079588 ], [ 6.764527612945166, 52.564577383671626 ], [ 6.7641491617624, 52.564862781446571 ], [ 6.760730120455618, 52.56670166063428 ], [ 6.718749754145823, 52.589091537483817 ], [ 6.722558165091413, 52.619806774121344 ], [ 6.725048830198909, 52.633237548576147 ], [ 6.742301690527267, 52.645588651213366 ], [ 6.75421218331525, 52.648128504731659 ], [ 6.756117832312295, 52.648529704964226 ], [ 6.756932616341676, 52.648699023430801 ], [ 6.780791138727047, 52.652668237846186 ], [ 6.783949569250024, 52.652963501667493 ], [ 6.787950089671948, 52.652924434052238 ], [ 6.790823269859653, 52.652733582458538 ], [ 6.794149185511302, 52.652259438254809 ], [ 6.806114653732627, 52.649888887925187 ], [ 6.809500752798557, 52.649398175683309 ], [ 6.812299808760389, 52.649024499854498 ], [ 6.818644938372152, 52.648191668619965 ], [ 6.852585581516057, 52.64930229255036 ], [ 6.861503359477664, 52.649949352651205 ], [ 6.86324745688984, 52.650163929183549 ], [ 6.865113647722025, 52.650697253766396 ], [ 6.868667866449689, 52.652136585954644 ], [ 6.87025800432853, 52.652607504183571 ], [ 6.872215548646174, 52.65274732077485 ], [ 6.893407785150178, 52.651545282273503 ], [ 6.896722902189476, 52.651005007309216 ], [ 6.899660836911809, 52.650183325878302 ], [ 6.911186576259256, 52.646934197217945 ], [ 6.912403217589474, 52.646529223500586 ], [ 6.912829648974804, 52.646379839369132 ], [ 6.913719268578425, 52.645623011828498 ], [ 6.915077069380553, 52.641981214966826 ], [ 6.915580890236714, 52.641419993963538 ], [ 6.916500229274643, 52.640844092121512 ], [ 6.91762374051743, 52.640490308324765 ], [ 6.919002911541866, 52.640270148969122 ], [ 6.933639304265165, 52.638785647326841 ], [ 6.93576914839821, 52.638614464695188 ], [ 6.937711071088872, 52.638572729378673 ], [ 6.940201840010634, 52.638700170897337 ], [ 6.950451142900688, 52.639334942833116 ], [ 6.95467543336814, 52.639810114853042 ], [ 6.965492131970632, 52.641882613207109 ], [ 6.967724788584329, 52.642470059514025 ], [ 6.969275315365804, 52.64326259727212 ], [ 6.973154662333737, 52.645302415866716 ], [ 6.974631071182014, 52.645723622784253 ], [ 6.976199850966346, 52.645724383690414 ], [ 6.977819392425795, 52.645456521466777 ], [ 7.000441231177193, 52.641396894794369 ], [ 7.001942376850012, 52.640936244441562 ], [ 7.003291601118125, 52.640336157779586 ], [ 7.005416189009431, 52.638714228833749 ], [ 7.002449877842823, 52.635585626803348 ], [ 6.995378478753087, 52.606690144947521 ], [ 7.002158287761545, 52.608867362958932 ], [ 7.03281956127847, 52.618709205986235 ], [ 7.070156398468103, 52.604760443260076 ], [ 7.07189410365451, 52.604080674559945 ], [ 7.089508887104284, 52.594317534409562 ], [ 7.097120321574347, 52.591615813424262 ], [ 7.108688540098166, 52.589348997935097 ], [ 7.110014691263478, 52.601304699765748 ], [ 7.114580642268362, 52.599578509780386 ], [ 7.135544315934096, 52.589902347895269 ], [ 7.146458236577146, 52.584306008798954 ], [ 7.147610609820759, 52.583337409100416 ], [ 7.161758299538635, 52.575684809301301 ], [ 7.163819829029675, 52.556993643371449 ], [ 7.196119014462965, 52.549689003395251 ], [ 7.232990345804733, 52.555706099662828 ], [ 7.226421568924518, 52.559898545187842 ], [ 7.238496731051844, 52.562029168237011 ], [ 7.237061044990723, 52.565908413530011 ], [ 7.25236823779274, 52.567305572926166 ], [ 7.251542384055314, 52.571974106781148 ], [ 7.253291418481722, 52.576290590544282 ], [ 7.246596956382429, 52.583602777561516 ], [ 7.247221395289208, 52.584002083805423 ], [ 7.255009818814124, 52.581386711734609 ], [ 7.266375391120623, 52.585454273145068 ], [ 7.278520697147701, 52.586021543133619 ], [ 7.307067394587121, 52.593064117411309 ], [ 7.309748045323759, 52.589981962677655 ], [ 7.31943920712487, 52.587779572506498 ], [ 7.342813451130743, 52.596300172497358 ], [ 7.357436298329924, 52.599234288025038 ], [ 7.379759215450139, 52.60188213477398 ], [ 7.415905353321067, 52.612122413403732 ], [ 7.424301411596648, 52.610284168478586 ], [ 7.439602764880496, 52.612436999866212 ], [ 7.451840644435292, 52.61064736183787 ], [ 7.467048212653985, 52.615525741613773 ], [ 7.473521340202318, 52.613659111387911 ], [ 7.520200108022717, 52.616591786235702 ], [ 7.539650631828994, 52.609812410172886 ], [ 7.556277242587062, 52.610796338429687 ], [ 7.590788839495134, 52.613552240891252 ], [ 7.608046331460391, 52.61492643159422 ], [ 7.6082661499427, 52.614929014288073 ], [ 7.608111106252238, 52.607597266082855 ], [ 7.608566454166798, 52.607185223824295 ], [ 7.613373537243768, 52.602557695697577 ], [ 7.619347309014712, 52.593107317878761 ], [ 7.62030650997294, 52.590601449874924 ], [ 7.622084706107751, 52.58339950626312 ], [ 7.616127406523707, 52.548591791668436 ], [ 7.610703002328689, 52.491692368172302 ], [ 7.608904021080654, 52.473622534210861 ], [ 7.614917585099397, 52.472011900915938 ], [ 7.682303752360041, 52.457814242595688 ], [ 7.686857017274912, 52.454977930609928 ], [ 7.69649120608308, 52.443656388169678 ], [ 7.698613681770657, 52.440088005331283 ], [ 7.702068414162214, 52.434273690574372 ], [ 7.702595996285406, 52.433368003690767 ], [ 7.708254186238071, 52.415059251352822 ], [ 7.714304875516232, 52.400314160441674 ], [ 7.730938842159148, 52.39803473914391 ], [ 7.755673976322164, 52.389539727133197 ], [ 7.801934216223203, 52.373614723950091 ], [ 7.808867251209453, 52.371277455078328 ], [ 7.831118854383304, 52.369443251090871 ], [ 7.841798467021978, 52.368600227846215 ], [ 7.86131245784735, 52.374790138893438 ], [ 7.864252953754458, 52.375547657075685 ], [ 7.891321668426717, 52.381403129847655 ], [ 7.93917234773722, 52.363868219750501 ], [ 7.950253545283458, 52.348347010414841 ], [ 7.95048453683483, 52.34764101277608 ], [ 7.950398800946173, 52.346820280391434 ], [ 7.947889435534035, 52.339504783429938 ], [ 7.947798734202689, 52.33851296340616 ], [ 7.948027392894965, 52.337329963829141 ], [ 7.949085149226071, 52.335255672778537 ], [ 7.949823731116409, 52.334146503980747 ], [ 7.958773039575106, 52.3265432872468 ], [ 7.959460060293661, 52.326080885068599 ], [ 7.963488770936882, 52.324438331096573 ], [ 7.977634456225963, 52.312858005277626 ], [ 7.959348034806396, 52.305677681579027 ], [ 7.955268077559811, 52.305915117106949 ], [ 7.947291324199841, 52.305745561134756 ], [ 7.934302070017358, 52.302336597656861 ], [ 7.93357581813487, 52.30194310750835 ], [ 7.933130707759162, 52.301510596430099 ], [ 7.928588877568045, 52.293124951659777 ], [ 7.932982960051814, 52.288386522631441 ], [ 7.955513257637858, 52.271939402716576 ], [ 7.945345696660986, 52.26497354985716 ], [ 7.913470312912827, 52.222567557507823 ], [ 7.905209418773731, 52.208988141067231 ], [ 7.908646994280664, 52.189677104747751 ], [ 7.932845800241608, 52.177680382407559 ], [ 7.939452695415066, 52.176049096005478 ], [ 7.991138233263884, 52.174787031250077 ], [ 8.007135596793267, 52.176147616100728 ], [ 8.017338173538004, 52.171356212305177 ], [ 8.026478713939944, 52.162933255024591 ], [ 8.024904778584416, 52.159606872432164 ], [ 8.003555211159719, 52.14477246584908 ], [ 8.008697235096969, 52.11569393230652 ], [ 7.959055113141233, 52.105737796466869 ], [ 7.899408627615314, 52.092482809875513 ], [ 7.886686794826005, 52.086822676837613 ], [ 7.885084681544092, 52.085977524828103 ], [ 7.883820155254745, 52.084599756073402 ], [ 7.893352491202422, 52.078643186319049 ], [ 7.906247220674794, 52.06671981633535 ], [ 7.916832916241858, 52.051388012554753 ], [ 7.929872259972073, 52.04824971880192 ], [ 7.942909249183217, 52.045118974756754 ], [ 7.974597777120217, 52.037523412726024 ], [ 7.983856629712498, 52.038196251213343 ], [ 7.987171424927329, 52.040003203640154 ], [ 7.987648269064534, 52.040616263571003 ], [ 7.988546157700898, 52.043902216908407 ], [ 7.988842516129152, 52.044349466413991 ], [ 7.992896928636226, 52.049420849986291 ], [ 7.99350864884748, 52.049973713683094 ], [ 8.031820141210082, 52.068592713660408 ], [ 8.067094395290002, 52.068183528322436 ], [ 8.092406006057441, 52.063972388213934 ], [ 8.097306289463337, 52.057474539728808 ], [ 8.075679634147994, 52.010634009524189 ], [ 8.091673203436718, 51.997827738048663 ], [ 8.098191989944048, 51.998076379986443 ], [ 8.099886955448842, 51.99828156830668 ], [ 8.107451742235181, 51.992520932234108 ], [ 8.114888547366299, 51.971961595603794 ], [ 8.110354582230698, 51.967019716078632 ], [ 8.113072000346756, 51.963276317693193 ], [ 8.11987212188302, 51.955006650761241 ], [ 8.138426111670766, 51.945827582394308 ], [ 8.162331691871088, 51.932665163933905 ], [ 8.168905068174146, 51.926278385395186 ], [ 8.172935334363904, 51.91977848676067 ], [ 8.170946981084573, 51.911999696239015 ], [ 8.162706623046212, 51.904998010841233 ], [ 8.16868337439513, 51.890022597409455 ], [ 8.190034769925189, 51.863404040724532 ], [ 8.200106944107279, 51.862573593998242 ], [ 8.204511991197183, 51.859679887238329 ], [ 8.214372334150498, 51.852625236288482 ], [ 8.218663660422859, 51.846452892956471 ], [ 8.218534983400803, 51.836262547956487 ], [ 8.233215399664227, 51.823854075512422 ], [ 8.253926077082248, 51.802351395398915 ], [ 8.263949350644348, 51.773219157010786 ], [ 8.278965146311361, 51.770225624199867 ], [ 8.30165538547832, 51.754224098675955 ], [ 8.30569540441614, 51.750123069522616 ], [ 8.310891355940148, 51.741858363980448 ], [ 8.319216338986266, 51.726613223679507 ], [ 8.308182577028294, 51.712837500478024 ], [ 8.304413142728473, 51.707466618919227 ], [ 8.29690315620358, 51.695581959895058 ], [ 8.296491499120213, 51.694809267603326 ], [ 8.296431097287631, 51.693359156761204 ], [ 8.296641873970531, 51.688989048880622 ], [ 8.296996112622219, 51.684945589565018 ], [ 8.297045001207566, 51.68453251406828 ], [ 8.29697686182138, 51.684144219979153 ], [ 8.29596451341483, 51.678716298043994 ], [ 8.295801512832965, 51.677894256268331 ], [ 8.295469390839759, 51.677276064417001 ], [ 8.294799436179105, 51.676759557083969 ], [ 8.293851685054893, 51.676300888549612 ], [ 8.268322441959745, 51.664886456155337 ], [ 8.25832290626877, 51.66220417516589 ], [ 8.251283015924402, 51.660864395033286 ], [ 8.250623213881436, 51.660743827726016 ], [ 8.219520943540516, 51.659049757525594 ], [ 8.218408642086652, 51.659010303193057 ], [ 8.208558296551866, 51.65978278162774 ], [ 8.196559686117983, 51.660962620032954 ], [ 8.194292391311585, 51.661440435766039 ], [ 8.200057153731233, 51.668825157924132 ], [ 8.210906894088238, 51.689178724609953 ], [ 8.211357751670832, 51.692319597722587 ], [ 8.210854137715033, 51.697746086338157 ], [ 8.157701209109328, 51.71068334362883 ], [ 8.140744760471978, 51.714711751663636 ], [ 8.119860209480915, 51.717866769884779 ], [ 8.115618923193358, 51.717781387962724 ], [ 8.109938425395683, 51.715569637242382 ], [ 8.107846106518084, 51.711531033159645 ], [ 8.09926511588329, 51.702230436819413 ], [ 8.091736124371511, 51.703535526385217 ], [ 8.071297771737523, 51.708131195853234 ], [ 8.062868345242078, 51.711612216357693 ], [ 8.059578644301375, 51.713794660163209 ], [ 8.056423807872276, 51.716699841828294 ], [ 8.053749394965401, 51.71712163422491 ], [ 7.975101034615852, 51.721932492941711 ], [ 7.971488589737407, 51.721999394628952 ], [ 7.96767843973922, 51.721449849915132 ], [ 7.963948295161623, 51.71972274259501 ], [ 7.960352775386905, 51.717404294688464 ], [ 7.958383191508265, 51.714517592539529 ], [ 7.95875079995788, 51.712599199909867 ], [ 7.960772737784363, 51.710635321981165 ], [ 7.960284537960634, 51.70716830373091 ], [ 7.95962169213661, 51.704759711393521 ], [ 7.958357970674999, 51.703778425731521 ], [ 7.957093753592066, 51.70280611762071 ], [ 7.953888836194511, 51.701305944316999 ], [ 7.952370155804206, 51.701003212155598 ], [ 7.945647443162869, 51.699985089368603 ], [ 7.92244884561286, 51.706512022560979 ], [ 7.888581448112905, 51.717543409731398 ], [ 7.878734297001694, 51.725994290917143 ], [ 7.874824640381927, 51.729202243722057 ], [ 7.820444047168021, 51.739424933837597 ], [ 7.802105599277552, 51.734705515865876 ], [ 7.780608407165468, 51.727345006111037 ], [ 7.772007781332433, 51.724752503682751 ], [ 7.769086010640001, 51.72416299055201 ], [ 7.759768844804381, 51.729663989117569 ], [ 7.735395734543893, 51.738819632502803 ], [ 7.702318395469899, 51.712376519010682 ], [ 7.694521124829858, 51.718754708458306 ], [ 7.666424072500122, 51.719579619459658 ], [ 7.613290992115084, 51.715162268294243 ], [ 7.606027296914914, 51.709943156641373 ], [ 7.587549236576151, 51.701098821582178 ], [ 7.549847838405459, 51.68719969025441 ], [ 7.542337427639022, 51.684626163237866 ], [ 7.538766854572516, 51.686751610314673 ], [ 7.518248110445692, 51.706844744632889 ], [ 7.477219198549941, 51.728780438190554 ], [ 7.472078696706626, 51.73545569447996 ], [ 7.467256094186753, 51.736016495552782 ], [ 7.435314442547793, 51.723209740967675 ], [ 7.43398545960377, 51.722491032729614 ], [ 7.42426803762813, 51.716746486436712 ], [ 7.425106710224273, 51.70623379083878 ], [ 7.426727091946553, 51.70562763256779 ], [ 7.429660911442843, 51.705100561753746 ], [ 7.436740467528344, 51.704554836597914 ], [ 7.43788088029946, 51.70462038503868 ], [ 7.449587875738819, 51.693154973356215 ], [ 7.45230318330892, 51.689155285739403 ], [ 7.451444346040054, 51.682272266660121 ], [ 7.448375218122075, 51.676394619577721 ], [ 7.435860932797394, 51.669074832263107 ], [ 7.429702125338187, 51.667636445559502 ], [ 7.424433223784943, 51.670407704740768 ], [ 7.413664186439942, 51.670982359494644 ], [ 7.409296499517052, 51.670472037206345 ], [ 7.409099631755108, 51.664605241476274 ], [ 7.40607355183528, 51.666101766205337 ], [ 7.381493335523815, 51.678106550612497 ], [ 7.379396496428233, 51.678906596305403 ], [ 7.377836969018531, 51.679261610508732 ], [ 7.370115257788943, 51.680345002572885 ], [ 7.368405804081483, 51.680560846943578 ], [ 7.367131635107755, 51.680554101082024 ], [ 7.366338307619325, 51.68050605668931 ], [ 7.363008358920391, 51.680273667876293 ], [ 7.360901843788623, 51.680154725702074 ], [ 7.359576270538722, 51.68026357602529 ], [ 7.358954806685863, 51.680454155221305 ], [ 7.339572483504663, 51.68739314960159 ], [ 7.299304765838179, 51.70632695903852 ], [ 7.29860597381097, 51.70678526626984 ], [ 7.298112140566849, 51.707420242125337 ], [ 7.29805162755361, 51.708283038912533 ], [ 7.298418285108139, 51.712768206477342 ], [ 7.311450675478428, 51.722295708511353 ], [ 7.323821445331135, 51.736405044788889 ], [ 7.310238472690112, 51.746277708046037 ], [ 7.295503336627443, 51.748716132771321 ], [ 7.292263089797354, 51.748997557747344 ], [ 7.27965279046233, 51.749258508389012 ], [ 7.268063428378121, 51.761927236769303 ], [ 7.257934065130678, 51.773977570799012 ], [ 7.262089128697593, 51.782915628679277 ], [ 7.263854003844491, 51.792409525045741 ], [ 7.26085151954195, 51.796856737600237 ], [ 7.256456067414036, 51.799644968814071 ], [ 7.248209741117557, 51.804488521725865 ], [ 7.209341633981788, 51.816544634915466 ], [ 7.206104576908056, 51.817508293550532 ], [ 7.191406505766603, 51.820430797422034 ], [ 7.186233919447399, 51.820826631505263 ], [ 7.18512404567288, 51.820903657088003 ], [ 7.172998772371384, 51.821194396139255 ], [ 7.169032775091623, 51.820983991992364 ], [ 7.167901612515223, 51.820754103411495 ], [ 7.166680848319365, 51.820359604931248 ], [ 7.133164617861815, 51.803572618688179 ], [ 7.115019459337247, 51.78855731943807 ], [ 7.11367888642356, 51.787447372913554 ], [ 7.074494349369771, 51.777504492565377 ], [ 7.060500727940489, 51.777098975677859 ], [ 7.033496514176991, 51.7811208270858 ], [ 7.022775737031492, 51.790136645073922 ], [ 7.020365065278294, 51.800215409183259 ], [ 6.994583626544256, 51.80113965851411 ], [ 6.98718540808793, 51.800632427167223 ], [ 6.973801462401817, 51.798451754134256 ], [ 6.969192289244115, 51.792514564557379 ], [ 6.967337588598522, 51.78964939750216 ], [ 6.964373684009838, 51.784238340554083 ], [ 6.963015283928185, 51.78097357162185 ], [ 6.961753154131475, 51.777405459853838 ], [ 6.954661625998853, 51.771888712335638 ], [ 6.935868339278016, 51.77347711795629 ], [ 6.916540023113254, 51.778712059936893 ], [ 6.909526620333257, 51.754758413011118 ], [ 6.909248952323011, 51.753308939692019 ], [ 6.908868527683195, 51.749478612311727 ], [ 6.909150427819524, 51.748478453336745 ], [ 6.911259538616751, 51.746200690612689 ] ] ] ] } }
]
}
