{
"type": "FeatureCollection",
"name": "EG_Siegen",
"crs": { "type": "name", "properties": { "name": "urn:ogc:def:crs:OGC:1.3:CRS84" } },
"features": [
{ "type": "Feature", "properties": { "USE": null, "RS": null, "RS_ALT": null, "GEN": null, "SHAPE_LENG": null, "SHAPE_AREA": null, "USE_2": 4, "RS_2": "05314", "RS_ALT_2": "053140000000", "GEN_2": "Bonn", "SHAPE_LE_1": 55924.451251112398, "SHAPE_AR_1": 143665641.802724, "StandortID": 3, "StandortNa": "Siegen", "USE_3": null, "RS_3": null, "RS_ALT_3": null, "GEN_3": null, "SHAPE_LE_2": null, "SHAPE_AR_2": null, "Standort_1": null, "Standort_2": null, "USE_4": null, "RS_4": null, "RS_ALT_4": null, "GEN_4": null, "SHAPE_LE_3": null, "SHAPE_AR_3": null, "Standort_3": null, "Standort_4": null }, "geometry": { "type": "MultiPolygon", "coordinates": [ [ [ [ 7.970462881029955, 50.406178332869253 ], [ 7.983792682556879, 50.406902888118275 ], [ 8.023348759287657, 50.399965196876181 ], [ 8.058236845528336, 50.373406735412821 ], [ 8.065777719937579, 50.366148674134045 ], [ 8.076050414930529, 50.348162984079785 ], [ 8.082038037972302, 50.330761585979644 ], [ 8.083015272427973, 50.330629110632181 ], [ 8.102670805440759, 50.326873107931647 ], [ 8.107351469736901, 50.322766690601632 ], [ 8.116558974251442, 50.302829289612482 ], [ 8.119674281599483, 50.293198611503371 ], [ 8.121603486583783, 50.277538858815397 ], [ 8.111840350320955, 50.270611351376608 ], [ 8.111611501801859, 50.270138483016112 ], [ 8.107636646916195, 50.261287494173366 ], [ 8.105207911729531, 50.260444603945615 ], [ 8.102792863127142, 50.259610944411634 ], [ 8.079538322473788, 50.260706789206516 ], [ 8.074324753100184, 50.26705129440289 ], [ 8.073553683284894, 50.268115254089764 ], [ 8.073766509200054, 50.271891717401175 ], [ 8.071736359356116, 50.273127074316953 ], [ 8.051217591842372, 50.273870133727556 ], [ 8.035698237739325, 50.271134056695651 ], [ 8.025147382778171, 50.261013074937843 ], [ 8.021351374384817, 50.2573570620469 ], [ 8.025114190672854, 50.253891377336174 ], [ 8.043996251804865, 50.242369217192582 ], [ 8.048745601820428, 50.240391332871916 ], [ 8.05976292518725, 50.234459818097633 ], [ 8.059153333159937, 50.233492585711573 ], [ 8.058521857389216, 50.232677920782514 ], [ 8.057489483297442, 50.232016753434003 ], [ 8.049694019781862, 50.227277127517425 ], [ 8.033499572152333, 50.218962483562208 ], [ 8.023161438931542, 50.217578089888825 ], [ 8.012125205946518, 50.217735053161633 ], [ 8.003562193419151, 50.223913587309433 ], [ 7.985212220789208, 50.22724834740184 ], [ 7.958318071827412, 50.21980376827463 ], [ 7.919281957812229, 50.20749733590204 ], [ 7.907565780950289, 50.200399463596312 ], [ 7.884307949007051, 50.180964137505356 ], [ 7.884674382748084, 50.16802616747016 ], [ 7.890473674056683, 50.162765747959682 ], [ 7.922365911372241, 50.146698406563651 ], [ 7.929404494990278, 50.14222037264917 ], [ 7.927498091841785, 50.105203102535995 ], [ 7.919951224085652, 50.108832125908613 ], [ 7.897318891040227, 50.121472182904384 ], [ 7.854231441565584, 50.128234728075597 ], [ 7.848908115999307, 50.126013692424003 ], [ 7.847071116615944, 50.124809683187586 ], [ 7.837071243688961, 50.109667950048326 ], [ 7.835162573436116, 50.105779119802058 ], [ 7.832693222403507, 50.099428294344818 ], [ 7.832011334323919, 50.09439762492427 ], [ 7.840367444350126, 50.087164865664661 ], [ 7.840216340274076, 50.085621817267892 ], [ 7.83568827110597, 50.083040443523458 ], [ 7.830898327675201, 50.081389077057075 ], [ 7.781606191640648, 50.066541436210272 ], [ 7.774300786814116, 50.067339649494279 ], [ 7.765490363677644, 50.083038043591678 ], [ 7.753999169276745, 50.091531767115157 ], [ 7.735970326038729, 50.104278218519866 ], [ 7.732024334821196, 50.106640691331449 ], [ 7.726383146412036, 50.110447509904198 ], [ 7.723498974801983, 50.1125923991939 ], [ 7.722758168843443, 50.113285674839631 ], [ 7.722480850712906, 50.113954217775053 ], [ 7.722288750752702, 50.114840895400015 ], [ 7.722431657463419, 50.115744751634253 ], [ 7.722886939867872, 50.116575142282542 ], [ 7.723849301368138, 50.117354838473098 ], [ 7.729095663180635, 50.120777478041767 ], [ 7.736794989082427, 50.125852822600983 ], [ 7.737992685710939, 50.126926168369742 ], [ 7.738598516029857, 50.127823180671989 ], [ 7.738829913981943, 50.128657105385535 ], [ 7.738667050807171, 50.129526515210593 ], [ 7.737506303197372, 50.133568106008703 ], [ 7.737142010419781, 50.134288607489673 ], [ 7.73670692116762, 50.134782297275052 ], [ 7.72572086159026, 50.147013402694242 ], [ 7.700840784611188, 50.165612356949538 ], [ 7.699707425346422, 50.166286922284762 ], [ 7.698424330113573, 50.166885790964933 ], [ 7.696507079125407, 50.167541133611735 ], [ 7.694146623562713, 50.1681045314415 ], [ 7.691649869934865, 50.168601511409811 ], [ 7.689970246076599, 50.168794384241558 ], [ 7.685557331034089, 50.169217149083579 ], [ 7.683531961446757, 50.169329383467044 ], [ 7.675710461591182, 50.169550773764591 ], [ 7.674205688463022, 50.169630683541463 ], [ 7.672277729936147, 50.169754121404786 ], [ 7.670062285513474, 50.169996500248466 ], [ 7.66802174099922, 50.170360201465414 ], [ 7.665860596450556, 50.170864934443372 ], [ 7.653202226378021, 50.17503471718728 ], [ 7.651377644419277, 50.175763675370867 ], [ 7.648711660989031, 50.176957872258626 ], [ 7.646687434878971, 50.178204005810692 ], [ 7.645250680908934, 50.179239675891949 ], [ 7.644558245883551, 50.180023767933854 ], [ 7.644372030292581, 50.180784453693235 ], [ 7.644231817109839, 50.181942495952434 ], [ 7.644378722495185, 50.182990630554961 ], [ 7.64670826019874, 50.188991459264713 ], [ 7.646936015715293, 50.190095630493239 ], [ 7.647150865168002, 50.191181491980608 ], [ 7.6470763876881, 50.192413206819801 ], [ 7.646851385980016, 50.194046343860116 ], [ 7.64621371622391, 50.196704671097223 ], [ 7.644805598270273, 50.20027122870308 ], [ 7.644234391487452, 50.201364501888293 ], [ 7.643257355039, 50.202672735428287 ], [ 7.642013585226414, 50.203983319978093 ], [ 7.640385522987306, 50.205383339020585 ], [ 7.612781860037068, 50.227966825331791 ], [ 7.611138370135362, 50.229131984528941 ], [ 7.609291782808919, 50.230174928038338 ], [ 7.607149080079808, 50.231237407648116 ], [ 7.604839551204577, 50.232043471321127 ], [ 7.600503879420866, 50.232924315351191 ], [ 7.599120883412112, 50.233042387081589 ], [ 7.596311734672028, 50.233295362809976 ], [ 7.586822326230129, 50.234198034943191 ], [ 7.583866325627826, 50.234780166166296 ], [ 7.581469982553222, 50.235844729661594 ], [ 7.579891743134455, 50.237299275363036 ], [ 7.579114451053776, 50.239647646847615 ], [ 7.579027899356625, 50.241950598267145 ], [ 7.580045859754183, 50.243876480957248 ], [ 7.583435305849205, 50.246511051107959 ], [ 7.588597580186756, 50.248641309438604 ], [ 7.593508097825868, 50.249396262403003 ], [ 7.600034687757241, 50.249678606191239 ], [ 7.63932390423379, 50.246019798817791 ], [ 7.642838722163183, 50.246872835807117 ], [ 7.6453601059766, 50.248133214161037 ], [ 7.64964370656094, 50.251139180309188 ], [ 7.651461542363183, 50.253822583157451 ], [ 7.6522101024246, 50.256308325636262 ], [ 7.651738966052351, 50.260384526063959 ], [ 7.649628954755839, 50.264383976379719 ], [ 7.647192578881541, 50.266574423244236 ], [ 7.642045263663167, 50.269912856751617 ], [ 7.605160536917238, 50.293794768768635 ], [ 7.596304136551771, 50.304295256733667 ], [ 7.590511788035742, 50.312936965975531 ], [ 7.588936456019327, 50.32203659258893 ], [ 7.589900814953193, 50.324636361864478 ], [ 7.592119099064682, 50.324701570096622 ], [ 7.596193992353832, 50.324816582515538 ], [ 7.586824812946681, 50.366670956685788 ], [ 7.544058596596793, 50.392289284497878 ], [ 7.552350335657163, 50.398426628401822 ], [ 7.569814626870056, 50.411596649441478 ], [ 7.553347600948159, 50.399178677523338 ], [ 7.547617089680712, 50.406484207430864 ], [ 7.5367243158903, 50.420365684416424 ], [ 7.503067201129573, 50.413496637027606 ], [ 7.49569443956877, 50.412430768157932 ], [ 7.489781839340373, 50.412114072590128 ], [ 7.483694370117179, 50.412107671875162 ], [ 7.48033232609497, 50.412451703148477 ], [ 7.478034081056571, 50.412688488735029 ], [ 7.472238863778998, 50.414048923275168 ], [ 7.46729049047622, 50.415602532275642 ], [ 7.464008005743184, 50.417325957997576 ], [ 7.460060964836468, 50.42016642590594 ], [ 7.455115574163585, 50.424700342805657 ], [ 7.452249273721329, 50.427596186870154 ], [ 7.45085941929958, 50.429243328091474 ], [ 7.446009257591449, 50.435535476046553 ], [ 7.444108787262042, 50.437655312101164 ], [ 7.442819777994837, 50.43882776443035 ], [ 7.440805166397249, 50.44031414700823 ], [ 7.437873683112521, 50.442019234810893 ], [ 7.436249507380544, 50.442705440992142 ], [ 7.434031050240248, 50.44342081815099 ], [ 7.43184130897997, 50.443911783373949 ], [ 7.429056775929676, 50.444224736655336 ], [ 7.425682146100788, 50.444287734349501 ], [ 7.424274378156649, 50.444250117726838 ], [ 7.421502195081313, 50.444157992323518 ], [ 7.417719446185815, 50.44399369647271 ], [ 7.417326437671143, 50.443965149495277 ], [ 7.409364517255757, 50.443445408764305 ], [ 7.403693700234008, 50.443256911674403 ], [ 7.400469995618546, 50.443170127758101 ], [ 7.398203370329929, 50.443325221608241 ], [ 7.396654052812802, 50.443508588017579 ], [ 7.394853520666673, 50.443865271778947 ], [ 7.392753556304029, 50.444484006831892 ], [ 7.389637150899129, 50.445543541848849 ], [ 7.384821468620883, 50.447340480338596 ], [ 7.381164087918072, 50.449105592687509 ], [ 7.373241019427064, 50.453708651406636 ], [ 7.363370094595924, 50.459780127948889 ], [ 7.343908253903573, 50.476872661901872 ], [ 7.329996678931192, 50.488297336569708 ], [ 7.320321826746154, 50.496280148154071 ], [ 7.310525434531693, 50.504547078308477 ], [ 7.303299954937186, 50.511722822452136 ], [ 7.299864039626883, 50.51612152093535 ], [ 7.297665461314446, 50.518942408413224 ], [ 7.282689977227547, 50.546327473580483 ], [ 7.278936661988293, 50.558561267512886 ], [ 7.278021105171357, 50.560976371993462 ], [ 7.275714596348428, 50.564082124993199 ], [ 7.273439901555185, 50.566927559565954 ], [ 7.270961863692096, 50.569641174267247 ], [ 7.267221582414099, 50.572607581035804 ], [ 7.263041896842878, 50.57496713628727 ], [ 7.258368342584086, 50.576691263110369 ], [ 7.25546262039471, 50.577393155822278 ], [ 7.25041587637112, 50.578169785161599 ], [ 7.239661347861967, 50.579253454600476 ], [ 7.234249246504232, 50.580190208148977 ], [ 7.228322106238283, 50.581409321097105 ], [ 7.223978608172144, 50.582835220028855 ], [ 7.22095353302382, 50.584217388481022 ], [ 7.218339606600875, 50.585584145906068 ], [ 7.214597590162219, 50.588305764328496 ], [ 7.212124701111554, 50.590477989753424 ], [ 7.210918038912688, 50.592145863642891 ], [ 7.210333171963899, 50.593822439325592 ], [ 7.210203568913203, 50.59566508236049 ], [ 7.210798638241345, 50.597465352665068 ], [ 7.213424364056685, 50.60117880486802 ], [ 7.214080690134574, 50.602512449462346 ], [ 7.214234271783981, 50.603750712545875 ], [ 7.213662909982436, 50.610471389895167 ], [ 7.211850969137417, 50.624965439908657 ], [ 7.211885322536909, 50.649032057009215 ], [ 7.195427826815387, 50.643374787637164 ], [ 7.188911934004655, 50.628786557423972 ], [ 7.183870606228804, 50.623003706408262 ], [ 7.173470294960354, 50.612770141524884 ], [ 7.147251323781386, 50.600374926275464 ], [ 7.141005845799943, 50.600634736132555 ], [ 7.12643454866754, 50.605857293401094 ], [ 7.11245523730301, 50.605988428129869 ], [ 7.111722460889967, 50.604381659429983 ], [ 7.102933606965623, 50.590153238691471 ], [ 7.094065593157963, 50.585829616007452 ], [ 7.084708964037361, 50.586282713148393 ], [ 7.068145676389715, 50.593744907735676 ], [ 7.066613091213664, 50.599779337216098 ], [ 7.066412514292199, 50.600584056115224 ], [ 7.056210258803235, 50.6063241693425 ], [ 7.049178379582191, 50.604366768000588 ], [ 7.036441424103685, 50.595554280357888 ], [ 7.023476729910718, 50.585490300927184 ], [ 7.013005008109701, 50.57564421900036 ], [ 7.002419542875187, 50.567000612550672 ], [ 6.999570528618079, 50.565193702141869 ], [ 6.97393112112336, 50.555603095223987 ], [ 6.96182571794427, 50.555998029957941 ], [ 6.937842175326617, 50.560664655152316 ], [ 6.927491749456521, 50.559164454574614 ], [ 6.921326509873571, 50.564891753784849 ], [ 6.900870997505495, 50.569912575379227 ], [ 6.891141837462271, 50.574464190059075 ], [ 6.884758774701243, 50.594092014773189 ], [ 6.884066260681744, 50.598655640573099 ], [ 6.883974544867555, 50.599292369118388 ], [ 6.886040920333858, 50.600942579677216 ], [ 6.886787890664055, 50.601533478484349 ], [ 6.890569488047966, 50.602786850141904 ], [ 6.898290610704858, 50.603802723212311 ], [ 6.90158541257725, 50.60366223029979 ], [ 6.911628863959318, 50.617766568297419 ], [ 6.91492618967281, 50.624066709296606 ], [ 6.916299331467294, 50.629244042929201 ], [ 6.910567757038455, 50.632137921286009 ], [ 6.898882425060227, 50.63544967127558 ], [ 6.878282855792664, 50.636778558335479 ], [ 6.874293148419832, 50.638905541633918 ], [ 6.869666756872787, 50.641381747239301 ], [ 6.863699751235611, 50.651427894119166 ], [ 6.865841204760597, 50.660693035070672 ], [ 6.871731372628362, 50.676453872965133 ], [ 6.87063551963923, 50.689454863317934 ], [ 6.856530414511315, 50.69102030810997 ], [ 6.856049026905461, 50.691554667481121 ], [ 6.856190660583228, 50.696279671125247 ], [ 6.857419655159033, 50.697615611204625 ], [ 6.864848748019421, 50.704758911875423 ], [ 6.867741395065212, 50.707327110992203 ], [ 6.886098959896386, 50.710991848417265 ], [ 6.890178060084883, 50.712182189417341 ], [ 6.892470859126884, 50.71317253378156 ], [ 6.895863878783805, 50.715350201505245 ], [ 6.901414452549795, 50.719729838924799 ], [ 6.915768698273479, 50.734030012616259 ], [ 6.902108558344716, 50.750650097932308 ], [ 6.89277119090159, 50.747819271334684 ], [ 6.88201477485006, 50.745907230313946 ], [ 6.877885923075294, 50.748976153195095 ], [ 6.872141461066305, 50.753273586149668 ], [ 6.867034252758915, 50.761770713616585 ], [ 6.864901724551373, 50.767622449950437 ], [ 6.868275040368078, 50.772457736835619 ], [ 6.870446958872249, 50.780138016141215 ], [ 6.868900001263275, 50.783395677193646 ], [ 6.863984562811926, 50.784836085107429 ], [ 6.870897883488127, 50.790764181843826 ], [ 6.88391081973421, 50.793945457961236 ], [ 6.934311793262013, 50.805424717856503 ], [ 6.97810706930981, 50.797584203684963 ], [ 6.99440094687104, 50.79316878564854 ], [ 7.029986623478362, 50.800229490443613 ], [ 7.030683418294465, 50.807474424339979 ], [ 7.030641620368471, 50.809752097263434 ], [ 7.030095858584589, 50.81192459750045 ], [ 7.028409397554895, 50.814711516613457 ], [ 7.025548103591333, 50.817805505835679 ], [ 7.020807578652954, 50.820924174669784 ], [ 7.016601682338734, 50.822590463800346 ], [ 7.013062811721065, 50.823132682351371 ], [ 6.999046958865376, 50.82475526111697 ], [ 6.994098900225277, 50.825308409232612 ], [ 6.990741929679296, 50.826071667380546 ], [ 6.987065085529666, 50.827302545308953 ], [ 6.984366236236651, 50.829328627364028 ], [ 6.982675426655113, 50.831376186209809 ], [ 6.981752707212965, 50.833609182621359 ], [ 6.981544687777761, 50.834854967245882 ], [ 6.981273655490956, 50.83655822816182 ], [ 6.981391140004831, 50.838390390009877 ], [ 6.982251984495805, 50.840551349902384 ], [ 6.992958273354481, 50.83723624808362 ], [ 6.999003158317109, 50.836869343609429 ], [ 7.006172654901237, 50.837625918743562 ], [ 7.022514087565723, 50.839954376166361 ], [ 7.027164142383309, 50.84702945512015 ], [ 7.032760790339726, 50.849061318235115 ], [ 7.057782121018816, 50.849148589467063 ], [ 7.061815665124624, 50.844242032488303 ], [ 7.062701330845974, 50.830523032139482 ], [ 7.080492473289082, 50.830733501040378 ], [ 7.090368038800865, 50.833185881501876 ], [ 7.112875342409451, 50.843257502030248 ], [ 7.113515780044657, 50.84618548697987 ], [ 7.163219008853803, 50.868466802623836 ], [ 7.143249033821674, 50.878726499429341 ], [ 7.137476966383334, 50.882945897317377 ], [ 7.136780134527391, 50.906154567903513 ], [ 7.136785381649476, 50.9279243634804 ], [ 7.130672458872573, 50.943230267354139 ], [ 7.12823646797004, 50.943204694668609 ], [ 7.114339274231525, 50.943359415996788 ], [ 7.086736202771688, 50.957927786569471 ], [ 7.100483168050529, 50.966896006343184 ], [ 7.100421653340297, 50.972991994734059 ], [ 7.099848675564317, 50.981198669934287 ], [ 7.095779826222391, 50.985313082402079 ], [ 7.087299880835951, 50.987496722156969 ], [ 7.082677952269901, 50.98805465862425 ], [ 7.068982987973984, 50.98972349825268 ], [ 7.066799865356497, 50.993766431258457 ], [ 7.06189669946593, 51.013311566596201 ], [ 7.068277664226791, 51.018732911636953 ], [ 7.043803685920525, 51.019081227041532 ], [ 6.997762971972705, 51.017183667188142 ], [ 6.973148538242232, 51.016927406606285 ], [ 6.973164856348385, 51.020278762146127 ], [ 6.97227292045583, 51.022990117490032 ], [ 6.971190918518984, 51.024632787040538 ], [ 6.969785009913097, 51.026400761359099 ], [ 6.965650965970121, 51.029851489094732 ], [ 6.963137162323856, 51.03153173553806 ], [ 6.95899563783137, 51.033946137607849 ], [ 6.942949479128198, 51.042357207548193 ], [ 6.940468030218714, 51.043596599591837 ], [ 6.904698650215578, 51.061127414089619 ], [ 6.899463781255458, 51.063371033635221 ], [ 6.896983951070505, 51.064375406008637 ], [ 6.904440371147165, 51.067398090645995 ], [ 6.937261405640767, 51.071351067641622 ], [ 6.972239986939103, 51.066946753712926 ], [ 6.993086731694889, 51.075961609951754 ], [ 6.993794183166557, 51.087008103989596 ], [ 6.996532233411535, 51.117148403773186 ], [ 7.001531917046268, 51.122946006358596 ], [ 7.023161302569766, 51.129383832724677 ], [ 7.024970028049266, 51.129888039032629 ], [ 7.026350161159289, 51.130190307140786 ], [ 7.026927679142787, 51.130315588161672 ], [ 7.035337163364414, 51.131565199816194 ], [ 7.081688501233102, 51.137776924036608 ], [ 7.082659946016474, 51.137805352278285 ], [ 7.097874251229834, 51.138060380473519 ], [ 7.108462816653263, 51.137359578610429 ], [ 7.10936944796781, 51.13729583626565 ], [ 7.110136022204991, 51.136993844236464 ], [ 7.117548585969793, 51.132930534166626 ], [ 7.119097106042989, 51.130156256653763 ], [ 7.116571682818653, 51.12495825810899 ], [ 7.120149147732067, 51.122422896716039 ], [ 7.135491486584296, 51.116912596782115 ], [ 7.14609608444902, 51.116109911931517 ], [ 7.171881120012888, 51.126061475862578 ], [ 7.170239423956495, 51.126996405878607 ], [ 7.158891148188983, 51.13350818537829 ], [ 7.160373659398975, 51.145880510159408 ], [ 7.166571652170374, 51.153253699839397 ], [ 7.17048862175448, 51.152356658183024 ], [ 7.171164843272137, 51.152312883668351 ], [ 7.171707911102638, 51.15232835541434 ], [ 7.193856084282956, 51.153407519145453 ], [ 7.203871524050387, 51.156545475409729 ], [ 7.204568231376031, 51.156817303409234 ], [ 7.217216745153923, 51.161217101235962 ], [ 7.21842731511032, 51.161314144181723 ], [ 7.226843722390813, 51.160784662685209 ], [ 7.254579558979043, 51.157622620970628 ], [ 7.267647173753294, 51.145655731272726 ], [ 7.28127226161566, 51.144086665401836 ], [ 7.287405149459251, 51.144012335363726 ], [ 7.288616004408041, 51.144099644281823 ], [ 7.290572117619424, 51.14520708822949 ], [ 7.294070275616407, 51.147203371280746 ], [ 7.295341901689306, 51.148481036811582 ], [ 7.296023910968756, 51.149589438624737 ], [ 7.307190228856509, 51.182162475762894 ], [ 7.307629283942029, 51.183480283199891 ], [ 7.307679105180319, 51.184625371627568 ], [ 7.30580689799745, 51.194705586161852 ], [ 7.297166914994582, 51.195081670528751 ], [ 7.294635378238807, 51.195417572449934 ], [ 7.295340838550271, 51.200741245618111 ], [ 7.296416637986599, 51.205894972265078 ], [ 7.299086757514795, 51.215973334958527 ], [ 7.31028487365525, 51.230922194364176 ], [ 7.312327661240704, 51.233949692806434 ], [ 7.305147645671521, 51.239859714102863 ], [ 7.33792806106179, 51.247620837902495 ], [ 7.3386310243538, 51.242389681324987 ], [ 7.339072524696904, 51.240762621716748 ], [ 7.339684110670212, 51.240211811060348 ], [ 7.340661419549682, 51.239977021511045 ], [ 7.352387782355666, 51.239266284107565 ], [ 7.352473067314394, 51.23927760413185 ], [ 7.359558922325802, 51.240557544953973 ], [ 7.358852302081155, 51.242717865419166 ], [ 7.365752599276531, 51.244415672572494 ], [ 7.371737756316538, 51.245440241995524 ], [ 7.374391580354705, 51.245871331700791 ], [ 7.389954818497499, 51.246357800332383 ], [ 7.39447180410986, 51.245117926487936 ], [ 7.39942068640557, 51.24235846916816 ], [ 7.430354323931501, 51.224209212849658 ], [ 7.430740574809144, 51.218618284438548 ], [ 7.430255679516287, 51.215129647956005 ], [ 7.440038377552133, 51.224579874224204 ], [ 7.445007697149232, 51.227933460674585 ], [ 7.450960544297867, 51.230087761358419 ], [ 7.468546818697538, 51.23201232490603 ], [ 7.479529497331253, 51.232728462609337 ], [ 7.48801327852273, 51.236134721343412 ], [ 7.499483450972732, 51.241723952905524 ], [ 7.499692882297934, 51.248869939401715 ], [ 7.502637087463636, 51.253240522027809 ], [ 7.512620601290225, 51.264147894928563 ], [ 7.518804430253766, 51.264845713030034 ], [ 7.549205628396291, 51.269289222550661 ], [ 7.564905159341192, 51.280164471919555 ], [ 7.582914441286188, 51.296407340302189 ], [ 7.583882113299951, 51.299952000472551 ], [ 7.584505222326608, 51.306900596310271 ], [ 7.584410912479862, 51.307483505040267 ], [ 7.584149005227686, 51.307990219993485 ], [ 7.583034298023632, 51.336028001545465 ], [ 7.591197377311405, 51.357434896020884 ], [ 7.588804852502492, 51.362291722880414 ], [ 7.584282719296274, 51.377819288329718 ], [ 7.587016750664346, 51.390078366018784 ], [ 7.610256987104944, 51.388725595201642 ], [ 7.615295464353992, 51.389614770690493 ], [ 7.620800548173309, 51.392937145053452 ], [ 7.630896309910776, 51.405276002253238 ], [ 7.631332067339205, 51.406367086788364 ], [ 7.631343546803619, 51.407105667119978 ], [ 7.628144720126964, 51.422819852996845 ], [ 7.625093699454226, 51.43107359676516 ], [ 7.62070251512809, 51.440924110169348 ], [ 7.631582822932736, 51.451715119538008 ], [ 7.664639250149792, 51.466417729089905 ], [ 7.694727985769015, 51.473396116896282 ], [ 7.696553586235263, 51.473718715470135 ], [ 7.697943920162366, 51.473850863956642 ], [ 7.699183577416938, 51.47385336423509 ], [ 7.700298633092271, 51.473771850990879 ], [ 7.718500817829187, 51.471250488463582 ], [ 7.731341653137861, 51.467961082968451 ], [ 7.787653021849052, 51.470730981827273 ], [ 7.838403260210069, 51.478506578298585 ], [ 7.864137448503794, 51.458173094948933 ], [ 7.876311334302854, 51.450154020658367 ], [ 7.890300691744361, 51.426077838576468 ], [ 7.901681770253163, 51.379643576906311 ], [ 7.905676161101989, 51.347593153409775 ], [ 7.906715468177725, 51.346751882889968 ], [ 7.911609113871338, 51.345365493717175 ], [ 7.92399647327822, 51.341064823084778 ], [ 7.928173311966785, 51.338338683550909 ], [ 7.931702693328183, 51.334328890287473 ], [ 7.932584547837124, 51.329498310133474 ], [ 7.94789409106242, 51.331317521719988 ], [ 8.922421361671629, 51.443220912429396 ], [ 8.934467540869852, 51.431348396199702 ], [ 8.948051735874291, 51.429809674782256 ], [ 8.949335121493048, 51.412252096788038 ], [ 8.942774528446165, 51.396921437618907 ], [ 8.939002835679556, 51.389798342211684 ], [ 8.937544030651313, 51.389553988639427 ], [ 8.937327785687279, 51.389569116093526 ], [ 8.936043721264953, 51.38968701410176 ], [ 8.915713511588882, 51.393230184634064 ], [ 8.912047886436874, 51.393162718135343 ], [ 8.890471249657061, 51.392761166950187 ], [ 8.887283551496356, 51.391781588363983 ], [ 8.87583988546279, 51.385504662676738 ], [ 8.862051068228775, 51.379751832044661 ], [ 8.85433165562592, 51.377664165869561 ], [ 8.837799123425739, 51.383523801285499 ], [ 8.819422674129136, 51.388949835532443 ], [ 8.811339405669491, 51.390120826951495 ], [ 8.804181715643271, 51.390755681130607 ], [ 8.77190925719669, 51.385641841620718 ], [ 8.757688541892874, 51.377953408839041 ], [ 8.73100899604739, 51.37208300282861 ], [ 8.710978879581592, 51.374326454954698 ], [ 8.706794922211712, 51.375054622572229 ], [ 8.620791909387847, 51.336639997647417 ], [ 8.604126655206249, 51.323691070846138 ], [ 8.570665499434385, 51.292575167130337 ], [ 8.568056619959505, 51.290149140871712 ], [ 8.566958194049153, 51.289127702308789 ], [ 8.566798242915414, 51.28897896195712 ], [ 8.565291408040263, 51.287577739321222 ], [ 8.56504629718822, 51.287349807993209 ], [ 8.556565174214931, 51.277842459925282 ], [ 8.556302500017853, 51.277548001864957 ], [ 8.562314707444372, 51.27244610942077 ], [ 8.589200980374411, 51.249630716839825 ], [ 8.59327911215094, 51.247420142216598 ], [ 8.59766010415321, 51.246897395794441 ], [ 8.609403454828652, 51.246574521596571 ], [ 8.682025795454482, 51.268981702383662 ], [ 8.683394264471076, 51.269569922631895 ], [ 8.684359479547709, 51.27019684493736 ], [ 8.690079958237556, 51.274317219276213 ], [ 8.693818080942542, 51.277785789897344 ], [ 8.707164960418023, 51.27625374312187 ], [ 8.721950909083851, 51.273842089112968 ], [ 8.732128083963337, 51.258003704391029 ], [ 8.727339731300335, 51.250110655793165 ], [ 8.730873521773136, 51.240228434452533 ], [ 8.750332159310677, 51.198933364841416 ], [ 8.758042007638009, 51.177575139174799 ], [ 8.757716843095483, 51.176706323718065 ], [ 8.73609218513197, 51.160713578522383 ], [ 8.719915196781734, 51.152260529376235 ], [ 8.718446197950916, 51.151761157336146 ], [ 8.714143861843255, 51.151632503313316 ], [ 8.694161476093964, 51.135656623314006 ], [ 8.692383456055119, 51.132470152622282 ], [ 8.692449970932405, 51.129303191600151 ], [ 8.701859662859016, 51.116470465996748 ], [ 8.711958619162269, 51.117111516432345 ], [ 8.720227897992785, 51.115140825647487 ], [ 8.718597441668553, 51.11106602353329 ], [ 8.716837499514641, 51.10961717052492 ], [ 8.714566906080986, 51.108808478164384 ], [ 8.666218982403842, 51.098609217481915 ], [ 8.619442120273085, 51.10019617935329 ], [ 8.595483161350934, 51.101616889434098 ], [ 8.55378268706461, 51.102333309596496 ], [ 8.551659929173349, 51.101820880242997 ], [ 8.550113307775487, 51.100868015956735 ], [ 8.546171371601123, 51.096382883834487 ], [ 8.544747498233448, 51.095575983889582 ], [ 8.543121264987699, 51.095161732452745 ], [ 8.541442362683586, 51.09498056873209 ], [ 8.527606285145314, 51.095989694238433 ], [ 8.509802416998738, 51.084544815656152 ], [ 8.509030197840092, 51.083892603492934 ], [ 8.504897559783362, 51.079978765973124 ], [ 8.504183772964975, 51.079300507827647 ], [ 8.503816513904743, 51.078538190982535 ], [ 8.503724903630284, 51.077681554533314 ], [ 8.503823102081002, 51.076729167891408 ], [ 8.504104201744669, 51.075842905001217 ], [ 8.504479379252023, 51.075093286799572 ], [ 8.505053681012138, 51.074365057963 ], [ 8.506012626916, 51.07366138790772 ], [ 8.507035982635353, 51.073120840624192 ], [ 8.512082510451462, 51.07104677125578 ], [ 8.514528255120666, 51.071646463559865 ], [ 8.515329265915904, 51.071624085899259 ], [ 8.516369429215763, 51.071353746713719 ], [ 8.523091842768759, 51.06815562691704 ], [ 8.526667211951271, 51.064705924232406 ], [ 8.527210844680901, 51.063680061412128 ], [ 8.526890185584138, 51.059471383264494 ], [ 8.522830244757591, 51.036469104464068 ], [ 8.531809175025499, 51.029078522938171 ], [ 8.538645108206996, 51.019653134826157 ], [ 8.530631081613496, 51.013469584829707 ], [ 8.524369431055325, 51.009736346626987 ], [ 8.516093740638501, 51.005752457955325 ], [ 8.500653863507232, 50.998566974714983 ], [ 8.47390545843705, 50.975791777792978 ], [ 8.474252457082196, 50.973394598487474 ], [ 8.478768315795607, 50.969215688418394 ], [ 8.466170564279908, 50.968483243902753 ], [ 8.46024187351423, 50.965859261700309 ], [ 8.450138216374498, 50.941595287827667 ], [ 8.450722441541439, 50.93319867944728 ], [ 8.432523971492918, 50.917394896901719 ], [ 8.405620979637849, 50.902340659037186 ], [ 8.396173759468358, 50.894060025274484 ], [ 8.388516954675433, 50.885595043698174 ], [ 8.38486237773547, 50.875843256302829 ], [ 8.368266184485107, 50.864216326835255 ], [ 8.35949350487336, 50.861057541271059 ], [ 8.355744368213065, 50.861861535238276 ], [ 8.352320691953677, 50.865164776667918 ], [ 8.33937068173009, 50.865608719462195 ], [ 8.337447520550052, 50.865671936394023 ], [ 8.318546744883918, 50.861969979423264 ], [ 8.306571276947547, 50.861663419058161 ], [ 8.29521417735242, 50.870819003900579 ], [ 8.292229100737773, 50.877063413872307 ], [ 8.290817913621227, 50.88131231494043 ], [ 8.27165724494232, 50.881783589003035 ], [ 8.260980545205285, 50.876267373531519 ], [ 8.23388447703323, 50.856838256113349 ], [ 8.187443882497627, 50.828628743620712 ], [ 8.175300695164326, 50.818762979490067 ], [ 8.169787491047785, 50.808245989379493 ], [ 8.160996393488658, 50.801956644583626 ], [ 8.145395260634102, 50.796122674337163 ], [ 8.128358710570414, 50.788429723506958 ], [ 8.130705980415222, 50.777179906806552 ], [ 8.141145457197618, 50.772054482400009 ], [ 8.152818524957439, 50.759580398673812 ], [ 8.164390296273194, 50.744186521645894 ], [ 8.167404580452809, 50.734696031492206 ], [ 8.15065463968434, 50.705352479697517 ], [ 8.141985628549543, 50.694553588006499 ], [ 8.131718240077484, 50.696909560751799 ], [ 8.127157326835553, 50.693224236393789 ], [ 8.126969681965019, 50.691897061346069 ], [ 8.12632378416513, 50.685924283199725 ], [ 8.112147069854064, 50.675793033061794 ], [ 8.110044235404146, 50.665666970541608 ], [ 8.109871871848174, 50.657408266310576 ], [ 8.117350501591513, 50.648776353620072 ], [ 8.138619416514516, 50.619037229794642 ], [ 8.146402770859794, 50.602433939127955 ], [ 8.151574870957822, 50.59943346415821 ], [ 8.151758737656357, 50.593234691453596 ], [ 8.139753776209806, 50.571330586633138 ], [ 8.121416545872664, 50.539401077015491 ], [ 8.118282842482483, 50.535465411220912 ], [ 8.103756332060266, 50.533373020716425 ], [ 8.070129486594489, 50.53874610823528 ], [ 8.065821511647863, 50.548522035271276 ], [ 8.048280848920523, 50.55322804769186 ], [ 8.042050979006774, 50.552924423704752 ], [ 8.028593223616369, 50.550881402092628 ], [ 7.992055578664462, 50.522058106291809 ], [ 7.982970964885576, 50.510570546278281 ], [ 7.978226487389766, 50.485654931161143 ], [ 7.987468355153429, 50.473027840133014 ], [ 7.994259096955648, 50.467648059272072 ], [ 7.999430298400108, 50.463781246430301 ], [ 8.00012758535493, 50.46340027280732 ], [ 8.001165366377407, 50.462981653857987 ], [ 7.988903139929111, 50.439901783939028 ], [ 7.968858628279474, 50.409807219338056 ], [ 7.970462881029955, 50.406178332869253 ] ], [ [ 7.953271101610764, 51.331910365350424 ], [ 7.952031768874023, 51.331790349800244 ], [ 7.951115313091169, 51.331673212949759 ], [ 7.953271101610764, 51.331910365350424 ] ] ] ] } }
]
}
