{
"type": "FeatureCollection",
"name": "EG_2020-06-24",
"crs": { "type": "name", "properties": { "name": "urn:ogc:def:crs:OGC:1.3:CRS84" } },
"features": [
{ "type": "Feature", "properties": { "USE": 4, "RS": "03454", "RS_ALT": "034540000000", "GEN": "Emsland", "SHAPE_LENG": 271600.40650876501, "SHAPE_AREA": 2876640593.8053799, "USE_2": null, "RS_2": null, "RS_ALT_2": null, "GEN_2": null, "SHAPE_LE_1": null, "SHAPE_AR_1": null, "StandortID": null, "StandortNa": null, "USE_3": null, "RS_3": null, "RS_ALT_3": null, "GEN_3": null, "SHAPE_LE_2": null, "SHAPE_AR_2": null, "Standort_1": null, "Standort_2": null, "USE_4": null, "RS_4": null, "RS_ALT_4": null, "GEN_4": null, "SHAPE_LE_3": null, "SHAPE_AR_3": null, "Standort_3": null, "Standort_4": null }, "geometry": { "type": "MultiPolygon", "coordinates": [ [ [ [ 7.970462881029955, 50.406178332869253 ], [ 7.983792682556879, 50.406902888118275 ], [ 8.023348759287657, 50.399965196876181 ], [ 8.058236845528336, 50.373406735412821 ], [ 8.065777719937579, 50.366148674134045 ], [ 8.076050414930529, 50.348162984079785 ], [ 8.082038037972302, 50.330761585979644 ], [ 8.083015272427973, 50.330629110632181 ], [ 8.102670805440759, 50.326873107931647 ], [ 8.107351469736901, 50.322766690601632 ], [ 8.116558974251442, 50.302829289612482 ], [ 8.119674281599483, 50.293198611503371 ], [ 8.121603486583783, 50.277538858815397 ], [ 8.111840350320955, 50.270611351376608 ], [ 8.111611501801859, 50.270138483016112 ], [ 8.107636646916195, 50.261287494173366 ], [ 8.105207911729531, 50.260444603945615 ], [ 8.102792863127142, 50.259610944411634 ], [ 8.079538322473788, 50.260706789206516 ], [ 8.074324753100184, 50.26705129440289 ], [ 8.073553683284894, 50.268115254089764 ], [ 8.073766509200054, 50.271891717401175 ], [ 8.071736359356116, 50.273127074316953 ], [ 8.051217591842372, 50.273870133727556 ], [ 8.035698237739325, 50.271134056695651 ], [ 8.025147382778171, 50.261013074937843 ], [ 8.021351374384817, 50.2573570620469 ], [ 8.025114190672854, 50.253891377336174 ], [ 8.043996251804865, 50.242369217192582 ], [ 8.048745601820428, 50.240391332871916 ], [ 8.05976292518725, 50.234459818097633 ], [ 8.059153333159937, 50.233492585711573 ], [ 8.058521857389216, 50.232677920782514 ], [ 8.057489483297442, 50.232016753434003 ], [ 8.049694019781862, 50.227277127517425 ], [ 8.033499572152333, 50.218962483562208 ], [ 8.023161438931542, 50.217578089888825 ], [ 8.012125205946518, 50.217735053161633 ], [ 8.003562193419151, 50.223913587309433 ], [ 7.985212220789208, 50.22724834740184 ], [ 7.958318071827412, 50.21980376827463 ], [ 7.919281957812229, 50.20749733590204 ], [ 7.907565780950289, 50.200399463596312 ], [ 7.884307949007051, 50.180964137505356 ], [ 7.884674382748084, 50.16802616747016 ], [ 7.890473674056683, 50.162765747959682 ], [ 7.922365911372241, 50.146698406563651 ], [ 7.929404494990278, 50.14222037264917 ], [ 7.927498091841785, 50.105203102535995 ], [ 7.919951224085652, 50.108832125908613 ], [ 7.897318891040227, 50.121472182904384 ], [ 7.854231441565584, 50.128234728075597 ], [ 7.848908115999307, 50.126013692424003 ], [ 7.847071116615944, 50.124809683187586 ], [ 7.837071243688961, 50.109667950048326 ], [ 7.835162573436116, 50.105779119802058 ], [ 7.832693222403507, 50.099428294344818 ], [ 7.832011334323919, 50.09439762492427 ], [ 7.840367444350126, 50.087164865664661 ], [ 7.840216340274076, 50.085621817267892 ], [ 7.83568827110597, 50.083040443523458 ], [ 7.830898327675201, 50.081389077057075 ], [ 7.781606191640648, 50.066541436210272 ], [ 7.774300786814116, 50.067339649494279 ], [ 7.765490363677644, 50.083038043591678 ], [ 7.753999169276745, 50.091531767115157 ], [ 7.735970326038729, 50.104278218519866 ], [ 7.732024334821196, 50.106640691331449 ], [ 7.726383146412036, 50.110447509904198 ], [ 7.723498974801983, 50.1125923991939 ], [ 7.722758168843443, 50.113285674839631 ], [ 7.722480850712906, 50.113954217775053 ], [ 7.722288750752702, 50.114840895400015 ], [ 7.722431657463419, 50.115744751634253 ], [ 7.722886939867872, 50.116575142282542 ], [ 7.723849301368138, 50.117354838473098 ], [ 7.729095663180635, 50.120777478041767 ], [ 7.736794989082427, 50.125852822600983 ], [ 7.737992685710939, 50.126926168369742 ], [ 7.738598516029857, 50.127823180671989 ], [ 7.738829913981943, 50.128657105385535 ], [ 7.738667050807171, 50.129526515210593 ], [ 7.737506303197372, 50.133568106008703 ], [ 7.737142010419781, 50.134288607489673 ], [ 7.73670692116762, 50.134782297275052 ], [ 7.72572086159026, 50.147013402694242 ], [ 7.700840784611188, 50.165612356949538 ], [ 7.699707425346422, 50.166286922284762 ], [ 7.698424330113573, 50.166885790964933 ], [ 7.696507079125407, 50.167541133611735 ], [ 7.694146623562713, 50.1681045314415 ], [ 7.691649869934865, 50.168601511409811 ], [ 7.689970246076599, 50.168794384241558 ], [ 7.685557331034089, 50.169217149083579 ], [ 7.683531961446757, 50.169329383467044 ], [ 7.675710461591182, 50.169550773764591 ], [ 7.674205688463022, 50.169630683541463 ], [ 7.672277729936147, 50.169754121404786 ], [ 7.670062285513474, 50.169996500248466 ], [ 7.66802174099922, 50.170360201465414 ], [ 7.665860596450556, 50.170864934443372 ], [ 7.653202226378021, 50.17503471718728 ], [ 7.651377644419277, 50.175763675370867 ], [ 7.648711660989031, 50.176957872258626 ], [ 7.646687434878971, 50.178204005810692 ], [ 7.645250680908934, 50.179239675891949 ], [ 7.644558245883551, 50.180023767933854 ], [ 7.644372030292581, 50.180784453693235 ], [ 7.644231817109839, 50.181942495952434 ], [ 7.644378722495185, 50.182990630554961 ], [ 7.64670826019874, 50.188991459264713 ], [ 7.646936015715293, 50.190095630493239 ], [ 7.647150865168002, 50.191181491980608 ], [ 7.6470763876881, 50.192413206819801 ], [ 7.646851385980016, 50.194046343860116 ], [ 7.64621371622391, 50.196704671097223 ], [ 7.644805598270273, 50.20027122870308 ], [ 7.644234391487452, 50.201364501888293 ], [ 7.643257355039, 50.202672735428287 ], [ 7.642013585226414, 50.203983319978093 ], [ 7.640385522987306, 50.205383339020585 ], [ 7.612781860037068, 50.227966825331791 ], [ 7.611138370135362, 50.229131984528941 ], [ 7.609291782808919, 50.230174928038338 ], [ 7.607149080079808, 50.231237407648116 ], [ 7.604839551204577, 50.232043471321127 ], [ 7.600503879420866, 50.232924315351191 ], [ 7.599120883412112, 50.233042387081589 ], [ 7.596311734672028, 50.233295362809976 ], [ 7.586822326230129, 50.234198034943191 ], [ 7.583866325627826, 50.234780166166296 ], [ 7.581469982553222, 50.235844729661594 ], [ 7.579891743134455, 50.237299275363036 ], [ 7.579114451053776, 50.239647646847615 ], [ 7.579027899356625, 50.241950598267145 ], [ 7.580045859754183, 50.243876480957248 ], [ 7.583435305849205, 50.246511051107959 ], [ 7.588597580186756, 50.248641309438604 ], [ 7.593508097825868, 50.249396262403003 ], [ 7.600034687757241, 50.249678606191239 ], [ 7.63932390423379, 50.246019798817791 ], [ 7.642838722163183, 50.246872835807117 ], [ 7.6453601059766, 50.248133214161037 ], [ 7.64964370656094, 50.251139180309188 ], [ 7.651461542363183, 50.253822583157451 ], [ 7.6522101024246, 50.256308325636262 ], [ 7.651738966052351, 50.260384526063959 ], [ 7.649628954755839, 50.264383976379719 ], [ 7.647192578881541, 50.266574423244236 ], [ 7.642045263663167, 50.269912856751617 ], [ 7.605160536917238, 50.293794768768635 ], [ 7.596304136551771, 50.304295256733667 ], [ 7.590511788035742, 50.312936965975531 ], [ 7.588936456019327, 50.32203659258893 ], [ 7.589900814953193, 50.324636361864478 ], [ 7.592119099064682, 50.324701570096622 ], [ 7.596193992353832, 50.324816582515538 ], [ 7.586824812946681, 50.366670956685788 ], [ 7.544058596596793, 50.392289284497878 ], [ 7.552350335657163, 50.398426628401822 ], [ 7.569814626870056, 50.411596649441478 ], [ 7.553347600948159, 50.399178677523338 ], [ 7.547617089680712, 50.406484207430864 ], [ 7.5367243158903, 50.420365684416424 ], [ 7.503067201129573, 50.413496637027606 ], [ 7.49569443956877, 50.412430768157932 ], [ 7.489781839340373, 50.412114072590128 ], [ 7.483694370117179, 50.412107671875162 ], [ 7.48033232609497, 50.412451703148477 ], [ 7.478034081056571, 50.412688488735029 ], [ 7.472238863778998, 50.414048923275168 ], [ 7.46729049047622, 50.415602532275642 ], [ 7.464008005743184, 50.417325957997576 ], [ 7.460060964836468, 50.42016642590594 ], [ 7.455115574163585, 50.424700342805657 ], [ 7.452249273721329, 50.427596186870154 ], [ 7.45085941929958, 50.429243328091474 ], [ 7.446009257591449, 50.435535476046553 ], [ 7.444108787262042, 50.437655312101164 ], [ 7.442819777994837, 50.43882776443035 ], [ 7.440805166397249, 50.44031414700823 ], [ 7.437873683112521, 50.442019234810893 ], [ 7.436249507380544, 50.442705440992142 ], [ 7.434031050240248, 50.44342081815099 ], [ 7.43184130897997, 50.443911783373949 ], [ 7.429056775929676, 50.444224736655336 ], [ 7.425682146100788, 50.444287734349501 ], [ 7.424274378156649, 50.444250117726838 ], [ 7.421502195081313, 50.444157992323518 ], [ 7.417719446185815, 50.44399369647271 ], [ 7.417326437671143, 50.443965149495277 ], [ 7.409364517255757, 50.443445408764305 ], [ 7.403693700234008, 50.443256911674403 ], [ 7.400469995618546, 50.443170127758101 ], [ 7.398203370329929, 50.443325221608241 ], [ 7.396654052812802, 50.443508588017579 ], [ 7.394853520666673, 50.443865271778947 ], [ 7.392753556304029, 50.444484006831892 ], [ 7.389637150899129, 50.445543541848849 ], [ 7.384821468620883, 50.447340480338596 ], [ 7.381164087918072, 50.449105592687509 ], [ 7.373241019427064, 50.453708651406636 ], [ 7.363370094595924, 50.459780127948889 ], [ 7.343908253903573, 50.476872661901872 ], [ 7.329996678931192, 50.488297336569708 ], [ 7.320321826746154, 50.496280148154071 ], [ 7.310525434531693, 50.504547078308477 ], [ 7.303299954937186, 50.511722822452136 ], [ 7.299864039626883, 50.51612152093535 ], [ 7.297665461314446, 50.518942408413224 ], [ 7.282689977227547, 50.546327473580483 ], [ 7.278936661988293, 50.558561267512886 ], [ 7.278021105171357, 50.560976371993462 ], [ 7.275714596348428, 50.564082124993199 ], [ 7.273439901555185, 50.566927559565954 ], [ 7.270961863692096, 50.569641174267247 ], [ 7.267221582414099, 50.572607581035804 ], [ 7.263041896842878, 50.57496713628727 ], [ 7.258368342584086, 50.576691263110369 ], [ 7.25546262039471, 50.577393155822278 ], [ 7.25041587637112, 50.578169785161599 ], [ 7.239661347861967, 50.579253454600476 ], [ 7.234249246504232, 50.580190208148977 ], [ 7.228322106238283, 50.581409321097105 ], [ 7.223978608172144, 50.582835220028855 ], [ 7.22095353302382, 50.584217388481022 ], [ 7.218339606600875, 50.585584145906068 ], [ 7.214597590162219, 50.588305764328496 ], [ 7.212124701111554, 50.590477989753424 ], [ 7.210918038912688, 50.592145863642891 ], [ 7.210333171963899, 50.593822439325592 ], [ 7.210203568913203, 50.59566508236049 ], [ 7.210798638241345, 50.597465352665068 ], [ 7.213424364056685, 50.60117880486802 ], [ 7.214080690134574, 50.602512449462346 ], [ 7.214234271783981, 50.603750712545875 ], [ 7.213662909982436, 50.610471389895167 ], [ 7.211850969137417, 50.624965439908657 ], [ 7.211885322536909, 50.649032057009215 ], [ 7.195427826815387, 50.643374787637164 ], [ 7.188911934004655, 50.628786557423972 ], [ 7.183870606228804, 50.623003706408262 ], [ 7.173470294960354, 50.612770141524884 ], [ 7.147251323781386, 50.600374926275464 ], [ 7.141005845799943, 50.600634736132555 ], [ 7.12643454866754, 50.605857293401094 ], [ 7.11245523730301, 50.605988428129869 ], [ 7.111722460889967, 50.604381659429983 ], [ 7.102933606965623, 50.590153238691471 ], [ 7.094065593157963, 50.585829616007452 ], [ 7.084708964037361, 50.586282713148393 ], [ 7.068145676389715, 50.593744907735676 ], [ 7.066613091213664, 50.599779337216098 ], [ 7.066412514292199, 50.600584056115224 ], [ 7.056210258803235, 50.6063241693425 ], [ 7.049178379582191, 50.604366768000588 ], [ 7.036441424103685, 50.595554280357888 ], [ 7.023476729910718, 50.585490300927184 ], [ 7.013005008109701, 50.57564421900036 ], [ 7.002419542875187, 50.567000612550672 ], [ 6.999570528618079, 50.565193702141869 ], [ 6.97393112112336, 50.555603095223987 ], [ 6.96182571794427, 50.555998029957941 ], [ 6.937842175326617, 50.560664655152316 ], [ 6.927491749456521, 50.559164454574614 ], [ 6.923177580360165, 50.553256460107676 ], [ 6.900002331015139, 50.530644935916662 ], [ 6.885985076281085, 50.529143322977092 ], [ 6.884094025734762, 50.528192166070511 ], [ 6.882923135382018, 50.525786194828804 ], [ 6.883698710837433, 50.523062984319537 ], [ 6.8887148679663, 50.507122159026935 ], [ 6.901146497643572, 50.504538403800353 ], [ 6.905309250332523, 50.50183074729204 ], [ 6.905451953468924, 50.499970460675961 ], [ 6.904283307410688, 50.482989293491656 ], [ 6.900891136369077, 50.468325823198548 ], [ 6.859091599035644, 50.452957895778979 ], [ 6.857652289374169, 50.452777219227393 ], [ 6.855179455386033, 50.453005204908408 ], [ 6.812523135190133, 50.471501770713601 ], [ 6.808013551166841, 50.480906688132237 ], [ 6.80667842327822, 50.487638595835975 ], [ 6.800725890032092, 50.491312387140603 ], [ 6.770606904484514, 50.485584119436083 ], [ 6.744121964343606, 50.472470616525733 ], [ 6.743920037086736, 50.467589967491641 ], [ 6.768782388416107, 50.431695310779332 ], [ 6.784319175917432, 50.420909930953918 ], [ 6.779151194365182, 50.405166140449609 ], [ 6.773123590671585, 50.399943798108225 ], [ 6.769891354864939, 50.396451523438856 ], [ 6.769853958986682, 50.392486288866586 ], [ 6.785293077431347, 50.375463826478168 ], [ 6.80027080191971, 50.363442800408102 ], [ 6.802509461694503, 50.362019405501037 ], [ 6.782792097747291, 50.363094643010534 ], [ 6.779251157438781, 50.362457450640221 ], [ 6.731584181623865, 50.35147949556189 ], [ 6.695800984278582, 50.346299241841827 ], [ 6.685868633969375, 50.358348909963787 ], [ 6.66826620252144, 50.371971257363874 ], [ 6.665117956101417, 50.37119046828704 ], [ 6.66235657402062, 50.370503602787423 ], [ 6.66095149371513, 50.370114277349849 ], [ 6.659856973426585, 50.369717295982156 ], [ 6.657195370779707, 50.368673242751889 ], [ 6.656128199213103, 50.368114962907228 ], [ 6.655444065270519, 50.367695621154759 ], [ 6.656750215131536, 50.356549150531642 ], [ 6.650315540571242, 50.347936438463137 ], [ 6.636563160956531, 50.344798509072476 ], [ 6.621588529342556, 50.354619080424087 ], [ 6.62344168043922, 50.361006689433111 ], [ 6.626597394806407, 50.371934199641956 ], [ 6.624295717895105, 50.37490194241682 ], [ 6.603893908061061, 50.387483746830782 ], [ 6.529201092386837, 50.369293152288364 ], [ 6.512334612063923, 50.359698017787203 ], [ 6.504074386060649, 50.351652563313891 ], [ 6.488191522957752, 50.340231513413698 ], [ 6.48453562765543, 50.338031152972725 ], [ 6.451977910614744, 50.335319512382604 ], [ 6.450040133813858, 50.338855607987341 ], [ 6.457474298089454, 50.347534064319895 ], [ 6.460805690119022, 50.36087961638281 ], [ 6.449018346442214, 50.371791441384687 ], [ 6.411982890302403, 50.388871508513503 ], [ 6.397276403393968, 50.386346736045546 ], [ 6.38549365345729, 50.384249187224 ], [ 6.385219965718916, 50.383833862245361 ], [ 6.38949525917214, 50.371379693811399 ], [ 6.403922562185563, 50.345698762865716 ], [ 6.41540677015803, 50.33232957066479 ], [ 6.426630928299612, 50.322698943942861 ], [ 6.403891651169377, 50.32326811864754 ], [ 6.406328675817821, 50.33440312962324 ], [ 6.406371390147246, 50.335044465286096 ], [ 6.397702894189999, 50.343061561410913 ], [ 6.395694659597368, 50.344611836067116 ], [ 6.357907922069342, 50.37037998743822 ], [ 6.353381028783853, 50.37265882039128 ], [ 6.340756929410266, 50.37900634325208 ], [ 6.343904068937902, 50.383256750847075 ], [ 6.344956015426584, 50.384430284824816 ], [ 6.356158773654878, 50.394522639098348 ], [ 6.363661120848652, 50.401056155997267 ], [ 6.364988129949888, 50.402798125897931 ], [ 6.36900479427748, 50.410350239064691 ], [ 6.376309871236734, 50.434908117756173 ], [ 6.376621291951395, 50.436180934154102 ], [ 6.376017014387626, 50.443215436698758 ], [ 6.374798226579391, 50.449371798248194 ], [ 6.374131744206272, 50.451492698139241 ], [ 6.373212267333245, 50.453280104441333 ], [ 6.371406673070631, 50.456153154721591 ], [ 6.367461209597618, 50.455272541587654 ], [ 6.364635825038663, 50.454657351418341 ], [ 6.362854972236667, 50.454683428112737 ], [ 6.361202107045005, 50.454858296125586 ], [ 6.358873430021289, 50.455333236312434 ], [ 6.348268754426124, 50.457924979621268 ], [ 6.340301021763335, 50.462287378778839 ], [ 6.339748157574296, 50.462790076601216 ], [ 6.33948095734723, 50.463573477779995 ], [ 6.338195335441354, 50.474557663432151 ], [ 6.338350917443326, 50.475509557775595 ], [ 6.340933381596042, 50.483010752658977 ], [ 6.341509291792042, 50.48384262614627 ], [ 6.332836708040006, 50.492261696771827 ], [ 6.315420615802286, 50.496974264101404 ], [ 6.312783369742061, 50.498500573880747 ], [ 6.308820994629619, 50.500780727045722 ], [ 6.280770435776972, 50.502685441310177 ], [ 6.221918473788855, 50.501857082970091 ], [ 6.192650765053465, 50.521234676425543 ], [ 6.187701561902616, 50.527079268238879 ], [ 6.178782656333072, 50.541598783555699 ], [ 6.17503919866205, 50.558078670728385 ], [ 6.219789194231302, 50.582073469212318 ], [ 6.242887901519436, 50.58708307406387 ], [ 6.268584456269002, 50.617409196579217 ], [ 6.269677555459078, 50.6187921022198 ], [ 6.269854860263091, 50.619023925116878 ], [ 6.270383285100958, 50.620854793146655 ], [ 6.270352771747157, 50.623539407047851 ], [ 6.27031390448328, 50.624907885287442 ], [ 6.269725768380784, 50.625300911643173 ], [ 6.265944143856267, 50.62763173872586 ], [ 6.263612416277182, 50.628032883973098 ], [ 6.25749943814583, 50.625915814521811 ], [ 6.255781268867556, 50.625645357402853 ], [ 6.233708941544697, 50.624534502198038 ], [ 6.189031120769875, 50.627498655889987 ], [ 6.166629017586422, 50.643839311314991 ], [ 6.170353947705551, 50.644636971993677 ], [ 6.172087286253093, 50.644746991183361 ], [ 6.183344209056723, 50.645339490786469 ], [ 6.180384398250838, 50.650213094503776 ], [ 6.12008849822711, 50.717933062953151 ], [ 6.118120846107046, 50.719985745590321 ], [ 6.113143744646891, 50.722329952833505 ], [ 6.111971031849002, 50.722871381679553 ], [ 6.111825299399955, 50.722910915303991 ], [ 6.09832110787758, 50.72306494706492 ], [ 6.073234037390412, 50.720926944492582 ], [ 6.043947205070249, 50.718477528583165 ], [ 6.041934907228674, 50.718436024809307 ], [ 6.039165087, 50.718446439774816 ], [ 6.036448436158649, 50.720126448930806 ], [ 6.033628718065459, 50.728067297272354 ], [ 6.034548484669381, 50.733439208023121 ], [ 6.040584801234104, 50.738043840907544 ], [ 6.039892406532123, 50.745426793586681 ], [ 5.997837882205831, 50.785571629280746 ], [ 5.97713882830837, 50.796493336583232 ], [ 5.975123068218452, 50.79762257340407 ], [ 5.976661911828526, 50.803010303807689 ], [ 5.984893839962465, 50.810975638110222 ], [ 6.0000024647761, 50.803927977996111 ], [ 6.004750751862846, 50.801750481315615 ], [ 6.010145006397454, 50.804077968115401 ], [ 6.023682664008335, 50.813742084529885 ], [ 6.027872011175112, 50.820042471857917 ], [ 6.024680266644498, 50.828221414198985 ], [ 6.02143528454101, 50.830142359417223 ], [ 6.021131769545316, 50.830337953529856 ], [ 6.020011351012665, 50.833251369945607 ], [ 6.019991127881809, 50.833313687591705 ], [ 6.019999239540913, 50.833377098970146 ], [ 6.021758370545217, 50.845560185432312 ], [ 6.055091171478908, 50.855964383449695 ], [ 6.056336373350753, 50.856048107567005 ], [ 6.057347177857371, 50.855753329178235 ], [ 6.05776541205762, 50.855102309602394 ], [ 6.058055700708086, 50.851021074503144 ], [ 6.073484817572299, 50.847347248228544 ], [ 6.074243321376281, 50.847754781299422 ], [ 6.088136950451502, 50.87299065459792 ], [ 6.088380316357816, 50.877479718642455 ], [ 6.08106107470618, 50.883132391879954 ], [ 6.080030104337112, 50.884084663544435 ], [ 6.075717898318151, 50.889265605294838 ], [ 6.075296063368933, 50.890403300258505 ], [ 6.075284229247153, 50.892322788895306 ], [ 6.075594894405542, 50.894597082779583 ], [ 6.076129927374614, 50.896312053231355 ], [ 6.080375130209219, 50.907118961930799 ], [ 6.080887127824323, 50.908030797615105 ], [ 6.087028648540151, 50.913762660292377 ], [ 6.092912525962888, 50.917717664407007 ], [ 6.093804525848479, 50.918535670273265 ], [ 6.094420621956165, 50.919857015044052 ], [ 6.094781282617802, 50.921466115614109 ], [ 6.09399352565956, 50.921652553993944 ], [ 6.072567382749847, 50.923217751358997 ], [ 6.055489926126407, 50.926414705584769 ], [ 6.018645642585534, 50.935023393327768 ], [ 6.015605977494022, 50.947877582532136 ], [ 6.013371917378067, 50.961682307602338 ], [ 6.013677594534369, 50.962063675388571 ], [ 6.025442264858326, 50.980968836596688 ], [ 6.025646891130172, 50.982103447721165 ], [ 6.025055876052603, 50.983640175795742 ], [ 5.986423886272415, 50.98205766422069 ], [ 5.967058447373581, 50.979294466740797 ], [ 5.918664420727962, 50.977840309469684 ], [ 5.904136520824184, 50.98725586357078 ], [ 5.879577102565064, 51.017412535953376 ], [ 5.87880487485328, 51.018562887032019 ], [ 5.867879343342633, 51.045345720092499 ], [ 5.865998813415615, 51.051130842131222 ], [ 5.913345737474956, 51.066526704653306 ], [ 5.918572950349168, 51.064018845294818 ], [ 5.92254685248086, 51.056097744447094 ], [ 5.92658082587113, 51.048133835900991 ], [ 5.937041584585914, 51.036897044898872 ], [ 5.952157940389933, 51.03656874366829 ], [ 5.966763741165503, 51.044809481353475 ], [ 5.967808798252217, 51.046112155824019 ], [ 5.968498103002574, 51.047689448516749 ], [ 5.968745636341165, 51.049105330755481 ], [ 5.971426083659775, 51.060883233999846 ], [ 5.979195697848393, 51.069793607712121 ], [ 5.981406777335649, 51.072205071490338 ], [ 5.99530021647019, 51.081901243490194 ], [ 5.997855885777069, 51.083433228208378 ], [ 6.010109399189906, 51.090774471957104 ], [ 6.01708445198339, 51.094125638420785 ], [ 6.01720379313722, 51.094076129873237 ], [ 6.02069092001573, 51.092803917386775 ], [ 6.02260539205358, 51.092841397333288 ], [ 6.031738301325059, 51.095057561849849 ], [ 6.033922760124704, 51.095709113469248 ], [ 6.035882954268888, 51.096460200209876 ], [ 6.080684762478191, 51.122259597740864 ], [ 6.087845877937132, 51.127361767623391 ], [ 6.097995551821657, 51.135244161390943 ], [ 6.134215908391709, 51.144905488970068 ], [ 6.136204564854992, 51.145241211548054 ], [ 6.153100134508456, 51.147962438720192 ], [ 6.154426474561071, 51.14802982558377 ], [ 6.163009185960183, 51.148952780087214 ], [ 6.175745460934304, 51.158627182447006 ], [ 6.171649269230737, 51.160278028897267 ], [ 6.139927604143225, 51.173050319370077 ], [ 6.140095155611913, 51.173705504109805 ], [ 6.173385247312416, 51.183973846310238 ], [ 6.175016072080192, 51.184475844384181 ], [ 6.176828455282937, 51.185029587854679 ], [ 6.180075975473069, 51.186032931428095 ], [ 6.18007681959087, 51.18679000941664 ], [ 6.165748251677305, 51.194136668959551 ], [ 6.124104271270253, 51.181616067911328 ], [ 6.123024596210072, 51.181206068911713 ], [ 6.120839679863873, 51.180051658142226 ], [ 6.119301059517543, 51.179038588883266 ], [ 6.115065856514375, 51.175770175910664 ], [ 6.114654509557506, 51.175421258500329 ], [ 6.114282619496444, 51.175109832789261 ], [ 6.11250225862467, 51.174078590669012 ], [ 6.109918772604136, 51.172899944506803 ], [ 6.10685774782521, 51.17191960406619 ], [ 6.102134504419115, 51.170930706377348 ], [ 6.099278664667314, 51.170507686765497 ], [ 6.096460943239932, 51.170437559842675 ], [ 6.093469755666617, 51.17053208092014 ], [ 6.086979050444802, 51.171089267368842 ], [ 6.084169804666626, 51.171379692470097 ], [ 6.082916274071668, 51.17159369351802 ], [ 6.082083272264397, 51.172057942262519 ], [ 6.073421166531413, 51.183294365982761 ], [ 6.067610724444556, 51.220353990362177 ], [ 6.071940361658003, 51.242231338805453 ], [ 6.085572393493822, 51.247730803830486 ], [ 6.117183644360104, 51.269757181757107 ], [ 6.123840782771601, 51.274395525576146 ], [ 6.15383401823402, 51.307543881033084 ], [ 6.158246059136795, 51.314124450246354 ], [ 6.16290275938682, 51.323769129151025 ], [ 6.169083121934912, 51.332379273492144 ], [ 6.19027831039408, 51.33971234103069 ], [ 6.225995269414386, 51.360882244609769 ], [ 6.224269931176723, 51.36565885866414 ], [ 6.214999850493729, 51.387733792290021 ], [ 6.206025596179374, 51.40053654423096 ], [ 6.220014527626065, 51.454208900842687 ], [ 6.223555182303867, 51.469459663434868 ], [ 6.223470386916163, 51.470988610518361 ], [ 6.213138609350644, 51.511751641897597 ], [ 6.212424196319838, 51.513212564342304 ], [ 6.206593392805205, 51.520876396355099 ], [ 6.20078273389823, 51.526918593952125 ], [ 6.157444650700961, 51.566342423565047 ], [ 6.125369448084187, 51.586785563371357 ], [ 6.091790858994684, 51.606002186389908 ], [ 6.093853006199647, 51.622454806406594 ], [ 6.096040980527113, 51.621986749658724 ], [ 6.098229746987592, 51.621509645030677 ], [ 6.116168250446644, 51.652764961840944 ], [ 6.117942202081153, 51.656021076203693 ], [ 6.101460459811309, 51.659860305714439 ], [ 6.078961993019455, 51.662796307459807 ], [ 6.04012158208676, 51.672015809601177 ], [ 6.031322410274557, 51.676613198513472 ], [ 6.030238266765473, 51.677617654102633 ], [ 6.026584466851001, 51.707807095038056 ], [ 6.026774916561319, 51.708823727055304 ], [ 6.027340459124307, 51.70956613067429 ], [ 6.030426369440743, 51.711088818826298 ], [ 6.032310855433118, 51.711845016531001 ], [ 6.034022044977914, 51.712297200768639 ], [ 6.035541942108244, 51.712480797353351 ], [ 6.041878811678347, 51.712810046668686 ], [ 6.044000149392472, 51.712926072057577 ], [ 6.044583599815083, 51.713191410727902 ], [ 6.046218197434536, 51.71547007779008 ], [ 6.046477469677347, 51.71608367768652 ], [ 6.046288190734155, 51.716536175515841 ], [ 6.032483786927464, 51.724153717962444 ], [ 5.994959161499836, 51.737781462673986 ], [ 5.992849878220642, 51.738413109498289 ], [ 5.989752158200607, 51.738763708887014 ], [ 5.965749634239968, 51.738675235143937 ], [ 5.955316529358903, 51.738626341326849 ], [ 5.952755920087829, 51.742466665487441 ], [ 5.952832455988087, 51.748977067710463 ], [ 5.983464239461671, 51.763110843497664 ], [ 5.989979700152529, 51.766108204927576 ], [ 5.99088793654495, 51.769847055602483 ], [ 5.977023554693136, 51.797122563285235 ], [ 5.963005855682196, 51.806365341510592 ], [ 5.955597012483804, 51.810092105356624 ], [ 5.946134886411471, 51.824591062414775 ], [ 5.955474189859807, 51.831420782003157 ], [ 5.962958694871436, 51.836889835986234 ], [ 5.963567064740414, 51.836624715265657 ], [ 5.968959872680058, 51.834334448730438 ], [ 5.971137265398159, 51.833651585434502 ], [ 5.97332945955903, 51.833257647865146 ], [ 5.986364714870295, 51.831195155009702 ], [ 5.989430031549547, 51.830942329398425 ], [ 5.991764111690533, 51.831022132940475 ], [ 5.994801376186298, 51.831344893059168 ], [ 5.996892326939619, 51.831676701146066 ], [ 6.000005389205667, 51.832263585952653 ], [ 6.00272017704767, 51.832907349178186 ], [ 6.005253118609844, 51.833625290844246 ], [ 6.01084257253581, 51.835360186086447 ], [ 6.05511375315145, 51.852592171421868 ], [ 6.102786877974788, 51.848376634909854 ], [ 6.166268707541063, 51.84090037002936 ], [ 6.164722202617483, 51.860335031722421 ], [ 6.137446959423986, 51.885684088236189 ], [ 6.136153739857988, 51.886564702962843 ], [ 6.120462129755872, 51.891330469575898 ], [ 6.119998420606187, 51.891457559326014 ], [ 6.118566260830363, 51.891810187496333 ], [ 6.118462075478429, 51.891833386688681 ], [ 6.117912106023239, 51.891948246966543 ], [ 6.125550069537603, 51.898691104708099 ], [ 6.153869385383162, 51.903993467643588 ], [ 6.169677437103088, 51.901831717206193 ], [ 6.188234607765709, 51.892171618586566 ], [ 6.185958605779969, 51.886538206843674 ], [ 6.186648924378964, 51.884788119178815 ], [ 6.18759689331151, 51.882470752353903 ], [ 6.188471600739475, 51.881538359407635 ], [ 6.19400388522762, 51.877855540383287 ], [ 6.196485224601285, 51.87640469574707 ], [ 6.199747219232465, 51.874855945307125 ], [ 6.203671193329558, 51.873231943848843 ], [ 6.207058378332151, 51.872047994280607 ], [ 6.211633067218698, 51.870618503780932 ], [ 6.214290642854552, 51.869912578208179 ], [ 6.219580082240252, 51.868616733845094 ], [ 6.219682464341202, 51.868611425837358 ], [ 6.24640046059945, 51.869608359438963 ], [ 6.269871055102971, 51.874069623142333 ], [ 6.271197276340454, 51.874522373485597 ], [ 6.272142326615921, 51.874691200439038 ], [ 6.273553863641984, 51.874696430676337 ], [ 6.273656259202872, 51.874691057454463 ], [ 6.277320216178055, 51.87442505635228 ], [ 6.278973213478316, 51.874024351960479 ], [ 6.279926789157646, 51.873787941240799 ], [ 6.291057666260035, 51.870696322436217 ], [ 6.298082666176511, 51.868548623934274 ], [ 6.334014093249485, 51.851750689510077 ], [ 6.380151299599342, 51.835009488109051 ], [ 6.397501501590428, 51.829520620928818 ], [ 6.407802101157707, 51.828489124548994 ], [ 6.403989044762221, 51.835312845412027 ], [ 6.389522550897405, 51.86473309544018 ], [ 6.389425129099885, 51.865810868157325 ], [ 6.390280677996024, 51.874057230447249 ], [ 6.392313796125066, 51.873947417780371 ], [ 6.451605688402513, 51.865182987789964 ], [ 6.458219339352179, 51.858390376256345 ], [ 6.458606728365021, 51.858124289824211 ], [ 6.459923493985638, 51.857223194976882 ], [ 6.461973303328469, 51.856094767729061 ], [ 6.464044166871215, 51.855219298672239 ], [ 6.46637797052029, 51.854659036848815 ], [ 6.47089138296012, 51.854127718997248 ], [ 6.496368387009166, 51.860701974834043 ], [ 6.497813330475046, 51.861147104955968 ], [ 6.498535793272734, 51.86136967039478 ], [ 6.500052025329123, 51.861997384962663 ], [ 6.528979145532461, 51.876148674207734 ], [ 6.579623481961803, 51.891903161280631 ], [ 6.614086166178565, 51.899206576278509 ], [ 6.636842706358934, 51.904029589590237 ], [ 6.640785306224879, 51.905103597861157 ], [ 6.67332949803924, 51.915515435217706 ], [ 6.683181254496758, 51.917012359719799 ], [ 6.694588121901684, 51.915774984691673 ], [ 6.697006957055645, 51.910195789498438 ], [ 6.702858757751992, 51.906744039168046 ], [ 6.713632618796805, 51.900656807276874 ], [ 6.721329660579573, 51.896344274602697 ], [ 6.731827035038635, 51.898974687245662 ], [ 6.749594980193971, 51.907382300923075 ], [ 6.769803593961846, 51.917007588545886 ], [ 6.777859273862439, 51.922682329531298 ], [ 6.788024310126721, 51.929845460512212 ], [ 6.794080764444761, 51.936861539935514 ], [ 6.795756596774237, 51.944362268571226 ], [ 6.798753237563212, 51.958911188780533 ], [ 6.803046794476947, 51.960071492185499 ], [ 6.807242443543462, 51.961183566985746 ], [ 6.810725790396922, 51.962093254841704 ], [ 6.813210198479801, 51.962737688992824 ], [ 6.828289872149142, 51.964483104953686 ], [ 6.830436109363648, 51.968593192325734 ], [ 6.831887269844677, 51.971384881140253 ], [ 6.832193634523401, 51.972826338287803 ], [ 6.829535477076782, 51.986217769711466 ], [ 6.825945770009289, 51.993257972527623 ], [ 6.752581841777483, 52.028492134482022 ], [ 6.71544687660314, 52.039900388919875 ], [ 6.687569700300138, 52.040020263817063 ], [ 6.68664685587249, 52.05393346225182 ], [ 6.687024646254524, 52.054999347629874 ], [ 6.695327087609196, 52.070954570520477 ], [ 6.73487733385564, 52.075155378114069 ], [ 6.748373230484685, 52.083560513580558 ], [ 6.749342370126183, 52.084743819095422 ], [ 6.757635681910521, 52.100252037224557 ], [ 6.758360515360947, 52.102274158961855 ], [ 6.760107923777436, 52.11881932734542 ], [ 6.822285492967099, 52.118635178585848 ], [ 6.85510428222492, 52.120569552502836 ], [ 6.870325238870508, 52.129426513660675 ], [ 6.871829129854215, 52.130561888321864 ], [ 6.872771850904896, 52.131761253133654 ], [ 6.880864554060515, 52.156069103082991 ], [ 6.906591311151053, 52.175369279383084 ], [ 6.907840341205233, 52.176055176314442 ], [ 6.910167541972199, 52.176629394419685 ], [ 6.951167299412359, 52.181077605139691 ], [ 6.955818228514959, 52.18602415167107 ], [ 6.974213415453399, 52.205792868113875 ], [ 6.9757002457569, 52.209276421480347 ], [ 6.979976950053018, 52.219091146033222 ], [ 6.980817741534548, 52.220529567166061 ], [ 6.982088262870321, 52.222097693225969 ], [ 6.985106911656271, 52.224941758313854 ], [ 6.987864935210199, 52.226994703523744 ], [ 6.99166579669076, 52.227520421457839 ], [ 7.003928518661368, 52.228599688654803 ], [ 7.005353226024718, 52.228569276866196 ], [ 7.005955859311483, 52.228550856620728 ], [ 7.009154948038728, 52.228139997236021 ], [ 7.013109824824292, 52.227625013164271 ], [ 7.01323239688465, 52.227556562399876 ], [ 7.018824159565153, 52.224829041857362 ], [ 7.039028743252122, 52.227882322157001 ], [ 7.050030219000491, 52.231468474381785 ], [ 7.056504147978974, 52.234257071056241 ], [ 7.061459233427079, 52.237163758559198 ], [ 7.063378417203996, 52.239307771618414 ], [ 7.063840920307569, 52.240167400994338 ], [ 7.06374074765326, 52.241290007290743 ], [ 7.053225814278449, 52.248758026263573 ], [ 7.042700499072698, 52.256314932205278 ], [ 7.02928537984406, 52.273151314236785 ], [ 7.028549534465735, 52.274129431063351 ], [ 7.028273365456083, 52.27523790877143 ], [ 7.026322778044437, 52.289119361354643 ], [ 7.026572776318099, 52.290828313953469 ], [ 7.027260264191584, 52.292576977756269 ], [ 7.056085143754729, 52.337904405632521 ], [ 7.056633550360402, 52.338613429542193 ], [ 7.072303110784601, 52.352306079522513 ], [ 7.072575571127265, 52.373048305392786 ], [ 7.063791863777446, 52.389822220187881 ], [ 7.058989607877575, 52.398345762907439 ], [ 7.054118873932704, 52.400636986057478 ], [ 7.051135813867369, 52.400956508948696 ], [ 7.035110749642988, 52.402620122334952 ], [ 7.031993410722834, 52.407346883695887 ], [ 7.021887212174653, 52.422846498265663 ], [ 6.993052878269343, 52.465467436668199 ], [ 6.991677742849093, 52.467029906149158 ], [ 6.987854427509819, 52.469169158329798 ], [ 6.977868769503808, 52.464915785393636 ], [ 6.973437456789113, 52.459591055482697 ], [ 6.968206864532684, 52.452450942798237 ], [ 6.964040301164752, 52.447349629300632 ], [ 6.96229517128864, 52.445560614617762 ], [ 6.959912419910359, 52.443824840365771 ], [ 6.95237396775945, 52.439280948516959 ], [ 6.949757042685095, 52.437907188344134 ], [ 6.946663561004245, 52.436600307416334 ], [ 6.941893137841133, 52.435450798351255 ], [ 6.862824967612858, 52.451299645056551 ], [ 6.854129236388889, 52.459653225606225 ], [ 6.775371865009542, 52.45962615485022 ], [ 6.769880973405111, 52.460599560226605 ], [ 6.758784314877344, 52.462677128100481 ], [ 6.754170719728842, 52.463551088099926 ], [ 6.754080228222775, 52.463575264023788 ], [ 6.744467011773642, 52.467462673878025 ], [ 6.697738778154089, 52.486471866588928 ], [ 6.701059286535314, 52.501776871306156 ], [ 6.702705901289606, 52.509338780212396 ], [ 6.705122792840255, 52.52053576035474 ], [ 6.681455730951503, 52.551934529954274 ], [ 6.683128379415759, 52.552761899784841 ], [ 6.693885957937362, 52.551508319854314 ], [ 6.715564487318489, 52.548967401043384 ], [ 6.766222337118473, 52.56197368704175 ], [ 6.765208528498485, 52.564031215079588 ], [ 6.764527612945166, 52.564577383671626 ], [ 6.7641491617624, 52.564862781446571 ], [ 6.760730120455618, 52.56670166063428 ], [ 6.718749754145823, 52.589091537483817 ], [ 6.722558165091413, 52.619806774121344 ], [ 6.725048830198909, 52.633237548576147 ], [ 6.742301690527267, 52.645588651213366 ], [ 6.75421218331525, 52.648128504731659 ], [ 6.756117832312295, 52.648529704964226 ], [ 6.756932616341676, 52.648699023430801 ], [ 6.780791138727047, 52.652668237846186 ], [ 6.783949569250024, 52.652963501667493 ], [ 6.787950089671948, 52.652924434052238 ], [ 6.790823269859653, 52.652733582458538 ], [ 6.794149185511302, 52.652259438254809 ], [ 6.806114653732627, 52.649888887925187 ], [ 6.809500752798557, 52.649398175683309 ], [ 6.812299808760389, 52.649024499854498 ], [ 6.818644938372152, 52.648191668619965 ], [ 6.852585581516057, 52.64930229255036 ], [ 6.861503359477664, 52.649949352651205 ], [ 6.86324745688984, 52.650163929183549 ], [ 6.865113647722025, 52.650697253766396 ], [ 6.868667866449689, 52.652136585954644 ], [ 6.87025800432853, 52.652607504183571 ], [ 6.872215548646174, 52.65274732077485 ], [ 6.893407785150178, 52.651545282273503 ], [ 6.896722902189476, 52.651005007309216 ], [ 6.899660836911809, 52.650183325878302 ], [ 6.911186576259256, 52.646934197217945 ], [ 6.912403217589474, 52.646529223500586 ], [ 6.912829648974804, 52.646379839369132 ], [ 6.913719268578425, 52.645623011828498 ], [ 6.915077069380553, 52.641981214966826 ], [ 6.915580890236714, 52.641419993963538 ], [ 6.916500229274643, 52.640844092121512 ], [ 6.91762374051743, 52.640490308324765 ], [ 6.919002911541866, 52.640270148969122 ], [ 6.933639304265165, 52.638785647326841 ], [ 6.93576914839821, 52.638614464695188 ], [ 6.937711071088872, 52.638572729378673 ], [ 6.940201840010634, 52.638700170897337 ], [ 6.950451142900688, 52.639334942833116 ], [ 6.95467543336814, 52.639810114853042 ], [ 6.965492131970632, 52.641882613207109 ], [ 6.967724788584329, 52.642470059514025 ], [ 6.969275315365804, 52.64326259727212 ], [ 6.973154662333737, 52.645302415866716 ], [ 6.974631071182014, 52.645723622784253 ], [ 6.976199850966346, 52.645724383690414 ], [ 6.977819392425795, 52.645456521466777 ], [ 7.000441231177193, 52.641396894794369 ], [ 7.001942376850012, 52.640936244441562 ], [ 7.003291601118125, 52.640336157779586 ], [ 7.005416189009431, 52.638714228833749 ], [ 7.002449877842823, 52.635585626803348 ], [ 6.995378478753087, 52.606690144947521 ], [ 7.002158287761545, 52.608867362958932 ], [ 7.03281956127847, 52.618709205986235 ], [ 7.070156398468103, 52.604760443260076 ], [ 7.07189410365451, 52.604080674559945 ], [ 7.089508887104284, 52.594317534409562 ], [ 7.097120321574347, 52.591615813424262 ], [ 7.108688540098166, 52.589348997935097 ], [ 7.110014691263478, 52.601304699765748 ], [ 7.114580642268362, 52.599578509780386 ], [ 7.135544315934096, 52.589902347895269 ], [ 7.146458236577146, 52.584306008798954 ], [ 7.147610609820759, 52.583337409100416 ], [ 7.161758299538635, 52.575684809301301 ], [ 7.163819829029675, 52.556993643371449 ], [ 7.196119014462965, 52.549689003395251 ], [ 7.232990345804733, 52.555706099662828 ], [ 7.226421568924518, 52.559898545187842 ], [ 7.238496731051844, 52.562029168237011 ], [ 7.237061044990723, 52.565908413530011 ], [ 7.25236823779274, 52.567305572926166 ], [ 7.251542384055314, 52.571974106781148 ], [ 7.253291418481722, 52.576290590544282 ], [ 7.246596956382429, 52.583602777561516 ], [ 7.247221395289208, 52.584002083805423 ], [ 7.255009818814124, 52.581386711734609 ], [ 7.266375391120623, 52.585454273145068 ], [ 7.278520697147701, 52.586021543133619 ], [ 7.307067394587121, 52.593064117411309 ], [ 7.309748045323759, 52.589981962677655 ], [ 7.31943920712487, 52.587779572506498 ], [ 7.342813451130743, 52.596300172497358 ], [ 7.357436298329924, 52.599234288025038 ], [ 7.379759215450139, 52.60188213477398 ], [ 7.415905353321067, 52.612122413403732 ], [ 7.424301411596648, 52.610284168478586 ], [ 7.439602764880496, 52.612436999866212 ], [ 7.451840644435292, 52.61064736183787 ], [ 7.467048212653985, 52.615525741613773 ], [ 7.473521340202318, 52.613659111387911 ], [ 7.520200108022717, 52.616591786235702 ], [ 7.539650631828994, 52.609812410172886 ], [ 7.556277242587062, 52.610796338429687 ], [ 7.590788839495134, 52.613552240891252 ], [ 7.608046331460391, 52.61492643159422 ], [ 7.6082661499427, 52.614929014288073 ], [ 7.608111106252238, 52.607597266082855 ], [ 7.608318832929434, 52.617420301694089 ], [ 7.608349064673075, 52.618095944632501 ], [ 7.611653307777716, 52.622566578639891 ], [ 7.612722306875479, 52.623645028108569 ], [ 7.613600313522938, 52.624475927515427 ], [ 7.614972809424467, 52.625435615079816 ], [ 7.655943484178485, 52.647167560460403 ], [ 7.6660361627639, 52.651562061497827 ], [ 7.684497406341038, 52.658445546187032 ], [ 7.695138489418619, 52.663381134147762 ], [ 7.688983774235573, 52.679345365597456 ], [ 7.764221164448184, 52.677687628821992 ], [ 7.769455497388861, 52.679002666031998 ], [ 7.794946854756216, 52.687349737918218 ], [ 7.798285984410567, 52.697016034598747 ], [ 7.804254798018047, 52.699956479237066 ], [ 7.854530907661428, 52.709586848355457 ], [ 7.889820813226596, 52.697630967441995 ], [ 7.903496450207718, 52.690394467069581 ], [ 7.904464725909933, 52.689785437486492 ], [ 7.904907411574151, 52.689048164361914 ], [ 7.908480275106838, 52.6825926909098 ], [ 7.918021957126597, 52.679647718809846 ], [ 7.940652448961194, 52.687992324319126 ], [ 7.970111151485887, 52.695413838019377 ], [ 7.976647261745813, 52.695316428554619 ], [ 7.978256899297822, 52.695134057389389 ], [ 7.979828720093515, 52.694833912771259 ], [ 7.981186758707693, 52.694385370542854 ], [ 7.982581459170976, 52.693811606917549 ], [ 7.990018924611493, 52.689791543072396 ], [ 7.991076403451659, 52.689417614190113 ], [ 8.008518118675502, 52.685441592287006 ], [ 8.017499394744636, 52.683673943888351 ], [ 8.01833018150514, 52.683376105567646 ], [ 8.019299039652735, 52.682991137397778 ], [ 8.03254432115029, 52.675299868640764 ], [ 8.033527735989885, 52.674645155050918 ], [ 8.03437422089408, 52.673789704902504 ], [ 8.047092077517339, 52.654849000568653 ], [ 8.048932529519513, 52.652583120286927 ], [ 8.049676811891421, 52.651959429805217 ], [ 8.060104990961571, 52.64466699128829 ], [ 8.053880625226618, 52.649019697942414 ], [ 8.188960510109453, 52.63647487415917 ], [ 8.309102789574196, 52.594027564720072 ], [ 8.31208710019793, 52.582452429553186 ], [ 8.30980113416933, 52.591318921384676 ], [ 8.452462454190215, 52.528175014566543 ], [ 8.476270432808692, 52.501721576539197 ], [ 8.50968523054769, 52.514779171128879 ], [ 8.556896772590999, 52.500571632184155 ], [ 8.625928865181619, 52.523461758098321 ], [ 8.650333915302641, 52.531035148787282 ], [ 8.666728265981458, 52.521489581120001 ], [ 8.702887416101772, 52.500526202196951 ], [ 8.698086755836915, 52.486466467456438 ], [ 8.703340725403404, 52.44430150347597 ], [ 8.704472380473272, 52.41488409805045 ], [ 8.707503513176656, 52.395687080867155 ], [ 8.716426767433367, 52.392797206887685 ], [ 8.746988448050709, 52.387372623596008 ], [ 8.773443014752701, 52.394916311604014 ], [ 8.779247238235309, 52.39656482210281 ], [ 8.787496544974987, 52.398895623201106 ], [ 8.811795601554534, 52.395254315468151 ], [ 8.855788866433532, 52.389324485845769 ], [ 8.93304149460841, 52.401007201785795 ], [ 8.937883971154838, 52.402158665450763 ], [ 8.973222331818718, 52.427763131533332 ], [ 9.016498150428031, 52.466559886277679 ], [ 9.029848876247353, 52.480719433494045 ], [ 9.054658996153195, 52.500349072939819 ], [ 9.084263979472373, 52.495348937548457 ], [ 9.127963854027421, 52.484548667206617 ], [ 9.132132237658578, 52.481681885398721 ], [ 9.132378293845955, 52.481342891303477 ], [ 9.135130994428154, 52.475599708674757 ], [ 9.125597293280643, 52.468493553395788 ], [ 9.102579060784871, 52.45662553897332 ], [ 9.098937934761336, 52.45157318389024 ], [ 9.094530820355326, 52.444209129133846 ], [ 9.093873862620576, 52.443095096949044 ], [ 9.096307677811241, 52.441990210812939 ], [ 9.109719294827077, 52.435723717700789 ], [ 9.12348318835803, 52.422156086676324 ], [ 9.125052871760825, 52.416534325833823 ], [ 9.125231991174099, 52.412119940503828 ], [ 9.12443520810524, 52.407874286199814 ], [ 9.123759522167111, 52.405923675144791 ], [ 9.097665361498001, 52.371612151100891 ], [ 9.072734493107234, 52.348641716042593 ], [ 9.060472591534934, 52.340273639701216 ], [ 9.040143726455966, 52.341737219734341 ], [ 9.033031997870534, 52.344097261064846 ], [ 9.030238120325864, 52.345097529393875 ], [ 9.029287622413982, 52.34541870557635 ], [ 9.028239028491409, 52.345594767969033 ], [ 9.027474669298794, 52.345612387624158 ], [ 9.02713964859532, 52.345527327701106 ], [ 9.026602287306444, 52.345340817688673 ], [ 8.998370322019955, 52.326901116598165 ], [ 8.991445804443918, 52.315344953151524 ], [ 8.986724277432174, 52.288541455363543 ], [ 8.986570169228637, 52.287451030559019 ], [ 8.985863935068233, 52.286641491950576 ], [ 8.981597301143998, 52.283097167557109 ], [ 8.969176311566688, 52.281292972491975 ], [ 8.964592155471047, 52.280667603410635 ], [ 8.963767060122009, 52.278624011068736 ], [ 8.971410681187711, 52.264706210441659 ], [ 8.972536324541554, 52.26393793606757 ], [ 8.976430059507443, 52.262386251069998 ], [ 8.980467637979812, 52.260908238291769 ], [ 9.006018864842634, 52.25343920793739 ], [ 9.042995079681461, 52.24317169334099 ], [ 9.074749140894735, 52.233955363917126 ], [ 9.075708323485355, 52.233274113606221 ], [ 9.076116612137289, 52.23240636786619 ], [ 9.07576818760166, 52.231376716867885 ], [ 9.074669477326601, 52.230446094653267 ], [ 9.066691217370114, 52.225178266504308 ], [ 9.045096683811698, 52.208437331461013 ], [ 9.048666352540822, 52.195778398022831 ], [ 9.042460948212447, 52.184386006558562 ], [ 9.021232074558153, 52.183720595592867 ], [ 9.005454995954995, 52.189479894096365 ], [ 8.984992857325631, 52.194260349009902 ], [ 8.992647882267148, 52.18814972584763 ], [ 9.007864852871064, 52.180774774089997 ], [ 9.011088230216943, 52.177549354955673 ], [ 9.016898731996623, 52.17172008765953 ], [ 9.017216078866022, 52.148216991398868 ], [ 9.044481555376326, 52.141643098612874 ], [ 9.099486525674914, 52.132701593950109 ], [ 9.104974266246151, 52.13251392603884 ], [ 9.109623666295528, 52.13344073911508 ], [ 9.113902994020934, 52.13738576603356 ], [ 9.127278012784895, 52.138421773151038 ], [ 9.143655777956575, 52.134902461501902 ], [ 9.145410384402576, 52.133914823352377 ], [ 9.153953989411869, 52.128298924239061 ], [ 9.154902684151692, 52.126870247124756 ], [ 9.158582296709534, 52.1200926617798 ], [ 9.145853778303342, 52.099563866364257 ], [ 9.154976907178051, 52.097328027534537 ], [ 9.174773021595561, 52.086214315829409 ], [ 9.175640777149386, 52.08550426721736 ], [ 9.181924362210575, 52.080338085594555 ], [ 9.189637910801553, 52.072119612720037 ], [ 9.189257568249523, 52.069119704447303 ], [ 9.181130740068584, 52.067977587493999 ], [ 9.173411459300407, 52.060407148279161 ], [ 9.173211566180429, 52.059757201421746 ], [ 9.1722111822708, 52.047574119693806 ], [ 9.173158940860221, 52.040117751108042 ], [ 9.175659675814558, 52.034414899648468 ], [ 9.180069506177295, 52.030244534829023 ], [ 9.188767679340714, 52.026526078032532 ], [ 9.197183072815482, 52.010263020206374 ], [ 9.185451894231534, 51.999536380206138 ], [ 9.173900515271525, 51.984339214492024 ], [ 9.175447747716417, 51.980748822445122 ], [ 9.189932546473999, 51.964490418551385 ], [ 9.205897546506936, 51.959276142298691 ], [ 9.210436758576991, 51.960449958714626 ], [ 9.210132310987287, 51.965529721136477 ], [ 9.216546381757448, 51.973569931831008 ], [ 9.2183718680835, 51.973922480785824 ], [ 9.229020789910459, 51.974945288882594 ], [ 9.255752990856324, 51.977017963695751 ], [ 9.264292944949455, 51.975829416071299 ], [ 9.277715722115442, 51.962068642366326 ], [ 9.271740138607214, 51.952551865466162 ], [ 9.264102506866086, 51.948037519260488 ], [ 9.262855386206029, 51.946252260578049 ], [ 9.272503797233412, 51.932911462424947 ], [ 9.286041880272649, 51.921345969900919 ], [ 9.295022441421379, 51.91902626658792 ], [ 9.309444399417952, 51.922212355846057 ], [ 9.312261449141737, 51.922429452402092 ], [ 9.331043359526026, 51.916857855494442 ], [ 9.340761619290777, 51.908298425419197 ], [ 9.344340421862286, 51.896826779061158 ], [ 9.344435213930627, 51.891951609405382 ], [ 9.344465644706233, 51.89017958541087 ], [ 9.343105046719442, 51.881934532376299 ], [ 9.340861786596085, 51.872412298246452 ], [ 9.338110130894121, 51.863487778174296 ], [ 9.336509369379907, 51.860737122658378 ], [ 9.334699676812466, 51.858209323617118 ], [ 9.334137041721043, 51.857484066692706 ], [ 9.333022253601886, 51.856762376093911 ], [ 9.331363643806608, 51.855720451126707 ], [ 9.330165447775382, 51.855420762359451 ], [ 9.323971656629572, 51.85503569578654 ], [ 9.32586023642301, 51.854478599544564 ], [ 9.327351920610562, 51.854097496552605 ], [ 9.329360939553654, 51.85393737982492 ], [ 9.333500440906571, 51.853978122432217 ], [ 9.336319375410053, 51.854527565265933 ], [ 9.338841684254005, 51.855316989623084 ], [ 9.342798814296357, 51.856822083591389 ], [ 9.346309012806918, 51.860490872405251 ], [ 9.361195498227941, 51.864835970678016 ], [ 9.366038711423981, 51.864666390493362 ], [ 9.423851323274505, 51.855776063865818 ], [ 9.443988491361685, 51.846348635112619 ], [ 9.440423527791303, 51.825390981313674 ], [ 9.447658486453836, 51.795019911417128 ], [ 9.447213192666339, 51.794197256290104 ], [ 9.399523973548275, 51.758676780085977 ], [ 9.384561374188698, 51.754569233954271 ], [ 9.376275307906468, 51.744909224834529 ], [ 9.375844333631322, 51.744167367382317 ], [ 9.375615284885193, 51.743463454308888 ], [ 9.375648965055154, 51.742096231418728 ], [ 9.376115528314848, 51.740805089506004 ], [ 9.387339310183572, 51.722683262351183 ], [ 9.397027666783021, 51.707811965508867 ], [ 9.398064553937488, 51.706849940187226 ], [ 9.399176624970025, 51.705771654196965 ], [ 9.399933856389305, 51.704995966768799 ], [ 9.400516470926995, 51.704254638443963 ], [ 9.400970655890037, 51.703431130679263 ], [ 9.401217224304084, 51.702812610121228 ], [ 9.401407803137859, 51.702112623112846 ], [ 9.401485394131948, 51.701294622984683 ], [ 9.401455351546081, 51.700736514187625 ], [ 9.401284071619818, 51.700033155164782 ], [ 9.394628465847433, 51.680087685823509 ], [ 9.386483191026171, 51.670465334353004 ], [ 9.385047302991593, 51.670010966099014 ], [ 9.384258471244419, 51.669724581889753 ], [ 9.383599842530227, 51.669439471184084 ], [ 9.382758205029157, 51.668945678192323 ], [ 9.381819734372854, 51.668271019550488 ], [ 9.380842084425941, 51.667425037365113 ], [ 9.379914654116075, 51.666300606155559 ], [ 9.379021566386854, 51.664960579626971 ], [ 9.378449958222573, 51.664082419063909 ], [ 9.378025588207411, 51.663097713723758 ], [ 9.377754208807476, 51.662366335308867 ], [ 9.375755399668069, 51.652459470247159 ], [ 9.37551160085213, 51.651197522520071 ], [ 9.375388646610656, 51.650314635850393 ], [ 9.382333858190105, 51.647240506046764 ], [ 9.387079462094524, 51.645971701632767 ], [ 9.394034492123557, 51.646018986153074 ], [ 9.415193700893768, 51.647177800750271 ], [ 9.438960918619465, 51.650668498166375 ], [ 9.444240985969921, 51.645614443671988 ], [ 9.43367418264063, 51.635487768529366 ], [ 9.42963028404751, 51.632824036858395 ], [ 9.424173852742186, 51.630615167564684 ], [ 9.416118880479026, 51.628886039164911 ], [ 9.398573708545912, 51.626276545943924 ], [ 9.391331360935101, 51.62687457292563 ], [ 9.376971578600887, 51.627080839782494 ], [ 9.371830134466313, 51.625709258517205 ], [ 9.336841678248172, 51.614564079246563 ], [ 9.336565543674043, 51.611781168867566 ], [ 9.349449024612991, 51.601713380922888 ], [ 9.356109761746431, 51.597657305969669 ], [ 9.36321510118643, 51.594846779049206 ], [ 9.3680111865227, 51.590169236810453 ], [ 9.345255150164316, 51.570361363162831 ], [ 9.32591076403523, 51.555036592938436 ], [ 9.319118584167445, 51.548643475848436 ], [ 9.31465819913155, 51.5403119165573 ], [ 9.313792035683122, 51.538656657835872 ], [ 9.313348589657206, 51.537392531193689 ], [ 9.311311249646947, 51.530272873936639 ], [ 9.28457172595315, 51.514272159856866 ], [ 9.241360323551028, 51.497694399493085 ], [ 9.226321843179123, 51.489488645737055 ], [ 9.225403504847808, 51.488821854108231 ], [ 9.217185389237173, 51.481183327467157 ], [ 9.216955961754481, 51.461034366911697 ], [ 9.215122424017066, 51.459124784436668 ], [ 9.197952385777498, 51.463219145465359 ], [ 9.18576284780805, 51.466340951703508 ], [ 9.175016041850204, 51.463341083034948 ], [ 9.172729386650234, 51.460219993725033 ], [ 9.162456047378585, 51.445490697159215 ], [ 9.157004438289411, 51.442828131877704 ], [ 9.150498770062478, 51.442249780226426 ], [ 9.100967275818991, 51.443668792223001 ], [ 9.089605905550826, 51.446025680636161 ], [ 9.078086535203177, 51.465080463965236 ], [ 9.078073216785038, 51.466906958867582 ], [ 9.087792628479828, 51.481592164192215 ], [ 9.091676831372091, 51.48745153186043 ], [ 9.094523836564367, 51.495673914133533 ], [ 9.079076719063494, 51.503847912752398 ], [ 9.059371329363893, 51.500495193040116 ], [ 9.038721401021922, 51.502445436063852 ], [ 9.024059662206209, 51.511368961623226 ], [ 9.018232076804219, 51.516775790043162 ], [ 8.986095275115439, 51.508574655499785 ], [ 8.969765504656246, 51.505304223942403 ], [ 8.965342859548899, 51.504319836808683 ], [ 8.943743697763942, 51.499213252399009 ], [ 8.910317934278117, 51.491073036981525 ], [ 8.897888488294058, 51.487053147364861 ], [ 8.893617525073505, 51.485123234238806 ], [ 8.890890815986531, 51.481909435440443 ], [ 8.891259143823214, 51.477568091501794 ], [ 8.893763991723681, 51.471465145244522 ], [ 8.922421361671629, 51.443220912429396 ], [ 8.934467540869852, 51.431348396199702 ], [ 8.948051735874291, 51.429809674782256 ], [ 8.949335121493048, 51.412252096788038 ], [ 8.942774528446165, 51.396921437618907 ], [ 8.939002835679556, 51.389798342211684 ], [ 8.937544030651313, 51.389553988639427 ], [ 8.937327785687279, 51.389569116093526 ], [ 8.936043721264953, 51.38968701410176 ], [ 8.915713511588882, 51.393230184634064 ], [ 8.912047886436874, 51.393162718135343 ], [ 8.890471249657061, 51.392761166950187 ], [ 8.887283551496356, 51.391781588363983 ], [ 8.87583988546279, 51.385504662676738 ], [ 8.862051068228775, 51.379751832044661 ], [ 8.85433165562592, 51.377664165869561 ], [ 8.837799123425739, 51.383523801285499 ], [ 8.819422674129136, 51.388949835532443 ], [ 8.811339405669491, 51.390120826951495 ], [ 8.804181715643271, 51.390755681130607 ], [ 8.77190925719669, 51.385641841620718 ], [ 8.757688541892874, 51.377953408839041 ], [ 8.73100899604739, 51.37208300282861 ], [ 8.710978879581592, 51.374326454954698 ], [ 8.706794922211712, 51.375054622572229 ], [ 8.620791909387847, 51.336639997647417 ], [ 8.604126655206249, 51.323691070846138 ], [ 8.570665499434385, 51.292575167130337 ], [ 8.568056619959505, 51.290149140871712 ], [ 8.566958194049153, 51.289127702308789 ], [ 8.566798242915414, 51.28897896195712 ], [ 8.565291408040263, 51.287577739321222 ], [ 8.56504629718822, 51.287349807993209 ], [ 8.556565174214931, 51.277842459925282 ], [ 8.556302500017853, 51.277548001864957 ], [ 8.562314707444372, 51.27244610942077 ], [ 8.589200980374411, 51.249630716839825 ], [ 8.59327911215094, 51.247420142216598 ], [ 8.59766010415321, 51.246897395794441 ], [ 8.609403454828652, 51.246574521596571 ], [ 8.682025795454482, 51.268981702383662 ], [ 8.683394264471076, 51.269569922631895 ], [ 8.684359479547709, 51.27019684493736 ], [ 8.690079958237556, 51.274317219276213 ], [ 8.693818080942542, 51.277785789897344 ], [ 8.707164960418023, 51.27625374312187 ], [ 8.721950909083851, 51.273842089112968 ], [ 8.732128083963337, 51.258003704391029 ], [ 8.727339731300335, 51.250110655793165 ], [ 8.730873521773136, 51.240228434452533 ], [ 8.750332159310677, 51.198933364841416 ], [ 8.758042007638009, 51.177575139174799 ], [ 8.757716843095483, 51.176706323718065 ], [ 8.73609218513197, 51.160713578522383 ], [ 8.719915196781734, 51.152260529376235 ], [ 8.718446197950916, 51.151761157336146 ], [ 8.714143861843255, 51.151632503313316 ], [ 8.694161476093964, 51.135656623314006 ], [ 8.692383456055119, 51.132470152622282 ], [ 8.692449970932405, 51.129303191600151 ], [ 8.701859662859016, 51.116470465996748 ], [ 8.711958619162269, 51.117111516432345 ], [ 8.720227897992785, 51.115140825647487 ], [ 8.718597441668553, 51.11106602353329 ], [ 8.716837499514641, 51.10961717052492 ], [ 8.714566906080986, 51.108808478164384 ], [ 8.666218982403842, 51.098609217481915 ], [ 8.619442120273085, 51.10019617935329 ], [ 8.595483161350934, 51.101616889434098 ], [ 8.55378268706461, 51.102333309596496 ], [ 8.551659929173349, 51.101820880242997 ], [ 8.550113307775487, 51.100868015956735 ], [ 8.546171371601123, 51.096382883834487 ], [ 8.544747498233448, 51.095575983889582 ], [ 8.543121264987699, 51.095161732452745 ], [ 8.541442362683586, 51.09498056873209 ], [ 8.527606285145314, 51.095989694238433 ], [ 8.509802416998738, 51.084544815656152 ], [ 8.509030197840092, 51.083892603492934 ], [ 8.504897559783362, 51.079978765973124 ], [ 8.504183772964975, 51.079300507827647 ], [ 8.503816513904743, 51.078538190982535 ], [ 8.503724903630284, 51.077681554533314 ], [ 8.503823102081002, 51.076729167891408 ], [ 8.504104201744669, 51.075842905001217 ], [ 8.504479379252023, 51.075093286799572 ], [ 8.505053681012138, 51.074365057963 ], [ 8.506012626916, 51.07366138790772 ], [ 8.507035982635353, 51.073120840624192 ], [ 8.512082510451462, 51.07104677125578 ], [ 8.514528255120666, 51.071646463559865 ], [ 8.515329265915904, 51.071624085899259 ], [ 8.516369429215763, 51.071353746713719 ], [ 8.523091842768759, 51.06815562691704 ], [ 8.526667211951271, 51.064705924232406 ], [ 8.527210844680901, 51.063680061412128 ], [ 8.526890185584138, 51.059471383264494 ], [ 8.522830244757591, 51.036469104464068 ], [ 8.531809175025499, 51.029078522938171 ], [ 8.538645108206996, 51.019653134826157 ], [ 8.530631081613496, 51.013469584829707 ], [ 8.524369431055325, 51.009736346626987 ], [ 8.516093740638501, 51.005752457955325 ], [ 8.500653863507232, 50.998566974714983 ], [ 8.47390545843705, 50.975791777792978 ], [ 8.474252457082196, 50.973394598487474 ], [ 8.478768315795607, 50.969215688418394 ], [ 8.466170564279908, 50.968483243902753 ], [ 8.46024187351423, 50.965859261700309 ], [ 8.450138216374498, 50.941595287827667 ], [ 8.450722441541439, 50.93319867944728 ], [ 8.432523971492918, 50.917394896901719 ], [ 8.405620979637849, 50.902340659037186 ], [ 8.396173759468358, 50.894060025274484 ], [ 8.388516954675433, 50.885595043698174 ], [ 8.38486237773547, 50.875843256302829 ], [ 8.368266184485107, 50.864216326835255 ], [ 8.35949350487336, 50.861057541271059 ], [ 8.355744368213065, 50.861861535238276 ], [ 8.352320691953677, 50.865164776667918 ], [ 8.33937068173009, 50.865608719462195 ], [ 8.337447520550052, 50.865671936394023 ], [ 8.318546744883918, 50.861969979423264 ], [ 8.306571276947547, 50.861663419058161 ], [ 8.29521417735242, 50.870819003900579 ], [ 8.292229100737773, 50.877063413872307 ], [ 8.290817913621227, 50.88131231494043 ], [ 8.27165724494232, 50.881783589003035 ], [ 8.260980545205285, 50.876267373531519 ], [ 8.23388447703323, 50.856838256113349 ], [ 8.187443882497627, 50.828628743620712 ], [ 8.175300695164326, 50.818762979490067 ], [ 8.169787491047785, 50.808245989379493 ], [ 8.160996393488658, 50.801956644583626 ], [ 8.145395260634102, 50.796122674337163 ], [ 8.128358710570414, 50.788429723506958 ], [ 8.130705980415222, 50.777179906806552 ], [ 8.141145457197618, 50.772054482400009 ], [ 8.152818524957439, 50.759580398673812 ], [ 8.164390296273194, 50.744186521645894 ], [ 8.167404580452809, 50.734696031492206 ], [ 8.15065463968434, 50.705352479697517 ], [ 8.141985628549543, 50.694553588006499 ], [ 8.131718240077484, 50.696909560751799 ], [ 8.127157326835553, 50.693224236393789 ], [ 8.126969681965019, 50.691897061346069 ], [ 8.12632378416513, 50.685924283199725 ], [ 8.112147069854064, 50.675793033061794 ], [ 8.110044235404146, 50.665666970541608 ], [ 8.109871871848174, 50.657408266310576 ], [ 8.117350501591513, 50.648776353620072 ], [ 8.138619416514516, 50.619037229794642 ], [ 8.146402770859794, 50.602433939127955 ], [ 8.151574870957822, 50.59943346415821 ], [ 8.151758737656357, 50.593234691453596 ], [ 8.139753776209806, 50.571330586633138 ], [ 8.121416545872664, 50.539401077015491 ], [ 8.118282842482483, 50.535465411220912 ], [ 8.103756332060266, 50.533373020716425 ], [ 8.070129486594489, 50.53874610823528 ], [ 8.065821511647863, 50.548522035271276 ], [ 8.048280848920523, 50.55322804769186 ], [ 8.042050979006774, 50.552924423704752 ], [ 8.028593223616369, 50.550881402092628 ], [ 7.992055578664462, 50.522058106291809 ], [ 7.982970964885576, 50.510570546278281 ], [ 7.978226487389766, 50.485654931161143 ], [ 7.987468355153429, 50.473027840133014 ], [ 7.994259096955648, 50.467648059272072 ], [ 7.999430298400108, 50.463781246430301 ], [ 8.00012758535493, 50.46340027280732 ], [ 8.001165366377407, 50.462981653857987 ], [ 7.988903139929111, 50.439901783939028 ], [ 7.968858628279474, 50.409807219338056 ], [ 7.970462881029955, 50.406178332869253 ] ] ], [ [ [ 7.146458236577146, 52.584306008798954 ], [ 7.146344728905114, 52.584391603071758 ], [ 7.146425753247496, 52.584368492527162 ], [ 7.146458236577146, 52.584306008798954 ] ] ] ] } }
]
}
