{
"type": "FeatureCollection",
"name": "EG_Bonn",
"crs": { "type": "name", "properties": { "name": "urn:ogc:def:crs:OGC:1.3:CRS84" } },
"features": [
{ "type": "Feature", "properties": { "USE": 4, "RS": "05111", "RS_ALT": "051110000000", "GEN": "Düsseldorf", "SHAPE_LENG": 91421.830277352099, "SHAPE_AREA": 219764730.25949901, "StandortID": 4, "StandortNa": "Bonn" }, "geometry": { "type": "MultiPolygon", "coordinates": [ [ [ [ 7.166571652170374, 51.153253699839397 ], [ 7.160373659398975, 51.145880510159408 ], [ 7.158891148188983, 51.13350818537829 ], [ 7.170239423956495, 51.126996405878607 ], [ 7.171881120012888, 51.126061475862578 ], [ 7.14609608444902, 51.116109911931517 ], [ 7.135491486584296, 51.116912596782115 ], [ 7.120149147732067, 51.122422896716039 ], [ 7.116571682818653, 51.12495825810899 ], [ 7.119097106042989, 51.130156256653763 ], [ 7.117548585969793, 51.132930534166626 ], [ 7.110136022204991, 51.136993844236464 ], [ 7.10936944796781, 51.13729583626565 ], [ 7.108462816653263, 51.137359578610429 ], [ 7.097874251229834, 51.138060380473519 ], [ 7.082659946016474, 51.137805352278285 ], [ 7.081688501233102, 51.137776924036608 ], [ 7.035337163364414, 51.131565199816194 ], [ 7.026927679142787, 51.130315588161672 ], [ 7.026350161159289, 51.130190307140786 ], [ 7.024970028049266, 51.129888039032629 ], [ 7.023161302569766, 51.129383832724677 ], [ 7.001531917046268, 51.122946006358596 ], [ 6.996532233411535, 51.117148403773186 ], [ 6.993794183166557, 51.087008103989596 ], [ 6.993086731694889, 51.075961609951754 ], [ 6.972239986939103, 51.066946753712926 ], [ 6.937261405640767, 51.071351067641622 ], [ 6.904440371147165, 51.067398090645995 ], [ 6.896983951070505, 51.064375406008637 ], [ 6.899463781255458, 51.063371033635221 ], [ 6.904698650215578, 51.061127414089619 ], [ 6.940468030218714, 51.043596599591837 ], [ 6.942949479128198, 51.042357207548193 ], [ 6.95899563783137, 51.033946137607849 ], [ 6.963137162323856, 51.03153173553806 ], [ 6.965650965970121, 51.029851489094732 ], [ 6.969785009913097, 51.026400761359099 ], [ 6.971190918518984, 51.024632787040538 ], [ 6.97227292045583, 51.022990117490032 ], [ 6.973164856348385, 51.020278762146127 ], [ 6.973148538242232, 51.016927406606285 ], [ 6.997762971972705, 51.017183667188142 ], [ 7.043803685920525, 51.019081227041532 ], [ 7.068277664226791, 51.018732911636953 ], [ 7.06189669946593, 51.013311566596201 ], [ 7.066799865356497, 50.993766431258457 ], [ 7.068982987973984, 50.98972349825268 ], [ 7.082677952269901, 50.98805465862425 ], [ 7.087299880835951, 50.987496722156969 ], [ 7.095779826222391, 50.985313082402079 ], [ 7.099848675564317, 50.981198669934287 ], [ 7.100421653340297, 50.972991994734059 ], [ 7.100483168050529, 50.966896006343184 ], [ 7.086736202771688, 50.957927786569471 ], [ 7.114339274231525, 50.943359415996788 ], [ 7.12823646797004, 50.943204694668609 ], [ 7.130672458872573, 50.943230267354139 ], [ 7.136785381649476, 50.9279243634804 ], [ 7.136780134527391, 50.906154567903513 ], [ 7.137476966383334, 50.882945897317377 ], [ 7.143249033821674, 50.878726499429341 ], [ 7.163219008853803, 50.868466802623836 ], [ 7.113515780044657, 50.84618548697987 ], [ 7.112875342409451, 50.843257502030248 ], [ 7.090368038800865, 50.833185881501876 ], [ 7.080492473289082, 50.830733501040378 ], [ 7.062701330845974, 50.830523032139482 ], [ 7.061815665124624, 50.844242032488303 ], [ 7.057782121018816, 50.849148589467063 ], [ 7.032760790339726, 50.849061318235115 ], [ 7.027164142383309, 50.84702945512015 ], [ 7.022514087565723, 50.839954376166361 ], [ 7.006172654901237, 50.837625918743562 ], [ 6.999003158317109, 50.836869343609429 ], [ 6.992958273354481, 50.83723624808362 ], [ 6.982251984495805, 50.840551349902384 ], [ 6.981391140004831, 50.838390390009877 ], [ 6.981273655490956, 50.83655822816182 ], [ 6.981544687777761, 50.834854967245882 ], [ 6.981752707212965, 50.833609182621359 ], [ 6.982675426655113, 50.831376186209809 ], [ 6.984366236236651, 50.829328627364028 ], [ 6.987065085529666, 50.827302545308953 ], [ 6.990741929679296, 50.826071667380546 ], [ 6.994098900225277, 50.825308409232612 ], [ 6.999046958865376, 50.82475526111697 ], [ 7.013062811721065, 50.823132682351371 ], [ 7.016601682338734, 50.822590463800346 ], [ 7.020807578652954, 50.820924174669784 ], [ 7.025548103591333, 50.817805505835679 ], [ 7.028409397554895, 50.814711516613457 ], [ 7.030095858584589, 50.81192459750045 ], [ 7.030641620368471, 50.809752097263434 ], [ 7.030683418294465, 50.807474424339979 ], [ 7.029986623478362, 50.800229490443613 ], [ 6.99440094687104, 50.79316878564854 ], [ 6.97810706930981, 50.797584203684963 ], [ 6.934311793262013, 50.805424717856503 ], [ 6.88391081973421, 50.793945457961236 ], [ 6.870897883488127, 50.790764181843826 ], [ 6.863984562811926, 50.784836085107429 ], [ 6.868900001263275, 50.783395677193646 ], [ 6.870446958872249, 50.780138016141215 ], [ 6.868275040368078, 50.772457736835619 ], [ 6.864901724551373, 50.767622449950437 ], [ 6.867034252758915, 50.761770713616585 ], [ 6.872141461066305, 50.753273586149668 ], [ 6.877885923075294, 50.748976153195095 ], [ 6.88201477485006, 50.745907230313946 ], [ 6.89277119090159, 50.747819271334684 ], [ 6.902108558344716, 50.750650097932308 ], [ 6.915768698273479, 50.734030012616259 ], [ 6.901414452549795, 50.719729838924799 ], [ 6.895863878783805, 50.715350201505245 ], [ 6.892470859126884, 50.71317253378156 ], [ 6.890178060084883, 50.712182189417341 ], [ 6.886098959896386, 50.710991848417265 ], [ 6.867741395065212, 50.707327110992203 ], [ 6.864848748019421, 50.704758911875423 ], [ 6.857419655159033, 50.697615611204625 ], [ 6.856190660583228, 50.696279671125247 ], [ 6.856049026905461, 50.691554667481121 ], [ 6.856530414511315, 50.69102030810997 ], [ 6.87063551963923, 50.689454863317934 ], [ 6.871731372628362, 50.676453872965133 ], [ 6.865841204760597, 50.660693035070672 ], [ 6.863699751235611, 50.651427894119166 ], [ 6.869666756872787, 50.641381747239301 ], [ 6.874293148419832, 50.638905541633918 ], [ 6.878282855792664, 50.636778558335479 ], [ 6.898882425060227, 50.63544967127558 ], [ 6.910567757038455, 50.632137921286009 ], [ 6.916299331467294, 50.629244042929201 ], [ 6.91492618967281, 50.624066709296606 ], [ 6.911628863959318, 50.617766568297419 ], [ 6.90158541257725, 50.60366223029979 ], [ 6.898290610704858, 50.603802723212311 ], [ 6.890569488047966, 50.602786850141904 ], [ 6.886787890664055, 50.601533478484349 ], [ 6.886040920333858, 50.600942579677216 ], [ 6.883974544867555, 50.599292369118388 ], [ 6.884066260681744, 50.598655640573099 ], [ 6.884758774701243, 50.594092014773189 ], [ 6.891141837462271, 50.574464190059075 ], [ 6.900870997505495, 50.569912575379227 ], [ 6.921326509873571, 50.564891753784849 ], [ 6.927491749456521, 50.559164454574614 ], [ 6.923177580360165, 50.553256460107676 ], [ 6.900002331015139, 50.530644935916662 ], [ 6.885985076281085, 50.529143322977092 ], [ 6.884094025734762, 50.528192166070511 ], [ 6.882923135382018, 50.525786194828804 ], [ 6.883698710837433, 50.523062984319537 ], [ 6.8887148679663, 50.507122159026935 ], [ 6.901146497643572, 50.504538403800353 ], [ 6.905309250332523, 50.50183074729204 ], [ 6.905451953468924, 50.499970460675961 ], [ 6.904283307410688, 50.482989293491656 ], [ 6.900891136369077, 50.468325823198548 ], [ 6.859091599035644, 50.452957895778979 ], [ 6.857652289374169, 50.452777219227393 ], [ 6.855179455386033, 50.453005204908408 ], [ 6.812523135190133, 50.471501770713601 ], [ 6.808013551166841, 50.480906688132237 ], [ 6.80667842327822, 50.487638595835975 ], [ 6.800725890032092, 50.491312387140603 ], [ 6.770606904484514, 50.485584119436083 ], [ 6.744121964343606, 50.472470616525733 ], [ 6.743920037086736, 50.467589967491641 ], [ 6.768782388416107, 50.431695310779332 ], [ 6.784319175917432, 50.420909930953918 ], [ 6.779151194365182, 50.405166140449609 ], [ 6.773123590671585, 50.399943798108225 ], [ 6.769891354864939, 50.396451523438856 ], [ 6.769853958986682, 50.392486288866586 ], [ 6.785293077431347, 50.375463826478168 ], [ 6.80027080191971, 50.363442800408102 ], [ 6.802509461694503, 50.362019405501037 ], [ 6.782792097747291, 50.363094643010534 ], [ 6.779251157438781, 50.362457450640221 ], [ 6.731584181623865, 50.35147949556189 ], [ 6.695800984278582, 50.346299241841827 ], [ 6.685868633969375, 50.358348909963787 ], [ 6.66826620252144, 50.371971257363874 ], [ 6.665117956101417, 50.37119046828704 ], [ 6.66235657402062, 50.370503602787423 ], [ 6.66095149371513, 50.370114277349849 ], [ 6.659856973426585, 50.369717295982156 ], [ 6.657195370779707, 50.368673242751889 ], [ 6.656128199213103, 50.368114962907228 ], [ 6.655444065270519, 50.367695621154759 ], [ 6.656750215131536, 50.356549150531642 ], [ 6.650315540571242, 50.347936438463137 ], [ 6.636563160956531, 50.344798509072476 ], [ 6.621588529342556, 50.354619080424087 ], [ 6.62344168043922, 50.361006689433111 ], [ 6.626597394806407, 50.371934199641956 ], [ 6.624295717895105, 50.37490194241682 ], [ 6.603893908061061, 50.387483746830782 ], [ 6.529201092386837, 50.369293152288364 ], [ 6.512334612063923, 50.359698017787203 ], [ 6.504074386060649, 50.351652563313891 ], [ 6.488191522957752, 50.340231513413698 ], [ 6.48453562765543, 50.338031152972725 ], [ 6.451977910614744, 50.335319512382604 ], [ 6.450040133813858, 50.338855607987341 ], [ 6.457474298089454, 50.347534064319895 ], [ 6.460805690119022, 50.36087961638281 ], [ 6.449018346442214, 50.371791441384687 ], [ 6.411982890302403, 50.388871508513503 ], [ 6.397276403393968, 50.386346736045546 ], [ 6.38549365345729, 50.384249187224 ], [ 6.385219965718916, 50.383833862245361 ], [ 6.38949525917214, 50.371379693811399 ], [ 6.403922562185563, 50.345698762865716 ], [ 6.41540677015803, 50.33232957066479 ], [ 6.426630928299612, 50.322698943942861 ], [ 6.403891651169377, 50.32326811864754 ], [ 6.406328675817821, 50.33440312962324 ], [ 6.406371390147246, 50.335044465286096 ], [ 6.397702894189999, 50.343061561410913 ], [ 6.395694659597368, 50.344611836067116 ], [ 6.357907922069342, 50.37037998743822 ], [ 6.353381028783853, 50.37265882039128 ], [ 6.340756929410266, 50.37900634325208 ], [ 6.343904068937902, 50.383256750847075 ], [ 6.344956015426584, 50.384430284824816 ], [ 6.356158773654878, 50.394522639098348 ], [ 6.363661120848652, 50.401056155997267 ], [ 6.364988129949888, 50.402798125897931 ], [ 6.36900479427748, 50.410350239064691 ], [ 6.376309871236734, 50.434908117756173 ], [ 6.376621291951395, 50.436180934154102 ], [ 6.376017014387626, 50.443215436698758 ], [ 6.374798226579391, 50.449371798248194 ], [ 6.374131744206272, 50.451492698139241 ], [ 6.373212267333245, 50.453280104441333 ], [ 6.371406673070631, 50.456153154721591 ], [ 6.367461209597618, 50.455272541587654 ], [ 6.364635825038663, 50.454657351418341 ], [ 6.362854972236667, 50.454683428112737 ], [ 6.361202107045005, 50.454858296125586 ], [ 6.358873430021289, 50.455333236312434 ], [ 6.348268754426124, 50.457924979621268 ], [ 6.340301021763335, 50.462287378778839 ], [ 6.339748157574296, 50.462790076601216 ], [ 6.33948095734723, 50.463573477779995 ], [ 6.338195335441354, 50.474557663432151 ], [ 6.338350917443326, 50.475509557775595 ], [ 6.340933381596042, 50.483010752658977 ], [ 6.341509291792042, 50.48384262614627 ], [ 6.332836708040006, 50.492261696771827 ], [ 6.315420615802286, 50.496974264101404 ], [ 6.312783369742061, 50.498500573880747 ], [ 6.308820994629619, 50.500780727045722 ], [ 6.280770435776972, 50.502685441310177 ], [ 6.221918473788855, 50.501857082970091 ], [ 6.192650765053465, 50.521234676425543 ], [ 6.187701561902616, 50.527079268238879 ], [ 6.178782656333072, 50.541598783555699 ], [ 6.17503919866205, 50.558078670728385 ], [ 6.219789194231302, 50.582073469212318 ], [ 6.242887901519436, 50.58708307406387 ], [ 6.268584456269002, 50.617409196579217 ], [ 6.269677555459078, 50.6187921022198 ], [ 6.269854860263091, 50.619023925116878 ], [ 6.270383285100958, 50.620854793146655 ], [ 6.270352771747157, 50.623539407047851 ], [ 6.27031390448328, 50.624907885287442 ], [ 6.269725768380784, 50.625300911643173 ], [ 6.265944143856267, 50.62763173872586 ], [ 6.263612416277182, 50.628032883973098 ], [ 6.25749943814583, 50.625915814521811 ], [ 6.255781268867556, 50.625645357402853 ], [ 6.233708941544697, 50.624534502198038 ], [ 6.189031120769875, 50.627498655889987 ], [ 6.166629017586422, 50.643839311314991 ], [ 6.170353947705551, 50.644636971993677 ], [ 6.172087286253093, 50.644746991183361 ], [ 6.183344209056723, 50.645339490786469 ], [ 6.180384398250838, 50.650213094503776 ], [ 6.12008849822711, 50.717933062953151 ], [ 6.118120846107046, 50.719985745590321 ], [ 6.113143744646891, 50.722329952833505 ], [ 6.111971031849002, 50.722871381679553 ], [ 6.111825299399955, 50.722910915303991 ], [ 6.09832110787758, 50.72306494706492 ], [ 6.073234037390412, 50.720926944492582 ], [ 6.043947205070249, 50.718477528583165 ], [ 6.041934907228674, 50.718436024809307 ], [ 6.039165087, 50.718446439774816 ], [ 6.036448436158649, 50.720126448930806 ], [ 6.033628718065459, 50.728067297272354 ], [ 6.034548484669381, 50.733439208023121 ], [ 6.040584801234104, 50.738043840907544 ], [ 6.039892406532123, 50.745426793586681 ], [ 5.997837882205831, 50.785571629280746 ], [ 5.97713882830837, 50.796493336583232 ], [ 5.975123068218452, 50.79762257340407 ], [ 5.976661911828526, 50.803010303807689 ], [ 5.984893839962465, 50.810975638110222 ], [ 6.0000024647761, 50.803927977996111 ], [ 6.004750751862846, 50.801750481315615 ], [ 6.010145006397454, 50.804077968115401 ], [ 6.023682664008335, 50.813742084529885 ], [ 6.027872011175112, 50.820042471857917 ], [ 6.024680266644498, 50.828221414198985 ], [ 6.02143528454101, 50.830142359417223 ], [ 6.021131769545316, 50.830337953529856 ], [ 6.020011351012665, 50.833251369945607 ], [ 6.019991127881809, 50.833313687591705 ], [ 6.019999239540913, 50.833377098970146 ], [ 6.021758370545217, 50.845560185432312 ], [ 6.055091171478908, 50.855964383449695 ], [ 6.056336373350753, 50.856048107567005 ], [ 6.057347177857371, 50.855753329178235 ], [ 6.05776541205762, 50.855102309602394 ], [ 6.058055700708086, 50.851021074503144 ], [ 6.073484817572299, 50.847347248228544 ], [ 6.074243321376281, 50.847754781299422 ], [ 6.088136950451502, 50.87299065459792 ], [ 6.088380316357816, 50.877479718642455 ], [ 6.08106107470618, 50.883132391879954 ], [ 6.080030104337112, 50.884084663544435 ], [ 6.075717898318151, 50.889265605294838 ], [ 6.075296063368933, 50.890403300258505 ], [ 6.075284229247153, 50.892322788895306 ], [ 6.075594894405542, 50.894597082779583 ], [ 6.076129927374614, 50.896312053231355 ], [ 6.080375130209219, 50.907118961930799 ], [ 6.080887127824323, 50.908030797615105 ], [ 6.087028648540151, 50.913762660292377 ], [ 6.092912525962888, 50.917717664407007 ], [ 6.093804525848479, 50.918535670273265 ], [ 6.094420621956165, 50.919857015044052 ], [ 6.094781282617802, 50.921466115614109 ], [ 6.09399352565956, 50.921652553993944 ], [ 6.072567382749847, 50.923217751358997 ], [ 6.055489926126407, 50.926414705584769 ], [ 6.018645642585534, 50.935023393327768 ], [ 6.015605977494022, 50.947877582532136 ], [ 6.013371917378067, 50.961682307602338 ], [ 6.013677594534369, 50.962063675388571 ], [ 6.025442264858326, 50.980968836596688 ], [ 6.025646891130172, 50.982103447721165 ], [ 6.025055876052603, 50.983640175795742 ], [ 5.986423886272415, 50.98205766422069 ], [ 5.967058447373581, 50.979294466740797 ], [ 5.918664420727962, 50.977840309469684 ], [ 5.904136520824184, 50.98725586357078 ], [ 5.879577102565064, 51.017412535953376 ], [ 5.87880487485328, 51.018562887032019 ], [ 5.867879343342633, 51.045345720092499 ], [ 5.865998813415615, 51.051130842131222 ], [ 5.913345737474956, 51.066526704653306 ], [ 5.918572950349168, 51.064018845294818 ], [ 5.92254685248086, 51.056097744447094 ], [ 5.92658082587113, 51.048133835900991 ], [ 5.937041584585914, 51.036897044898872 ], [ 5.952157940389933, 51.03656874366829 ], [ 5.966763741165503, 51.044809481353475 ], [ 5.967808798252217, 51.046112155824019 ], [ 5.968498103002574, 51.047689448516749 ], [ 5.968745636341165, 51.049105330755481 ], [ 5.971426083659775, 51.060883233999846 ], [ 5.979195697848393, 51.069793607712121 ], [ 5.981406777335649, 51.072205071490338 ], [ 5.99530021647019, 51.081901243490194 ], [ 5.997855885777069, 51.083433228208378 ], [ 6.010109399189906, 51.090774471957104 ], [ 6.01708445198339, 51.094125638420785 ], [ 6.01720379313722, 51.094076129873237 ], [ 6.02069092001573, 51.092803917386775 ], [ 6.02260539205358, 51.092841397333288 ], [ 6.031738301325059, 51.095057561849849 ], [ 6.033922760124704, 51.095709113469248 ], [ 6.035882954268888, 51.096460200209876 ], [ 6.080684762478191, 51.122259597740864 ], [ 6.087845877937132, 51.127361767623391 ], [ 6.097995551821657, 51.135244161390943 ], [ 6.134215908391709, 51.144905488970068 ], [ 6.136204564854992, 51.145241211548054 ], [ 6.153100134508456, 51.147962438720192 ], [ 6.154426474561071, 51.14802982558377 ], [ 6.163009185960183, 51.148952780087214 ], [ 6.175745460934304, 51.158627182447006 ], [ 6.171649269230737, 51.160278028897267 ], [ 6.139927604143225, 51.173050319370077 ], [ 6.140095155611913, 51.173705504109805 ], [ 6.173385247312416, 51.183973846310238 ], [ 6.175016072080192, 51.184475844384181 ], [ 6.176828455282937, 51.185029587854679 ], [ 6.180075975473069, 51.186032931428095 ], [ 6.18007681959087, 51.18679000941664 ], [ 6.165748251677305, 51.194136668959551 ], [ 6.124104271270253, 51.181616067911328 ], [ 6.123024596210072, 51.181206068911713 ], [ 6.120839679863873, 51.180051658142226 ], [ 6.119301059517543, 51.179038588883266 ], [ 6.115065856514375, 51.175770175910664 ], [ 6.114654509557506, 51.175421258500329 ], [ 6.114282619496444, 51.175109832789261 ], [ 6.11250225862467, 51.174078590669012 ], [ 6.109918772604136, 51.172899944506803 ], [ 6.10685774782521, 51.17191960406619 ], [ 6.102134504419115, 51.170930706377348 ], [ 6.099278664667314, 51.170507686765497 ], [ 6.096460943239932, 51.170437559842675 ], [ 6.093469755666617, 51.17053208092014 ], [ 6.086979050444802, 51.171089267368842 ], [ 6.084169804666626, 51.171379692470097 ], [ 6.082916274071668, 51.17159369351802 ], [ 6.082083272264397, 51.172057942262519 ], [ 6.073421166531413, 51.183294365982761 ], [ 6.067610724444556, 51.220353990362177 ], [ 6.071940361658003, 51.242231338805453 ], [ 6.085572393493822, 51.247730803830486 ], [ 6.117183644360104, 51.269757181757107 ], [ 6.123840782771601, 51.274395525576146 ], [ 6.15383401823402, 51.307543881033084 ], [ 6.158246059136795, 51.314124450246354 ], [ 6.16290275938682, 51.323769129151025 ], [ 6.169083121934912, 51.332379273492144 ], [ 6.19027831039408, 51.33971234103069 ], [ 6.225995269414386, 51.360882244609769 ], [ 6.224269931176723, 51.36565885866414 ], [ 6.258583840885351, 51.361677429378929 ], [ 6.266131080332243, 51.356002246635882 ], [ 6.268300565490927, 51.356044482090311 ], [ 6.271406088584842, 51.356237566442886 ], [ 6.274027526123237, 51.356530288645679 ], [ 6.304217719338079, 51.359911915127363 ], [ 6.307223610312566, 51.360253674119328 ], [ 6.310894973518115, 51.361033651923321 ], [ 6.357269084361388, 51.376404221027123 ], [ 6.387439579557875, 51.39436068815499 ], [ 6.393088221952126, 51.401424658932832 ], [ 6.398136991034351, 51.413774678205634 ], [ 6.426660062579183, 51.41142429475871 ], [ 6.434587592887887, 51.40650888518433 ], [ 6.461354217444244, 51.405540162165273 ], [ 6.508944050627189, 51.418402457877313 ], [ 6.516547201119621, 51.424444893713741 ], [ 6.534433813457658, 51.406399547647069 ], [ 6.548654011231955, 51.393147914421846 ], [ 6.559091683805129, 51.390165106918872 ], [ 6.563586928228241, 51.389297796789009 ], [ 6.609313576942943, 51.393641889817971 ], [ 6.635876988776467, 51.392518959717343 ], [ 6.637329647406298, 51.40093629699107 ], [ 6.643594619354801, 51.416214455306182 ], [ 6.663111359358237, 51.4119705942271 ], [ 6.677982317927786, 51.449328657464584 ], [ 6.675649022962633, 51.459856179586971 ], [ 6.663666284490361, 51.480024124949779 ], [ 6.655522921056817, 51.483884390405692 ], [ 6.650808563041194, 51.485901405687422 ], [ 6.650510945695799, 51.486008776223223 ], [ 6.647735719970119, 51.482800854842189 ], [ 6.645258868555823, 51.481026044071292 ], [ 6.645005183029547, 51.481125835129085 ], [ 6.638869941643917, 51.490420136414777 ], [ 6.633370878335504, 51.5041224468142 ], [ 6.633513312837983, 51.504487471343175 ], [ 6.63938743749498, 51.509301878430534 ], [ 6.652604147967524, 51.511284068270129 ], [ 6.657064843489786, 51.509051431850786 ], [ 6.671450951161557, 51.511213814366762 ], [ 6.689909984178948, 51.51875825550956 ], [ 6.693362574998178, 51.526563217866354 ], [ 6.691973041999777, 51.527121878590947 ], [ 6.690090218678622, 51.527880757799856 ], [ 6.686864851736455, 51.529325862053504 ], [ 6.683421516400342, 51.531304317470287 ], [ 6.680957841539116, 51.532963124916947 ], [ 6.679872321860461, 51.533855811702445 ], [ 6.679038401787776, 51.534675580916229 ], [ 6.677907818001523, 51.536107290173661 ], [ 6.677124464671545, 51.537532275288115 ], [ 6.676847054574821, 51.538433134390715 ], [ 6.676704526295823, 51.539275312013174 ], [ 6.676633615590256, 51.540471167939231 ], [ 6.676736161873097, 51.541492494891166 ], [ 6.676922509857294, 51.542894839354723 ], [ 6.677360321211165, 51.544746819131092 ], [ 6.677660133321676, 51.545828564165568 ], [ 6.678112492040092, 51.546987340871034 ], [ 6.680156149684843, 51.550548928715024 ], [ 6.685667046142873, 51.560024243608716 ], [ 6.692492885717125, 51.559452194776021 ], [ 6.720944277028492, 51.55110736180346 ], [ 6.73479192193239, 51.545947516337392 ], [ 6.772384023648456, 51.534765776687664 ], [ 6.784237256150856, 51.531978461783559 ], [ 6.783787423681765, 51.546250894487471 ], [ 6.789011374839529, 51.551495976737471 ], [ 6.815223605047227, 51.573738803815225 ], [ 6.822254270800697, 51.576732650136151 ], [ 6.831627149060917, 51.579735909362206 ], [ 6.842150013636787, 51.582837110555047 ], [ 6.84795973017101, 51.58522399328703 ], [ 6.848519454861735, 51.58545748702435 ], [ 6.85793614493565, 51.589405660341505 ], [ 6.859352556311759, 51.590323110123379 ], [ 6.864667219997186, 51.596233701207396 ], [ 6.865263625405456, 51.596918619641968 ], [ 6.862776263570236, 51.600372809651788 ], [ 6.862425843475283, 51.615332135839566 ], [ 6.866173586527998, 51.629895174126304 ], [ 6.867284085553345, 51.631037221812548 ], [ 6.902034980717743, 51.635253881087067 ], [ 6.89885121819122, 51.653071668009105 ], [ 6.911856161315445, 51.677020334864551 ], [ 6.929277300628097, 51.699163976484421 ], [ 6.937085861902239, 51.704227042772274 ], [ 6.941026957390418, 51.714847336809697 ], [ 6.938947708495426, 51.718639549802489 ], [ 6.925769555084448, 51.732490493573103 ], [ 6.915670505140655, 51.742137286489836 ], [ 6.911259538616751, 51.746200690612689 ], [ 6.909150427819524, 51.748478453336745 ], [ 6.908868527683195, 51.749478612311727 ], [ 6.909248952323011, 51.753308939692019 ], [ 6.909526620333257, 51.754758413011118 ], [ 6.916540023113254, 51.778712059936893 ], [ 6.935868339278016, 51.77347711795629 ], [ 6.954661625998853, 51.771888712335638 ], [ 6.961753154131475, 51.777405459853838 ], [ 6.963015283928185, 51.78097357162185 ], [ 6.964373684009838, 51.784238340554083 ], [ 6.967337588598522, 51.78964939750216 ], [ 6.969192289244115, 51.792514564557379 ], [ 6.973801462401817, 51.798451754134256 ], [ 6.98718540808793, 51.800632427167223 ], [ 6.994583626544256, 51.80113965851411 ], [ 7.020365065278294, 51.800215409183259 ], [ 7.022775737031492, 51.790136645073922 ], [ 7.033496514176991, 51.7811208270858 ], [ 7.060500727940489, 51.777098975677859 ], [ 7.074494349369771, 51.777504492565377 ], [ 7.11367888642356, 51.787447372913554 ], [ 7.115019459337247, 51.78855731943807 ], [ 7.133164617861815, 51.803572618688179 ], [ 7.166680848319365, 51.820359604931248 ], [ 7.167901612515223, 51.820754103411495 ], [ 7.169032775091623, 51.820983991992364 ], [ 7.172998772371384, 51.821194396139255 ], [ 7.18512404567288, 51.820903657088003 ], [ 7.186233919447399, 51.820826631505263 ], [ 7.191406505766603, 51.820430797422034 ], [ 7.206104576908056, 51.817508293550532 ], [ 7.209341633981788, 51.816544634915466 ], [ 7.248209741117557, 51.804488521725865 ], [ 7.256456067414036, 51.799644968814071 ], [ 7.26085151954195, 51.796856737600237 ], [ 7.263854003844491, 51.792409525045741 ], [ 7.262089128697593, 51.782915628679277 ], [ 7.257934065130678, 51.773977570799012 ], [ 7.268063428378121, 51.761927236769303 ], [ 7.27965279046233, 51.749258508389012 ], [ 7.292263089797354, 51.748997557747344 ], [ 7.295503336627443, 51.748716132771321 ], [ 7.310238472690112, 51.746277708046037 ], [ 7.323821445331135, 51.736405044788889 ], [ 7.311450675478428, 51.722295708511353 ], [ 7.298418285108139, 51.712768206477342 ], [ 7.29805162755361, 51.708283038912533 ], [ 7.298112140566849, 51.707420242125337 ], [ 7.29860597381097, 51.70678526626984 ], [ 7.299304765838179, 51.70632695903852 ], [ 7.339572483504663, 51.68739314960159 ], [ 7.358954806685863, 51.680454155221305 ], [ 7.359576270538722, 51.68026357602529 ], [ 7.360901843788623, 51.680154725702074 ], [ 7.363008358920391, 51.680273667876293 ], [ 7.366338307619325, 51.68050605668931 ], [ 7.367131635107755, 51.680554101082024 ], [ 7.368405804081483, 51.680560846943578 ], [ 7.370115257788943, 51.680345002572885 ], [ 7.377836969018531, 51.679261610508732 ], [ 7.379396496428233, 51.678906596305403 ], [ 7.381493335523815, 51.678106550612497 ], [ 7.40607355183528, 51.666101766205337 ], [ 7.409099631755108, 51.664605241476274 ], [ 7.409296499517052, 51.670472037206345 ], [ 7.413664186439942, 51.670982359494644 ], [ 7.424433223784943, 51.670407704740768 ], [ 7.429702125338187, 51.667636445559502 ], [ 7.435860932797394, 51.669074832263107 ], [ 7.448375218122075, 51.676394619577721 ], [ 7.451444346040054, 51.682272266660121 ], [ 7.45230318330892, 51.689155285739403 ], [ 7.449587875738819, 51.693154973356215 ], [ 7.43788088029946, 51.70462038503868 ], [ 7.436740467528344, 51.704554836597914 ], [ 7.429660911442843, 51.705100561753746 ], [ 7.426727091946553, 51.70562763256779 ], [ 7.425106710224273, 51.70623379083878 ], [ 7.42426803762813, 51.716746486436712 ], [ 7.43398545960377, 51.722491032729614 ], [ 7.435314442547793, 51.723209740967675 ], [ 7.467256094186753, 51.736016495552782 ], [ 7.472078696706626, 51.73545569447996 ], [ 7.477219198549941, 51.728780438190554 ], [ 7.518248110445692, 51.706844744632889 ], [ 7.538766854572516, 51.686751610314673 ], [ 7.542337427639022, 51.684626163237866 ], [ 7.549847838405459, 51.68719969025441 ], [ 7.587549236576151, 51.701098821582178 ], [ 7.606027296914914, 51.709943156641373 ], [ 7.613290992115084, 51.715162268294243 ], [ 7.666424072500122, 51.719579619459658 ], [ 7.694521124829858, 51.718754708458306 ], [ 7.702318395469899, 51.712376519010682 ], [ 7.735395734543893, 51.738819632502803 ], [ 7.759768844804381, 51.729663989117569 ], [ 7.769086010640001, 51.72416299055201 ], [ 7.772007781332433, 51.724752503682751 ], [ 7.780608407165468, 51.727345006111037 ], [ 7.802105599277552, 51.734705515865876 ], [ 7.820444047168021, 51.739424933837597 ], [ 7.874824640381927, 51.729202243722057 ], [ 7.878734297001694, 51.725994290917143 ], [ 7.888581448112905, 51.717543409731398 ], [ 7.92244884561286, 51.706512022560979 ], [ 7.945647443162869, 51.699985089368603 ], [ 7.97309776060631, 51.691096276160302 ], [ 7.975432573159859, 51.690255002982646 ], [ 7.976001615600002, 51.689916094386774 ], [ 7.986320787519783, 51.683726963920449 ], [ 7.986937033833914, 51.683317001135727 ], [ 7.997740101808573, 51.67458084111707 ], [ 7.995741156601985, 51.672486199235095 ], [ 7.986424221667915, 51.670002121976012 ], [ 7.966594652570183, 51.675168686338488 ], [ 7.963965255577691, 51.675328356087405 ], [ 7.960495687303115, 51.674713790407473 ], [ 7.953898141310868, 51.67255554624699 ], [ 7.952163392376293, 51.667576356928414 ], [ 7.941163437395376, 51.638587626203623 ], [ 7.935423958286379, 51.634907502189535 ], [ 7.914572602738779, 51.617106456040155 ], [ 7.911537108105842, 51.613763287958164 ], [ 7.915839111738808, 51.602362202535303 ], [ 7.914520181862935, 51.595770964702602 ], [ 7.875721843052303, 51.593591247473 ], [ 7.827305352545812, 51.578713068982893 ], [ 7.838778271637583, 51.558312281491098 ], [ 7.839590280296691, 51.552785154120805 ], [ 7.832699312546924, 51.539936146316983 ], [ 7.831362866874428, 51.505615710549058 ], [ 7.83666926749507, 51.496958423572103 ], [ 7.84064277164139, 51.495589852748523 ], [ 7.844275364658259, 51.494375475157419 ], [ 7.847833690008352, 51.489702422289312 ], [ 7.8489800891673, 51.488080780428632 ], [ 7.850135443925165, 51.484055722052922 ], [ 7.850133519792147, 51.48184107248408 ], [ 7.849767202542942, 51.481193660870822 ], [ 7.848921061351396, 51.480616444905486 ], [ 7.845737708488288, 51.47932036343591 ], [ 7.844302630370833, 51.47895490031356 ], [ 7.842716961696801, 51.47870307318869 ], [ 7.840850415942251, 51.478570865078098 ], [ 7.838403260210069, 51.478506578298585 ], [ 7.787653021849052, 51.470730981827273 ], [ 7.731341653137861, 51.467961082968451 ], [ 7.718500817829187, 51.471250488463582 ], [ 7.700298633092271, 51.473771850990879 ], [ 7.699183577416938, 51.47385336423509 ], [ 7.697943920162366, 51.473850863956642 ], [ 7.696553586235263, 51.473718715470135 ], [ 7.694727985769015, 51.473396116896282 ], [ 7.664639250149792, 51.466417729089905 ], [ 7.631582822932736, 51.451715119538008 ], [ 7.62070251512809, 51.440924110169348 ], [ 7.625093699454226, 51.43107359676516 ], [ 7.628144720126964, 51.422819852996845 ], [ 7.631343546803619, 51.407105667119978 ], [ 7.631332067339205, 51.406367086788364 ], [ 7.630896309910776, 51.405276002253238 ], [ 7.620800548173309, 51.392937145053452 ], [ 7.615295464353992, 51.389614770690493 ], [ 7.610256987104944, 51.388725595201642 ], [ 7.587016750664346, 51.390078366018784 ], [ 7.584282719296274, 51.377819288329718 ], [ 7.588804852502492, 51.362291722880414 ], [ 7.591197377311405, 51.357434896020884 ], [ 7.583034298023632, 51.336028001545465 ], [ 7.584149005227686, 51.307990219993485 ], [ 7.584410912479862, 51.307483505040267 ], [ 7.584505222326608, 51.306900596310271 ], [ 7.583882113299951, 51.299952000472551 ], [ 7.582914441286188, 51.296407340302189 ], [ 7.564905159341192, 51.280164471919555 ], [ 7.549205628396291, 51.269289222550661 ], [ 7.518804430253766, 51.264845713030034 ], [ 7.512620601290225, 51.264147894928563 ], [ 7.502637087463636, 51.253240522027809 ], [ 7.499692882297934, 51.248869939401715 ], [ 7.499483450972732, 51.241723952905524 ], [ 7.48801327852273, 51.236134721343412 ], [ 7.479529497331253, 51.232728462609337 ], [ 7.468546818697538, 51.23201232490603 ], [ 7.450960544297867, 51.230087761358419 ], [ 7.445007697149232, 51.227933460674585 ], [ 7.440038377552133, 51.224579874224204 ], [ 7.430255679516287, 51.215129647956005 ], [ 7.430740574809144, 51.218618284438548 ], [ 7.430354323931501, 51.224209212849658 ], [ 7.39942068640557, 51.24235846916816 ], [ 7.39447180410986, 51.245117926487936 ], [ 7.389954818497499, 51.246357800332383 ], [ 7.374391580354705, 51.245871331700791 ], [ 7.371737756316538, 51.245440241995524 ], [ 7.365752599276531, 51.244415672572494 ], [ 7.358852302081155, 51.242717865419166 ], [ 7.359558922325802, 51.240557544953973 ], [ 7.352473067314394, 51.23927760413185 ], [ 7.352387782355666, 51.239266284107565 ], [ 7.340661419549682, 51.239977021511045 ], [ 7.339684110670212, 51.240211811060348 ], [ 7.339072524696904, 51.240762621716748 ], [ 7.3386310243538, 51.242389681324987 ], [ 7.33792806106179, 51.247620837902495 ], [ 7.305147645671521, 51.239859714102863 ], [ 7.312327661240704, 51.233949692806434 ], [ 7.31028487365525, 51.230922194364176 ], [ 7.299086757514795, 51.215973334958527 ], [ 7.296416637986599, 51.205894972265078 ], [ 7.295340838550271, 51.200741245618111 ], [ 7.294635378238807, 51.195417572449934 ], [ 7.297166914994582, 51.195081670528751 ], [ 7.30580689799745, 51.194705586161852 ], [ 7.307679105180319, 51.184625371627568 ], [ 7.307629283942029, 51.183480283199891 ], [ 7.307190228856509, 51.182162475762894 ], [ 7.296023910968756, 51.149589438624737 ], [ 7.295341901689306, 51.148481036811582 ], [ 7.294070275616407, 51.147203371280746 ], [ 7.290572117619424, 51.14520708822949 ], [ 7.288616004408041, 51.144099644281823 ], [ 7.287405149459251, 51.144012335363726 ], [ 7.28127226161566, 51.144086665401836 ], [ 7.267647173753294, 51.145655731272726 ], [ 7.254579558979043, 51.157622620970628 ], [ 7.226843722390813, 51.160784662685209 ], [ 7.21842731511032, 51.161314144181723 ], [ 7.217216745153923, 51.161217101235962 ], [ 7.204568231376031, 51.156817303409234 ], [ 7.203871524050387, 51.156545475409729 ], [ 7.193856084282956, 51.153407519145453 ], [ 7.171707911102638, 51.15232835541434 ], [ 7.171164843272137, 51.152312883668351 ], [ 7.17048862175448, 51.152356658183024 ], [ 7.166571652170374, 51.153253699839397 ] ] ] ] } }
]
}
