{
"type": "FeatureCollection",
"name": "EG_Paderborn",
"crs": { "type": "name", "properties": { "name": "urn:ogc:def:crs:OGC:1.3:CRS84" } },
"features": [
{ "type": "Feature", "properties": { "USE": 4, "RS": "03251", "RS_ALT": "032510000000", "GEN": "Diepholz", "SHAPE_LENG": 241723.51525398201, "SHAPE_AREA": 1997582961.78512, "StandortID": 2, "StandortNa": "Paderborn" }, "geometry": { "type": "MultiPolygon", "coordinates": [ [ [ [ 8.922421361671629, 51.443220912429396 ], [ 7.932622555386701, 51.329546613463187 ], [ 7.931702693328183, 51.334328890287473 ], [ 7.928173311966785, 51.338338683550909 ], [ 7.92399647327822, 51.341064823084778 ], [ 7.911609113871338, 51.345365493717175 ], [ 7.906715468177725, 51.346751882889968 ], [ 7.905676161101989, 51.347593153409775 ], [ 7.905482829771541, 51.349144416481046 ], [ 7.901681770253163, 51.379643576906311 ], [ 7.901444209147321, 51.38061281497481 ], [ 7.890300691744361, 51.426077838576468 ], [ 7.884417988325009, 51.436202180545024 ], [ 7.878236791815055, 51.446840239746805 ], [ 7.876311334302854, 51.450154020658367 ], [ 7.864137448503794, 51.458173094948933 ], [ 7.838403260210069, 51.478506578298585 ], [ 7.840850415942251, 51.478570865078098 ], [ 7.842716961696801, 51.47870307318869 ], [ 7.844302630370833, 51.47895490031356 ], [ 7.845737708488288, 51.47932036343591 ], [ 7.848921061351396, 51.480616444905486 ], [ 7.849767202542942, 51.481193660870822 ], [ 7.850133519792147, 51.48184107248408 ], [ 7.850135443925165, 51.484055722052922 ], [ 7.8489800891673, 51.488080780428632 ], [ 7.847833690008352, 51.489702422289312 ], [ 7.844275364658259, 51.494375475157419 ], [ 7.84064277164139, 51.495589852748523 ], [ 7.83666926749507, 51.496958423572103 ], [ 7.831362866874428, 51.505615710549058 ], [ 7.832699312546924, 51.539936146316983 ], [ 7.839590280296691, 51.552785154120805 ], [ 7.838778271637583, 51.558312281491098 ], [ 7.827305352545812, 51.578713068982893 ], [ 7.875721843052303, 51.593591247473 ], [ 7.914520181862935, 51.595770964702602 ], [ 7.915839111738808, 51.602362202535303 ], [ 7.911537108105842, 51.613763287958164 ], [ 7.914572602738779, 51.617106456040155 ], [ 7.935423958286379, 51.634907502189535 ], [ 7.941163437395376, 51.638587626203623 ], [ 7.952163392376293, 51.667576356928414 ], [ 7.953898141310868, 51.67255554624699 ], [ 7.960495687303115, 51.674713790407473 ], [ 7.963965255577691, 51.675328356087405 ], [ 7.966594652570183, 51.675168686338488 ], [ 7.986424221667915, 51.670002121976012 ], [ 7.995741156601985, 51.672486199235095 ], [ 7.997740101808573, 51.67458084111707 ], [ 7.986937033833914, 51.683317001135727 ], [ 7.986320787519783, 51.683726963920449 ], [ 7.976001615600002, 51.689916094386774 ], [ 7.975432573159859, 51.690255002982646 ], [ 7.97309776060631, 51.691096276160302 ], [ 7.945647443162869, 51.699985089368603 ], [ 7.952370155804206, 51.701003212155598 ], [ 7.953888836194511, 51.701305944316999 ], [ 7.957093753592066, 51.70280611762071 ], [ 7.958357970674999, 51.703778425731521 ], [ 7.95962169213661, 51.704759711393521 ], [ 7.960284537960634, 51.70716830373091 ], [ 7.960772737784363, 51.710635321981165 ], [ 7.95875079995788, 51.712599199909867 ], [ 7.958383191508265, 51.714517592539529 ], [ 7.960352775386905, 51.717404294688464 ], [ 7.963948295161623, 51.71972274259501 ], [ 7.96767843973922, 51.721449849915132 ], [ 7.971488589737407, 51.721999394628952 ], [ 7.975101034615852, 51.721932492941711 ], [ 8.053749394965401, 51.71712163422491 ], [ 8.056423807872276, 51.716699841828294 ], [ 8.059578644301375, 51.713794660163209 ], [ 8.062868345242078, 51.711612216357693 ], [ 8.071297771737523, 51.708131195853234 ], [ 8.091736124371511, 51.703535526385217 ], [ 8.09926511588329, 51.702230436819413 ], [ 8.107846106518084, 51.711531033159645 ], [ 8.109938425395683, 51.715569637242382 ], [ 8.115618923193358, 51.717781387962724 ], [ 8.119860209480915, 51.717866769884779 ], [ 8.140744760471978, 51.714711751663636 ], [ 8.157701209109328, 51.71068334362883 ], [ 8.210854137715033, 51.697746086338157 ], [ 8.211357751670832, 51.692319597722587 ], [ 8.210906894088238, 51.689178724609953 ], [ 8.200057153731233, 51.668825157924132 ], [ 8.194292391311585, 51.661440435766039 ], [ 8.196559686117983, 51.660962620032954 ], [ 8.208558296551866, 51.65978278162774 ], [ 8.218408642086652, 51.659010303193057 ], [ 8.219520943540516, 51.659049757525594 ], [ 8.250623213881436, 51.660743827726016 ], [ 8.251283015924402, 51.660864395033286 ], [ 8.25832290626877, 51.66220417516589 ], [ 8.268322441959745, 51.664886456155337 ], [ 8.293851685054893, 51.676300888549612 ], [ 8.294799436179105, 51.676759557083969 ], [ 8.295469390839759, 51.677276064417001 ], [ 8.295801512832965, 51.677894256268331 ], [ 8.29596451341483, 51.678716298043994 ], [ 8.29697686182138, 51.684144219979153 ], [ 8.297045001207566, 51.68453251406828 ], [ 8.296996112622219, 51.684945589565018 ], [ 8.296641873970531, 51.688989048880622 ], [ 8.296431097287631, 51.693359156761204 ], [ 8.296491499120213, 51.694809267603326 ], [ 8.29690315620358, 51.695581959895058 ], [ 8.304413142728473, 51.707466618919227 ], [ 8.308182577028294, 51.712837500478024 ], [ 8.319216338986266, 51.726613223679507 ], [ 8.310891355940148, 51.741858363980448 ], [ 8.30569540441614, 51.750123069522616 ], [ 8.30165538547832, 51.754224098675955 ], [ 8.278965146311361, 51.770225624199867 ], [ 8.263949350644348, 51.773219157010786 ], [ 8.253926077082248, 51.802351395398915 ], [ 8.233215399664227, 51.823854075512422 ], [ 8.218534983400803, 51.836262547956487 ], [ 8.218663660422859, 51.846452892956471 ], [ 8.214372334150498, 51.852625236288482 ], [ 8.204511991197183, 51.859679887238329 ], [ 8.200106944107279, 51.862573593998242 ], [ 8.190034769925189, 51.863404040724532 ], [ 8.16868337439513, 51.890022597409455 ], [ 8.162706623046212, 51.904998010841233 ], [ 8.170946981084573, 51.911999696239015 ], [ 8.172935334363904, 51.91977848676067 ], [ 8.168905068174146, 51.926278385395186 ], [ 8.162331691871088, 51.932665163933905 ], [ 8.138426111670766, 51.945827582394308 ], [ 8.11987212188302, 51.955006650761241 ], [ 8.113072000346756, 51.963276317693193 ], [ 8.110354582230698, 51.967019716078632 ], [ 8.114888547366299, 51.971961595603794 ], [ 8.107451742235181, 51.992520932234108 ], [ 8.099886955448842, 51.99828156830668 ], [ 8.098191989944048, 51.998076379986443 ], [ 8.091673203436718, 51.997827738048663 ], [ 8.075679634147994, 52.010634009524189 ], [ 8.097306289463337, 52.057474539728808 ], [ 8.092406006057441, 52.063972388213934 ], [ 8.067094395290002, 52.068183528322436 ], [ 8.031820141210082, 52.068592713660408 ], [ 7.99350864884748, 52.049973713683094 ], [ 7.992896928636226, 52.049420849986291 ], [ 7.988842516129152, 52.044349466413991 ], [ 7.988546157700898, 52.043902216908407 ], [ 7.987648269064534, 52.040616263571003 ], [ 7.987171424927329, 52.040003203640154 ], [ 7.983856629712498, 52.038196251213343 ], [ 7.974597777120217, 52.037523412726024 ], [ 7.942909249183217, 52.045118974756754 ], [ 7.929872259972073, 52.04824971880192 ], [ 7.916832916241858, 52.051388012554753 ], [ 7.906247220674794, 52.06671981633535 ], [ 7.893352491202422, 52.078643186319049 ], [ 7.883820155254745, 52.084599756073402 ], [ 7.885084681544092, 52.085977524828103 ], [ 7.886686794826005, 52.086822676837613 ], [ 7.899408627615314, 52.092482809875513 ], [ 7.959055113141233, 52.105737796466869 ], [ 8.008697235096969, 52.11569393230652 ], [ 8.003555211159719, 52.14477246584908 ], [ 8.024904778584416, 52.159606872432164 ], [ 8.026478713939944, 52.162933255024591 ], [ 8.017338173538004, 52.171356212305177 ], [ 8.007135596793267, 52.176147616100728 ], [ 7.991138233263884, 52.174787031250077 ], [ 7.939452695415066, 52.176049096005478 ], [ 7.932845800241608, 52.177680382407559 ], [ 7.908646994280664, 52.189677104747751 ], [ 7.905209418773731, 52.208988141067231 ], [ 7.913470312912827, 52.222567557507823 ], [ 7.945345696660986, 52.26497354985716 ], [ 7.955513257637858, 52.271939402716576 ], [ 7.932982960051814, 52.288386522631441 ], [ 7.928588877568045, 52.293124951659777 ], [ 7.933130707759162, 52.301510596430099 ], [ 7.93357581813487, 52.30194310750835 ], [ 7.934302070017358, 52.302336597656861 ], [ 7.947291324199841, 52.305745561134756 ], [ 7.955268077559811, 52.305915117106949 ], [ 7.959348034806396, 52.305677681579027 ], [ 7.977634456225963, 52.312858005277626 ], [ 7.963488770936882, 52.324438331096573 ], [ 7.959460060293661, 52.326080885068599 ], [ 7.958773039575106, 52.3265432872468 ], [ 7.949823731116409, 52.334146503980747 ], [ 7.949085149226071, 52.335255672778537 ], [ 7.948027392894965, 52.337329963829141 ], [ 7.947798734202689, 52.33851296340616 ], [ 7.947889435534035, 52.339504783429938 ], [ 7.950398800946173, 52.346820280391434 ], [ 7.95048453683483, 52.34764101277608 ], [ 7.950253545283458, 52.348347010414841 ], [ 7.93917234773722, 52.363868219750501 ], [ 7.891321668426717, 52.381403129847655 ], [ 7.864252953754458, 52.375547657075685 ], [ 7.86131245784735, 52.374790138893438 ], [ 7.841798467021978, 52.368600227846215 ], [ 7.831118854383304, 52.369443251090871 ], [ 7.808867251209453, 52.371277455078328 ], [ 7.801934216223203, 52.373614723950091 ], [ 7.755673976322164, 52.389539727133197 ], [ 7.730938842159148, 52.39803473914391 ], [ 7.714304875516232, 52.400314160441674 ], [ 7.708254186238071, 52.415059251352822 ], [ 7.702595996285406, 52.433368003690767 ], [ 7.702068414162214, 52.434273690574372 ], [ 7.698613681770657, 52.440088005331283 ], [ 7.69649120608308, 52.443656388169678 ], [ 7.686857017274912, 52.454977930609928 ], [ 7.682303752360041, 52.457814242595688 ], [ 7.614917585099397, 52.472011900915938 ], [ 7.608904021080654, 52.473622534210861 ], [ 7.610703002328689, 52.491692368172302 ], [ 7.616127406523707, 52.548591791668436 ], [ 7.622084706107751, 52.58339950626312 ], [ 7.62030650997294, 52.590601449874924 ], [ 7.619347309014712, 52.593107317878761 ], [ 7.613373537243768, 52.602557695697577 ], [ 7.608566454166798, 52.607185223824295 ], [ 7.608111106252238, 52.607597266082855 ], [ 7.608318832929434, 52.617420301694089 ], [ 7.608349064673075, 52.618095944632501 ], [ 7.611653307777716, 52.622566578639891 ], [ 7.612722306875479, 52.623645028108569 ], [ 7.613600313522938, 52.624475927515427 ], [ 7.614972809424467, 52.625435615079816 ], [ 7.655943484178485, 52.647167560460403 ], [ 7.6660361627639, 52.651562061497827 ], [ 7.684497406341038, 52.658445546187032 ], [ 7.695138489418619, 52.663381134147762 ], [ 7.688983774235573, 52.679345365597456 ], [ 7.764221164448184, 52.677687628821992 ], [ 7.769455497388861, 52.679002666031998 ], [ 7.794946854756216, 52.687349737918218 ], [ 7.798285984410567, 52.697016034598747 ], [ 7.804254798018047, 52.699956479237066 ], [ 7.854530907661428, 52.709586848355457 ], [ 7.889820813226596, 52.697630967441995 ], [ 7.903496450207718, 52.690394467069581 ], [ 7.904464725909933, 52.689785437486492 ], [ 7.904907411574151, 52.689048164361914 ], [ 7.908480275106838, 52.6825926909098 ], [ 7.918021957126597, 52.679647718809846 ], [ 7.940652448961194, 52.687992324319126 ], [ 7.970111151485887, 52.695413838019377 ], [ 7.976647261745813, 52.695316428554619 ], [ 7.978256899297822, 52.695134057389389 ], [ 7.979828720093515, 52.694833912771259 ], [ 7.981186758707693, 52.694385370542854 ], [ 7.982581459170976, 52.693811606917549 ], [ 7.990018924611493, 52.689791543072396 ], [ 7.991076403451659, 52.689417614190113 ], [ 8.008518118675502, 52.685441592287006 ], [ 8.017499394744636, 52.683673943888351 ], [ 8.01833018150514, 52.683376105567646 ], [ 8.019299039652735, 52.682991137397778 ], [ 8.03254432115029, 52.675299868640764 ], [ 8.033527735989885, 52.674645155050918 ], [ 8.03437422089408, 52.673789704902504 ], [ 8.047092077517339, 52.654849000568653 ], [ 8.048932529519513, 52.652583120286927 ], [ 8.049676811891421, 52.651959429805217 ], [ 8.060104990961571, 52.64466699128829 ], [ 8.053880625226618, 52.649019697942414 ], [ 8.188960510109453, 52.63647487415917 ], [ 8.309102789574196, 52.594027564720072 ], [ 8.31208710019793, 52.582452429553186 ], [ 8.30980113416933, 52.591318921384676 ], [ 8.452462454190215, 52.528175014566543 ], [ 8.476270432808692, 52.501721576539197 ], [ 8.50968523054769, 52.514779171128879 ], [ 8.556896772590999, 52.500571632184155 ], [ 8.625928865181619, 52.523461758098321 ], [ 8.650333915302641, 52.531035148787282 ], [ 8.666728265981458, 52.521489581120001 ], [ 8.702887416101772, 52.500526202196951 ], [ 8.698086755836915, 52.486466467456438 ], [ 8.703340725403404, 52.44430150347597 ], [ 8.704472380473272, 52.41488409805045 ], [ 8.707503513176656, 52.395687080867155 ], [ 8.716426767433367, 52.392797206887685 ], [ 8.746988448050709, 52.387372623596008 ], [ 8.773443014752701, 52.394916311604014 ], [ 8.779247238235309, 52.39656482210281 ], [ 8.787496544974987, 52.398895623201106 ], [ 8.811795601554534, 52.395254315468151 ], [ 8.855788866433532, 52.389324485845769 ], [ 8.93304149460841, 52.401007201785795 ], [ 8.937883971154838, 52.402158665450763 ], [ 8.973222331818718, 52.427763131533332 ], [ 9.016498150428031, 52.466559886277679 ], [ 9.029848876247353, 52.480719433494045 ], [ 9.054658996153195, 52.500349072939819 ], [ 9.084263979472373, 52.495348937548457 ], [ 9.127963854027421, 52.484548667206617 ], [ 9.132132237658578, 52.481681885398721 ], [ 9.132378293845955, 52.481342891303477 ], [ 9.135130994428154, 52.475599708674757 ], [ 9.125597293280643, 52.468493553395788 ], [ 9.102579060784871, 52.45662553897332 ], [ 9.098937934761336, 52.45157318389024 ], [ 9.094530820355326, 52.444209129133846 ], [ 9.093873862620576, 52.443095096949044 ], [ 9.096307677811241, 52.441990210812939 ], [ 9.109719294827077, 52.435723717700789 ], [ 9.12348318835803, 52.422156086676324 ], [ 9.125052871760825, 52.416534325833823 ], [ 9.125231991174099, 52.412119940503828 ], [ 9.12443520810524, 52.407874286199814 ], [ 9.123759522167111, 52.405923675144791 ], [ 9.097665361498001, 52.371612151100891 ], [ 9.072734493107234, 52.348641716042593 ], [ 9.060472591534934, 52.340273639701216 ], [ 9.040143726455966, 52.341737219734341 ], [ 9.033031997870534, 52.344097261064846 ], [ 9.030238120325864, 52.345097529393875 ], [ 9.029287622413982, 52.34541870557635 ], [ 9.028239028491409, 52.345594767969033 ], [ 9.027474669298794, 52.345612387624158 ], [ 9.02713964859532, 52.345527327701106 ], [ 9.026602287306444, 52.345340817688673 ], [ 8.998370322019955, 52.326901116598165 ], [ 8.991445804443918, 52.315344953151524 ], [ 8.986724277432174, 52.288541455363543 ], [ 8.986570169228637, 52.287451030559019 ], [ 8.985863935068233, 52.286641491950576 ], [ 8.981597301143998, 52.283097167557109 ], [ 8.969176311566688, 52.281292972491975 ], [ 8.964592155471047, 52.280667603410635 ], [ 8.963767060122009, 52.278624011068736 ], [ 8.971410681187711, 52.264706210441659 ], [ 8.972536324541554, 52.26393793606757 ], [ 8.976430059507443, 52.262386251069998 ], [ 8.980467637979812, 52.260908238291769 ], [ 9.006018864842634, 52.25343920793739 ], [ 9.042995079681461, 52.24317169334099 ], [ 9.074749140894735, 52.233955363917126 ], [ 9.075708323485355, 52.233274113606221 ], [ 9.076116612137289, 52.23240636786619 ], [ 9.07576818760166, 52.231376716867885 ], [ 9.074669477326601, 52.230446094653267 ], [ 9.066691217370114, 52.225178266504308 ], [ 9.045096683811698, 52.208437331461013 ], [ 9.048666352540822, 52.195778398022831 ], [ 9.042460948212447, 52.184386006558562 ], [ 9.021232074558153, 52.183720595592867 ], [ 9.005454995954995, 52.189479894096365 ], [ 8.984992857325631, 52.194260349009902 ], [ 8.992647882267148, 52.18814972584763 ], [ 9.007864852871064, 52.180774774089997 ], [ 9.011088230216943, 52.177549354955673 ], [ 9.016898731996623, 52.17172008765953 ], [ 9.017216078866022, 52.148216991398868 ], [ 9.044481555376326, 52.141643098612874 ], [ 9.099486525674914, 52.132701593950109 ], [ 9.104974266246151, 52.13251392603884 ], [ 9.109623666295528, 52.13344073911508 ], [ 9.113902994020934, 52.13738576603356 ], [ 9.127278012784895, 52.138421773151038 ], [ 9.143655777956575, 52.134902461501902 ], [ 9.145410384402576, 52.133914823352377 ], [ 9.153953989411869, 52.128298924239061 ], [ 9.154902684151692, 52.126870247124756 ], [ 9.158582296709534, 52.1200926617798 ], [ 9.145853778303342, 52.099563866364257 ], [ 9.154976907178051, 52.097328027534537 ], [ 9.174773021595561, 52.086214315829409 ], [ 9.175640777149386, 52.08550426721736 ], [ 9.181924362210575, 52.080338085594555 ], [ 9.189637910801553, 52.072119612720037 ], [ 9.189257568249523, 52.069119704447303 ], [ 9.181130740068584, 52.067977587493999 ], [ 9.173411459300407, 52.060407148279161 ], [ 9.173211566180429, 52.059757201421746 ], [ 9.1722111822708, 52.047574119693806 ], [ 9.173158940860221, 52.040117751108042 ], [ 9.175659675814558, 52.034414899648468 ], [ 9.180069506177295, 52.030244534829023 ], [ 9.188767679340714, 52.026526078032532 ], [ 9.197183072815482, 52.010263020206374 ], [ 9.185451894231534, 51.999536380206138 ], [ 9.173900515271525, 51.984339214492024 ], [ 9.175447747716417, 51.980748822445122 ], [ 9.189932546473999, 51.964490418551385 ], [ 9.205897546506936, 51.959276142298691 ], [ 9.210436758576991, 51.960449958714626 ], [ 9.210132310987287, 51.965529721136477 ], [ 9.216546381757448, 51.973569931831008 ], [ 9.2183718680835, 51.973922480785824 ], [ 9.229020789910459, 51.974945288882594 ], [ 9.255752990856324, 51.977017963695751 ], [ 9.264292944949455, 51.975829416071299 ], [ 9.277715722115442, 51.962068642366326 ], [ 9.271740138607214, 51.952551865466162 ], [ 9.264102506866086, 51.948037519260488 ], [ 9.262855386206029, 51.946252260578049 ], [ 9.272503797233412, 51.932911462424947 ], [ 9.286041880272649, 51.921345969900919 ], [ 9.295022441421379, 51.91902626658792 ], [ 9.309444399417952, 51.922212355846057 ], [ 9.312261449141737, 51.922429452402092 ], [ 9.331043359526026, 51.916857855494442 ], [ 9.340761619290777, 51.908298425419197 ], [ 9.344340421862286, 51.896826779061158 ], [ 9.344435213930627, 51.891951609405382 ], [ 9.344465644706233, 51.89017958541087 ], [ 9.343105046719442, 51.881934532376299 ], [ 9.340861786596085, 51.872412298246452 ], [ 9.338110130894121, 51.863487778174296 ], [ 9.336509369379907, 51.860737122658378 ], [ 9.334699676812466, 51.858209323617118 ], [ 9.334137041721043, 51.857484066692706 ], [ 9.333022253601886, 51.856762376093911 ], [ 9.331363643806608, 51.855720451126707 ], [ 9.330165447775382, 51.855420762359451 ], [ 9.323971656629572, 51.85503569578654 ], [ 9.32586023642301, 51.854478599544564 ], [ 9.327351920610562, 51.854097496552605 ], [ 9.329360939553654, 51.85393737982492 ], [ 9.333500440906571, 51.853978122432217 ], [ 9.336319375410053, 51.854527565265933 ], [ 9.338841684254005, 51.855316989623084 ], [ 9.342798814296357, 51.856822083591389 ], [ 9.346309012806918, 51.860490872405251 ], [ 9.361195498227941, 51.864835970678016 ], [ 9.366038711423981, 51.864666390493362 ], [ 9.423851323274505, 51.855776063865818 ], [ 9.443988491361685, 51.846348635112619 ], [ 9.440423527791303, 51.825390981313674 ], [ 9.447658486453836, 51.795019911417128 ], [ 9.447213192666339, 51.794197256290104 ], [ 9.399523973548275, 51.758676780085977 ], [ 9.384561374188698, 51.754569233954271 ], [ 9.376275307906468, 51.744909224834529 ], [ 9.375844333631322, 51.744167367382317 ], [ 9.375615284885193, 51.743463454308888 ], [ 9.375648965055154, 51.742096231418728 ], [ 9.376115528314848, 51.740805089506004 ], [ 9.387339310183572, 51.722683262351183 ], [ 9.397027666783021, 51.707811965508867 ], [ 9.398064553937488, 51.706849940187226 ], [ 9.399176624970025, 51.705771654196965 ], [ 9.399933856389305, 51.704995966768799 ], [ 9.400516470926995, 51.704254638443963 ], [ 9.400970655890037, 51.703431130679263 ], [ 9.401217224304084, 51.702812610121228 ], [ 9.401407803137859, 51.702112623112846 ], [ 9.401485394131948, 51.701294622984683 ], [ 9.401455351546081, 51.700736514187625 ], [ 9.401284071619818, 51.700033155164782 ], [ 9.394628465847433, 51.680087685823509 ], [ 9.386483191026171, 51.670465334353004 ], [ 9.385047302991593, 51.670010966099014 ], [ 9.384258471244419, 51.669724581889753 ], [ 9.383599842530227, 51.669439471184084 ], [ 9.382758205029157, 51.668945678192323 ], [ 9.381819734372854, 51.668271019550488 ], [ 9.380842084425941, 51.667425037365113 ], [ 9.379914654116075, 51.666300606155559 ], [ 9.379021566386854, 51.664960579626971 ], [ 9.378449958222573, 51.664082419063909 ], [ 9.378025588207411, 51.663097713723758 ], [ 9.377754208807476, 51.662366335308867 ], [ 9.375755399668069, 51.652459470247159 ], [ 9.37551160085213, 51.651197522520071 ], [ 9.375388646610656, 51.650314635850393 ], [ 9.382333858190105, 51.647240506046764 ], [ 9.387079462094524, 51.645971701632767 ], [ 9.394034492123557, 51.646018986153074 ], [ 9.415193700893768, 51.647177800750271 ], [ 9.438960918619465, 51.650668498166375 ], [ 9.444240985969921, 51.645614443671988 ], [ 9.43367418264063, 51.635487768529366 ], [ 9.42963028404751, 51.632824036858395 ], [ 9.424173852742186, 51.630615167564684 ], [ 9.416118880479026, 51.628886039164911 ], [ 9.398573708545912, 51.626276545943924 ], [ 9.391331360935101, 51.62687457292563 ], [ 9.376971578600887, 51.627080839782494 ], [ 9.371830134466313, 51.625709258517205 ], [ 9.336841678248172, 51.614564079246563 ], [ 9.336565543674043, 51.611781168867566 ], [ 9.349449024612991, 51.601713380922888 ], [ 9.356109761746431, 51.597657305969669 ], [ 9.36321510118643, 51.594846779049206 ], [ 9.3680111865227, 51.590169236810453 ], [ 9.345255150164316, 51.570361363162831 ], [ 9.32591076403523, 51.555036592938436 ], [ 9.319118584167445, 51.548643475848436 ], [ 9.31465819913155, 51.5403119165573 ], [ 9.313792035683122, 51.538656657835872 ], [ 9.313348589657206, 51.537392531193689 ], [ 9.311311249646947, 51.530272873936639 ], [ 9.28457172595315, 51.514272159856866 ], [ 9.241360323551028, 51.497694399493085 ], [ 9.226321843179123, 51.489488645737055 ], [ 9.225403504847808, 51.488821854108231 ], [ 9.217185389237173, 51.481183327467157 ], [ 9.216955961754481, 51.461034366911697 ], [ 9.215122424017066, 51.459124784436668 ], [ 9.197952385777498, 51.463219145465359 ], [ 9.18576284780805, 51.466340951703508 ], [ 9.175016041850204, 51.463341083034948 ], [ 9.172729386650234, 51.460219993725033 ], [ 9.162456047378585, 51.445490697159215 ], [ 9.157004438289411, 51.442828131877704 ], [ 9.150498770062478, 51.442249780226426 ], [ 9.100967275818991, 51.443668792223001 ], [ 9.089605905550826, 51.446025680636161 ], [ 9.078086535203177, 51.465080463965236 ], [ 9.078073216785038, 51.466906958867582 ], [ 9.087792628479828, 51.481592164192215 ], [ 9.091676831372091, 51.48745153186043 ], [ 9.094523836564367, 51.495673914133533 ], [ 9.079076719063494, 51.503847912752398 ], [ 9.059371329363893, 51.500495193040116 ], [ 9.038721401021922, 51.502445436063852 ], [ 9.024059662206209, 51.511368961623226 ], [ 9.018232076804219, 51.516775790043162 ], [ 8.986095275115439, 51.508574655499785 ], [ 8.969765504656246, 51.505304223942403 ], [ 8.965342859548899, 51.504319836808683 ], [ 8.943743697763942, 51.499213252399009 ], [ 8.910317934278117, 51.491073036981525 ], [ 8.897888488294058, 51.487053147364861 ], [ 8.893617525073505, 51.485123234238806 ], [ 8.890890815986531, 51.481909435440443 ], [ 8.891259143823214, 51.477568091501794 ], [ 8.893763991723681, 51.471465145244522 ], [ 8.922421361671629, 51.443220912429396 ] ] ] ] } }
]
}
